{
"type": "FeatureCollection",
"name": "2026-08-26",
"crs": { "type": "name", "properties": { "name": "urn:ogc:def:crs:OGC:1.3:CRS84" } },
"features": [
{ "type": "Feature", "properties": { }, "geometry": { "type": "Polygon", "coordinates": [ [ [ 103.295111941245665, 22.777470890713175 ], [ 103.302796397636953, 22.76245151854156 ], [ 103.297470946827318, 22.736721880955805 ], [ 103.304137844375987, 22.710457349820977 ], [ 103.293710671281715, 22.697153411068289 ], [ 103.293902772905412, 22.664942450109322 ], [ 103.281153617766918, 22.649311664293098 ], [ 103.286198024221235, 22.61359836913881 ], [ 103.277465587499293, 22.550800671297885 ], [ 103.267300172706598, 22.50549725325823 ], [ 103.242902297401898, 22.46822987215387 ], [ 103.239545271871776, 22.432980167424049 ], [ 103.225757598987826, 22.409971962950209 ], [ 103.211635171745712, 22.357582693556516 ], [ 103.201444675121948, 22.277322629645308 ], [ 103.211634146919536, 22.256512217609774 ], [ 103.200387101882441, 22.223142530163251 ], [ 103.187870973980111, 22.125494918638772 ], [ 103.169650788446873, 22.089656731731157 ], [ 103.169543734276701, 22.054934162835568 ], [ 103.147965989094217, 21.947068138090987 ], [ 103.132989575546006, 21.911758494440058 ], [ 103.13021804733431, 21.882234314164407 ], [ 103.115054806690324, 21.85739287379241 ], [ 103.115514906055211, 21.817324327804819 ], [ 103.092302759191952, 21.689129463671406 ], [ 103.078140755187675, 21.662417018358749 ], [ 103.075401789865865, 21.632890007307896 ], [ 103.046673999319424, 21.543066969476154 ], [ 103.034265565747191, 21.459922294939048 ], [ 103.036022403598579, 21.419651292062422 ], [ 103.010124529001317, 21.291922167518347 ], [ 102.979834091398871, 21.216706475625763 ], [ 102.982072310448658, 21.173076422711262 ], [ 102.959231488597467, 21.114503724786037 ], [ 102.952798266852554, 21.057096336524221 ], [ 102.952136, 21.0577379 ], [ 102.9507387, 21.0592378 ], [ 102.9465957, 21.0641692 ], [ 102.9464568, 21.0643364 ], [ 102.9434163, 21.0680364 ], [ 102.9422863, 21.0695522 ], [ 102.9413045, 21.071168 ], [ 102.9404796, 21.0728693 ], [ 102.9398191, 21.0746409 ], [ 102.9393288, 21.0764669 ], [ 102.9390132, 21.0783311 ], [ 102.938875, 21.0802167 ], [ 102.9387645, 21.084486 ], [ 102.9388081, 21.0864204 ], [ 102.9390383, 21.0883414 ], [ 102.9394531, 21.0902313 ], [ 102.9400486, 21.0920722 ], [ 102.9408192, 21.093847 ], [ 102.9417577, 21.0955389 ], [ 102.9428552, 21.0971323 ], [ 102.9434793, 21.0978733 ], [ 102.9414703, 21.1019581 ], [ 102.940146, 21.103319 ], [ 102.9364275, 21.105444 ], [ 102.9328534, 21.106761 ], [ 102.9310606, 21.1075226 ], [ 102.9293504, 21.1084551 ], [ 102.9277391, 21.1095494 ], [ 102.9262418, 21.1107954 ], [ 102.9248728, 21.112181 ], [ 102.9226666, 21.1146432 ], [ 102.9214008, 21.1162077 ], [ 102.9202986, 21.1178914 ], [ 102.9193712, 21.1196773 ], [ 102.9186279, 21.1215474 ], [ 102.9180763, 21.1234828 ], [ 102.9177221, 21.1254637 ], [ 102.9175686, 21.1274703 ], [ 102.9175164, 21.1294792 ], [ 102.9175689, 21.1315358 ], [ 102.9178322, 21.1335761 ], [ 102.9183038, 21.1355785 ], [ 102.918798, 21.1370019 ], [ 102.9174216, 21.1370689 ], [ 102.9154258, 21.1373697 ], [ 102.9134705, 21.1378701 ], [ 102.9115755, 21.1385651 ], [ 102.9097603, 21.1394474 ], [ 102.9080432, 21.1405083 ], [ 102.9064418, 21.1417368 ], [ 102.9049724, 21.1431205 ], [ 102.9037649, 21.1443784 ], [ 102.9025089, 21.1446424 ], [ 102.9006619, 21.1451238 ], [ 102.8988692, 21.145779 ], [ 102.8971471, 21.1466022 ], [ 102.8955113, 21.1475857 ], [ 102.8922402, 21.1497716 ], [ 102.8906457, 21.1509558 ], [ 102.8891765, 21.1522922 ], [ 102.887847, 21.1537678 ], [ 102.8866705, 21.155368 ], [ 102.8856585, 21.157077 ], [ 102.884821, 21.158878 ], [ 102.8831032, 21.1631097 ], [ 102.8824994, 21.1648147 ], [ 102.882052, 21.1665673 ], [ 102.8817649, 21.1683531 ], [ 102.8816402, 21.1701576 ], [ 102.8816791, 21.171966 ], [ 102.8818812, 21.1737635 ], [ 102.8828006, 21.1795634 ], [ 102.8832168, 21.1815383 ], [ 102.8833758, 21.182037 ], [ 102.8831918, 21.1826195 ], [ 102.8827954, 21.1844655 ], [ 102.8825747, 21.1863406 ], [ 102.8825319, 21.1882283 ], [ 102.8826615, 21.1935073 ], [ 102.8827945, 21.1953701 ], [ 102.8831006, 21.1972123 ], [ 102.8835772, 21.199018 ], [ 102.8842202, 21.2007714 ], [ 102.8850239, 21.2024572 ], [ 102.8877985, 21.207639 ], [ 102.8873758, 21.2108993 ], [ 102.8872239, 21.2127185 ], [ 102.8872385, 21.214544 ], [ 102.8874412, 21.2183175 ], [ 102.8868365, 21.2188518 ], [ 102.885497, 21.2202932 ], [ 102.884768, 21.2211595 ], [ 102.8821794, 21.2242354 ], [ 102.8805764, 21.2264262 ], [ 102.8775778, 21.2311693 ], [ 102.8747288, 21.2318994 ], [ 102.873726, 21.2321845 ], [ 102.8674174, 21.2341567 ], [ 102.8645131, 21.2350646 ], [ 102.8640014, 21.2352245 ], [ 102.8628069, 21.2356397 ], [ 102.8588231, 21.2371672 ], [ 102.8573519, 21.2367359 ], [ 102.8552098, 21.2346254 ], [ 102.8537046, 21.2332849 ], [ 102.8520721, 21.2321027 ], [ 102.8503288, 21.2310908 ], [ 102.8484926, 21.2302595 ], [ 102.8465821, 21.2296173 ], [ 102.8436565, 21.2287954 ], [ 102.8420585, 21.2284165 ], [ 102.8404348, 21.22817 ], [ 102.8387963, 21.2280575 ], [ 102.8311541, 21.2278476 ], [ 102.82998, 21.2278499 ], [ 102.8284415, 21.227898 ], [ 102.8283989, 21.2278993 ], [ 102.8268977, 21.2279495 ], [ 102.8263502, 21.2279662 ], [ 102.8244854, 21.228023 ], [ 102.8237577, 21.2278053 ], [ 102.8218137, 21.2274282 ], [ 102.819842, 21.2272451 ], [ 102.8178618, 21.227258 ], [ 102.8158927, 21.2274666 ], [ 102.8139538, 21.2278689 ], [ 102.8120641, 21.2284609 ], [ 102.8102423, 21.229237 ], [ 102.8085062, 21.2301893 ], [ 102.8068728, 21.2313087 ], [ 102.805358, 21.2325842 ], [ 102.8039768, 21.2340031 ], [ 102.8027427, 21.2355517 ], [ 102.8016678, 21.2372148 ], [ 102.8007626, 21.238976 ], [ 102.800036, 21.2408181 ], [ 102.7996919, 21.2420301 ], [ 102.7975955, 21.2435888 ], [ 102.7949794, 21.245838 ], [ 102.7936563, 21.2470845 ], [ 102.7924519, 21.2484459 ], [ 102.7909358, 21.2503252 ], [ 102.7895675, 21.2522421 ], [ 102.788434, 21.2543066 ], [ 102.7876657, 21.2559252 ], [ 102.7869913, 21.2575211 ], [ 102.7864575, 21.2591693 ], [ 102.7860684, 21.2608576 ], [ 102.7858268, 21.2625731 ], [ 102.7857179, 21.2636973 ], [ 102.7856247, 21.2655963 ], [ 102.7857123, 21.2674956 ], [ 102.7859798, 21.2693779 ], [ 102.7864249, 21.2712264 ], [ 102.7870435, 21.2730242 ], [ 102.7878299, 21.2747551 ], [ 102.7885557, 21.2761698 ], [ 102.7895719, 21.2779252 ], [ 102.7907606, 21.2795685 ], [ 102.7921096, 21.2810831 ], [ 102.793605, 21.2824532 ], [ 102.7949895, 21.2835981 ], [ 102.7964081, 21.2846687 ], [ 102.7979161, 21.2856091 ], [ 102.8021059, 21.2879702 ], [ 102.803203, 21.2885444 ], [ 102.811478, 21.2925545 ], [ 102.8205117, 21.2982251 ], [ 102.8207882, 21.2988183 ], [ 102.8217679, 21.3004804 ], [ 102.8229032, 21.3020403 ], [ 102.8257333, 21.3055587 ], [ 102.8270382, 21.307027 ], [ 102.8284809, 21.3083603 ], [ 102.8300473, 21.3095456 ], [ 102.8317225, 21.3105715 ], [ 102.8334903, 21.3114281 ], [ 102.8353136, 21.3120998 ], [ 102.8361639, 21.3129135 ], [ 102.8377294, 21.3141384 ], [ 102.8414128, 21.316736 ], [ 102.8429716, 21.3177307 ], [ 102.8446157, 21.3185772 ], [ 102.8463309, 21.3192682 ], [ 102.8481027, 21.3197979 ], [ 102.8499157, 21.3201616 ], [ 102.8517546, 21.3203564 ], [ 102.8575845, 21.3207023 ], [ 102.8631413, 21.3216682 ], [ 102.8644801, 21.3218546 ], [ 102.8706275, 21.3224994 ], [ 102.8707261, 21.3225057 ], [ 102.8694952, 21.3255002 ], [ 102.8688415, 21.3273414 ], [ 102.8683707, 21.3292377 ], [ 102.868087, 21.3311708 ], [ 102.8679934, 21.3331224 ], [ 102.8680906, 21.3350738 ], [ 102.8685142, 21.3393536 ], [ 102.8687421, 21.3409751 ], [ 102.8691018, 21.3425725 ], [ 102.869591, 21.3441351 ], [ 102.8718112, 21.350326 ], [ 102.8724205, 21.3555946 ], [ 102.8728238, 21.3578947 ], [ 102.8734924, 21.3601322 ], [ 102.8749091, 21.3640276 ], [ 102.8752785, 21.3654668 ], [ 102.8756288, 21.3687455 ], [ 102.8754135, 21.3769465 ], [ 102.8747388, 21.3807074 ], [ 102.8744874, 21.3826545 ], [ 102.8744281, 21.3846168 ], [ 102.8745614, 21.3865755 ], [ 102.8748862, 21.3885116 ], [ 102.8753992, 21.3904066 ], [ 102.8760956, 21.3922422 ], [ 102.8769686, 21.3940007 ], [ 102.8795297, 21.3985805 ], [ 102.880499, 21.4001409 ], [ 102.8816074, 21.4016059 ], [ 102.8828455, 21.402963 ], [ 102.8842029, 21.4042007 ], [ 102.8856682, 21.4053087 ], [ 102.8889458, 21.4075582 ], [ 102.8892356, 21.4079513 ], [ 102.8876672, 21.4076513 ], [ 102.8812444, 21.4067788 ], [ 102.876635, 21.4060299 ], [ 102.8742903, 21.4056491 ], [ 102.8723485, 21.4054304 ], [ 102.8703945, 21.4054023 ], [ 102.8684472, 21.405565 ], [ 102.866525, 21.4059169 ], [ 102.8646463, 21.4064548 ], [ 102.8628291, 21.4071734 ], [ 102.8610907, 21.4080659 ], [ 102.8594478, 21.4091239 ], [ 102.8579158, 21.4103371 ], [ 102.8565096, 21.411694 ], [ 102.8552426, 21.4131817 ], [ 102.8529162, 21.4162003 ], [ 102.8517969, 21.4178101 ], [ 102.8508405, 21.4195218 ], [ 102.8500564, 21.4213189 ], [ 102.849452, 21.4231841 ], [ 102.8490332, 21.4250996 ], [ 102.8488039, 21.4270468 ], [ 102.8487664, 21.4290072 ], [ 102.8489211, 21.4309618 ], [ 102.8492664, 21.4328919 ], [ 102.8498821, 21.4355689 ], [ 102.8503681, 21.4373156 ], [ 102.8510104, 21.4390111 ], [ 102.8518036, 21.4406415 ], [ 102.8527411, 21.4421934 ], [ 102.8538154, 21.443654 ], [ 102.8555119, 21.4457541 ], [ 102.8555252, 21.4459673 ], [ 102.8557425, 21.4479115 ], [ 102.8561489, 21.4498252 ], [ 102.8567402, 21.4516901 ], [ 102.8575109, 21.4534882 ], [ 102.8582655, 21.4550351 ], [ 102.8593424, 21.4569643 ], [ 102.8606255, 21.458763 ], [ 102.8620992, 21.4604092 ], [ 102.863379, 21.4616889 ], [ 102.8646573, 21.4628608 ], [ 102.8660324, 21.4639175 ], [ 102.8674938, 21.4648512 ], [ 102.8683292, 21.4653352 ], [ 102.8678568, 21.4667154 ], [ 102.8666599, 21.4694674 ], [ 102.8659556, 21.471337 ], [ 102.8654414, 21.4732676 ], [ 102.8651223, 21.4752399 ], [ 102.8650016, 21.4772341 ], [ 102.8650805, 21.4792304 ], [ 102.8653581, 21.4812089 ], [ 102.8658317, 21.4831498 ], [ 102.8664967, 21.4850338 ], [ 102.8673463, 21.4868421 ], [ 102.868372, 21.4885565 ], [ 102.8695637, 21.4901601 ], [ 102.8709094, 21.4916368 ], [ 102.8723957, 21.4929718 ], [ 102.8740078, 21.4941519 ], [ 102.8755899, 21.4951928 ], [ 102.8773539, 21.4962282 ], [ 102.8792145, 21.497078 ], [ 102.8811521, 21.4977333 ], [ 102.8831464, 21.4981873 ], [ 102.8851768, 21.4984352 ], [ 102.8872218, 21.4984745 ], [ 102.8918949, 21.4983251 ], [ 102.8920327, 21.5017258 ], [ 102.8921961, 21.5035917 ], [ 102.8925333, 21.5054341 ], [ 102.8930414, 21.5072369 ], [ 102.8937159, 21.5089842 ], [ 102.8954766, 21.5129779 ], [ 102.8963542, 21.5147305 ], [ 102.8973992, 21.5163889 ], [ 102.8986016, 21.5179369 ], [ 102.8999496, 21.5193599 ], [ 102.9055515, 21.5247204 ], [ 102.9072858, 21.5262001 ], [ 102.9091772, 21.5274728 ], [ 102.9199341, 21.533852 ], [ 102.9203985, 21.5341297 ], [ 102.921921, 21.5362744 ], [ 102.9221071, 21.5365364 ], [ 102.9239247, 21.5391659 ], [ 102.9256066, 21.5412785 ], [ 102.9275632, 21.5434215 ], [ 102.9293319, 21.5457044 ], [ 102.9303582, 21.5470291 ], [ 102.93167, 21.5485567 ], [ 102.9331288, 21.5499447 ], [ 102.9354996, 21.5519832 ], [ 102.9362857, 21.5526592 ], [ 102.936286, 21.5543676 ], [ 102.9364721, 21.5562873 ], [ 102.9368423, 21.5581802 ], [ 102.937393, 21.5600286 ], [ 102.9381193, 21.5618154 ], [ 102.9390143, 21.5635239 ], [ 102.9400696, 21.5651382 ], [ 102.9426604, 21.5687122 ], [ 102.9440444, 21.5704162 ], [ 102.9456069, 21.5719582 ], [ 102.9479621, 21.5740403 ], [ 102.9487813, 21.5756707 ], [ 102.9498711, 21.5775723 ], [ 102.9511624, 21.5793432 ], [ 102.9526398, 21.5809622 ], [ 102.9544719, 21.5827612 ], [ 102.9558298, 21.5839781 ], [ 102.9572929, 21.5850662 ], [ 102.958849, 21.5860166 ], [ 102.9617628, 21.5876185 ], [ 102.9637121, 21.5905026 ], [ 102.9643067, 21.5913355 ], [ 102.9676168, 21.5957302 ], [ 102.9680843, 21.596291 ], [ 102.9673691, 21.597244 ], [ 102.9659689, 21.599382 ], [ 102.9654101, 21.6003673 ], [ 102.9644651, 21.6022604 ], [ 102.9637254, 21.6042428 ], [ 102.9631992, 21.6062923 ], [ 102.9628925, 21.6083858 ], [ 102.9627077, 21.6103774 ], [ 102.9626223, 21.6121592 ], [ 102.962696, 21.6139414 ], [ 102.9629281, 21.61571 ], [ 102.9637401, 21.6202989 ], [ 102.9637298, 21.6206967 ], [ 102.9636479, 21.6213371 ], [ 102.9629559, 21.6243684 ], [ 102.9619981, 21.6280367 ], [ 102.9619566, 21.6281984 ], [ 102.9613623, 21.6305549 ], [ 102.960941, 21.6327253 ], [ 102.9607618, 21.6349289 ], [ 102.9607328, 21.6360508 ], [ 102.9607742, 21.6379539 ], [ 102.9609964, 21.6398444 ], [ 102.9611354, 21.6404895 ], [ 102.9605982, 21.6415414 ], [ 102.9600328, 21.6427759 ], [ 102.959297, 21.6446189 ], [ 102.9589364, 21.6456709 ], [ 102.9584294, 21.6474004 ], [ 102.9580802, 21.6491685 ], [ 102.9578915, 21.6509609 ], [ 102.957865, 21.6527629 ], [ 102.957937, 21.6551344 ], [ 102.9581155, 21.6572609 ], [ 102.9585194, 21.6593562 ], [ 102.9586482, 21.6598739 ], [ 102.9594596, 21.662404 ], [ 102.9613179, 21.6671001 ], [ 102.9645969, 21.6765348 ], [ 102.9641256, 21.6770011 ], [ 102.9628434, 21.6783959 ], [ 102.9616989, 21.6799058 ], [ 102.9607025, 21.6815172 ], [ 102.9598629, 21.6832156 ], [ 102.9591879, 21.6849859 ], [ 102.9586834, 21.6868121 ], [ 102.958354, 21.6886778 ], [ 102.9576808, 21.6939338 ], [ 102.9575261, 21.6959313 ], [ 102.957572, 21.6979343 ], [ 102.9578181, 21.6999226 ], [ 102.958262, 21.7018763 ], [ 102.958899, 21.7037758 ], [ 102.9597229, 21.7056021 ], [ 102.9607254, 21.7073368 ], [ 102.9618964, 21.7089624 ], [ 102.9632241, 21.7104627 ], [ 102.9674084, 21.7147387 ], [ 102.9673348, 21.7153631 ], [ 102.9665195, 21.7163086 ], [ 102.9629703, 21.7135205 ], [ 102.9613375, 21.7123651 ], [ 102.9595975, 21.7113785 ], [ 102.9577677, 21.7105707 ], [ 102.9558663, 21.7099497 ], [ 102.9539124, 21.7095217 ], [ 102.9514213, 21.7091054 ], [ 102.9433176, 21.7069022 ], [ 102.9414855, 21.7064953 ], [ 102.9396234, 21.706262 ], [ 102.9350664, 21.7059071 ], [ 102.933465, 21.7058468 ], [ 102.9268315, 21.7058628 ], [ 102.922819, 21.7045102 ], [ 102.9063584, 21.6988759 ], [ 102.9058282, 21.6987026 ], [ 102.8971565, 21.6960021 ], [ 102.8956052, 21.6939016 ], [ 102.8943742, 21.6923941 ], [ 102.8930025, 21.6910135 ], [ 102.8915031, 21.6897727 ], [ 102.8898902, 21.6886836 ], [ 102.888179, 21.6877563 ], [ 102.8863859, 21.6869998 ], [ 102.8845277, 21.6864211 ], [ 102.882622, 21.6860258 ], [ 102.8807906, 21.685738 ], [ 102.8807369, 21.6857296 ], [ 102.878106, 21.6854944 ], [ 102.8754219, 21.6854325 ], [ 102.873548, 21.6854772 ], [ 102.8716865, 21.685697 ], [ 102.8698538, 21.6860902 ], [ 102.8680659, 21.6866533 ], [ 102.8663386, 21.6873812 ], [ 102.864687, 21.6882677 ], [ 102.8631257, 21.6893049 ], [ 102.8616683, 21.6904837 ], [ 102.8572676, 21.6943982 ], [ 102.855281, 21.6964364 ], [ 102.8525761, 21.6996389 ], [ 102.8515814, 21.7001289 ], [ 102.850065, 21.7010515 ], [ 102.8486364, 21.7021048 ], [ 102.842598, 21.7069851 ], [ 102.841164, 21.7082626 ], [ 102.8398592, 21.7096717 ], [ 102.8386956, 21.7111995 ], [ 102.8376838, 21.7128319 ], [ 102.8368333, 21.7145537 ], [ 102.8361519, 21.7163492 ], [ 102.8356458, 21.7182018 ], [ 102.8354026, 21.7196131 ], [ 102.8342922, 21.7187474 ], [ 102.8326285, 21.7176956 ], [ 102.8297167, 21.7160495 ], [ 102.8279857, 21.7151788 ], [ 102.8276449, 21.7150469 ], [ 102.8271476, 21.7133488 ], [ 102.826397, 21.7114956 ], [ 102.825465, 21.7097266 ], [ 102.8243611, 21.7080595 ], [ 102.8230963, 21.706511 ], [ 102.8216832, 21.7050965 ], [ 102.8201359, 21.7038301 ], [ 102.8187176, 21.7027832 ], [ 102.8171091, 21.701712 ], [ 102.8154048, 21.700801 ], [ 102.8153044, 21.7007592 ], [ 102.8145163, 21.699189 ], [ 102.8135498, 21.6974783 ], [ 102.81242, 21.6958707 ], [ 102.8111379, 21.6943818 ], [ 102.8097159, 21.6930258 ], [ 102.8081678, 21.6918159 ], [ 102.8065083, 21.6907638 ], [ 102.8047537, 21.6898795 ], [ 102.8019026, 21.6886143 ], [ 102.8015363, 21.6884518 ], [ 102.7995687, 21.6877002 ], [ 102.797533, 21.6871597 ], [ 102.7954518, 21.6868363 ], [ 102.7933481, 21.6867336 ], [ 102.7919237, 21.6868142 ], [ 102.7868767, 21.6807434 ], [ 102.7848492, 21.6782022 ], [ 102.7828551, 21.6735313 ], [ 102.7821472, 21.6720454 ], [ 102.7813194, 21.6706228 ], [ 102.7803775, 21.6692731 ], [ 102.7772354, 21.6651437 ], [ 102.7757707, 21.6634288 ], [ 102.7741224, 21.6618897 ], [ 102.7723112, 21.660546 ], [ 102.7691144, 21.6584429 ], [ 102.7674393, 21.6574541 ], [ 102.7658765, 21.6567261 ], [ 102.7654082, 21.6560156 ], [ 102.7641415, 21.6544592 ], [ 102.7627253, 21.6530376 ], [ 102.7581387, 21.6488738 ], [ 102.7565339, 21.647562 ], [ 102.7548019, 21.6464233 ], [ 102.7529613, 21.64547 ], [ 102.7490332, 21.6436872 ], [ 102.7468055, 21.6428324 ], [ 102.7444919, 21.642249 ], [ 102.7392058, 21.6412471 ], [ 102.7383763, 21.64109 ], [ 102.7362817, 21.6408069 ], [ 102.7341689, 21.6407464 ], [ 102.7320615, 21.6409092 ], [ 102.7299831, 21.6412935 ], [ 102.7279568, 21.641895 ], [ 102.7260054, 21.642707 ], [ 102.7219766, 21.6446391 ], [ 102.7216312, 21.6448188 ], [ 102.7110526, 21.6445671 ], [ 102.703269, 21.6433375 ], [ 102.7022898, 21.6431827 ], [ 102.7000418, 21.6429567 ], [ 102.6977826, 21.6429856 ], [ 102.6967572, 21.6430568 ], [ 102.6947865, 21.6414151 ], [ 102.6931814, 21.6402091 ], [ 102.6914635, 21.6391701 ], [ 102.6896501, 21.6383086 ], [ 102.6877594, 21.6376332 ], [ 102.6858105, 21.6371508 ], [ 102.6832272, 21.6366474 ], [ 102.6818556, 21.6363802 ], [ 102.6800279, 21.6361109 ], [ 102.6781832, 21.6360115 ], [ 102.6763372, 21.6360827 ], [ 102.6745056, 21.6363239 ], [ 102.6727041, 21.6367331 ], [ 102.6709481, 21.6373068 ], [ 102.6692524, 21.6380401 ], [ 102.6659548, 21.6396508 ], [ 102.6642404, 21.6405947 ], [ 102.6626265, 21.6417018 ], [ 102.6611284, 21.6429612 ], [ 102.6597607, 21.6443611 ], [ 102.6585363, 21.6458879 ], [ 102.657467, 21.6475271 ], [ 102.656563, 21.6492629 ], [ 102.6527938, 21.6574562 ], [ 102.6448208, 21.6739982 ], [ 102.6440072, 21.6759419 ], [ 102.6434026, 21.6779605 ], [ 102.6430137, 21.6800314 ], [ 102.6428449, 21.6821318 ], [ 102.6426677, 21.6885702 ], [ 102.6397599, 21.6994687 ], [ 102.6318533, 21.7153618 ], [ 102.6309485, 21.7174779 ], [ 102.6271985, 21.7278638 ], [ 102.6266521, 21.729628 ], [ 102.6262708, 21.7314351 ], [ 102.6260579, 21.7332697 ], [ 102.6260151, 21.7351161 ], [ 102.6261428, 21.7369586 ], [ 102.6264399, 21.7387815 ], [ 102.6289215, 21.7505527 ], [ 102.6312245, 21.76336 ], [ 102.6325686, 21.7743956 ], [ 102.6329297, 21.7764558 ], [ 102.633504, 21.778467 ], [ 102.6342852, 21.7804072 ], [ 102.6383497, 21.789152 ], [ 102.6379848, 21.7896005 ], [ 102.6335591, 21.7932801 ], [ 102.6320675, 21.7946538 ], [ 102.6307228, 21.7961715 ], [ 102.6295386, 21.7978175 ], [ 102.6285272, 21.799575 ], [ 102.627699, 21.8014259 ], [ 102.6265304, 21.8044384 ], [ 102.6258778, 21.8064223 ], [ 102.6254356, 21.8084634 ], [ 102.6252087, 21.8105395 ], [ 102.6251995, 21.8126279 ], [ 102.6254081, 21.814706 ], [ 102.6258323, 21.8167509 ], [ 102.6274157, 21.8227812 ], [ 102.6261448, 21.8274192 ], [ 102.6228376, 21.8339733 ], [ 102.621957, 21.8359863 ], [ 102.6213025, 21.8380839 ], [ 102.6208821, 21.8402405 ], [ 102.6207007, 21.8424303 ], [ 102.6205793, 21.8468192 ], [ 102.6205805, 21.8468866 ], [ 102.615504, 21.8498719 ], [ 102.604644, 21.8549253 ], [ 102.6029606, 21.8558082 ], [ 102.6013686, 21.856847 ], [ 102.5998824, 21.8580323 ], [ 102.5985155, 21.8593533 ], [ 102.5947863, 21.8633168 ], [ 102.5934932, 21.8648363 ], [ 102.5923579, 21.8664772 ], [ 102.5913918, 21.868223 ], [ 102.5906045, 21.8700564 ], [ 102.5900038, 21.8719591 ], [ 102.5895956, 21.8739122 ], [ 102.5893841, 21.8758963 ], [ 102.5893713, 21.8778916 ], [ 102.5895921, 21.8829641 ], [ 102.5897515, 21.8847587 ], [ 102.5900717, 21.8865317 ], [ 102.5905501, 21.8882687 ], [ 102.591183, 21.8899556 ], [ 102.591965, 21.8915786 ], [ 102.5954693, 21.8980845 ], [ 102.5959094, 21.9010368 ], [ 102.5938904, 21.906083 ], [ 102.5937307, 21.9063332 ], [ 102.5933793, 21.9066363 ], [ 102.5904973, 21.9080814 ], [ 102.5860634, 21.9086646 ], [ 102.585767, 21.9087036 ], [ 102.5840214, 21.909012 ], [ 102.5823099, 21.9094739 ], [ 102.5806461, 21.9100854 ], [ 102.5790429, 21.9108419 ], [ 102.5723469, 21.9143725 ], [ 102.562761, 21.9185563 ], [ 102.5624608, 21.9186903 ], [ 102.5540266, 21.9225377 ], [ 102.5523979, 21.9233727 ], [ 102.5508524, 21.9243531 ], [ 102.549403, 21.9254706 ], [ 102.5420653, 21.9316837 ], [ 102.5281887, 21.9401296 ], [ 102.5188948, 21.9454053 ], [ 102.5162644, 21.9462323 ], [ 102.5121445, 21.9475275 ], [ 102.5099628, 21.9482134 ], [ 102.5084427, 21.9487597 ], [ 102.5029485, 21.9509885 ], [ 102.5009069, 21.9519543 ], [ 102.4989873, 21.9531441 ], [ 102.497214, 21.9545427 ], [ 102.4920145, 21.959143 ], [ 102.4907839, 21.9603293 ], [ 102.4896591, 21.9616164 ], [ 102.4886483, 21.9629947 ], [ 102.4881762, 21.9636998 ], [ 102.4861078, 21.9667896 ], [ 102.4825183, 21.9701917 ], [ 102.4812656, 21.9714911 ], [ 102.4763017, 21.9771288 ], [ 102.472484, 21.9811174 ], [ 102.4712922, 21.9824811 ], [ 102.4702287, 21.9839471 ], [ 102.4693021, 21.9855033 ], [ 102.4685201, 21.9871369 ], [ 102.4678891, 21.9888345 ], [ 102.4674142, 21.9905823 ], [ 102.4662842, 21.9956358 ], [ 102.465857, 21.9985208 ], [ 102.4656282, 22.0016055 ], [ 102.4656149, 22.0043732 ], [ 102.4657771, 22.006886 ], [ 102.4661092, 22.0094455 ], [ 102.4665175, 22.0115281 ], [ 102.4669953, 22.0134537 ], [ 102.4676616, 22.0153226 ], [ 102.4682084, 22.016645 ], [ 102.469072, 22.0184674 ], [ 102.4716256, 22.023221 ], [ 102.4727101, 22.0250088 ], [ 102.4730477, 22.0254531 ], [ 102.4729186, 22.0255288 ], [ 102.4712988, 22.0265877 ], [ 102.4697889, 22.0277982 ], [ 102.468525, 22.0289161 ], [ 102.4671412, 22.0302647 ], [ 102.4658939, 22.0317406 ], [ 102.4647949, 22.0333299 ], [ 102.4635804, 22.0352815 ], [ 102.4619462, 22.0377045 ], [ 102.4588219, 22.0422806 ], [ 102.4580927, 22.043431 ], [ 102.4568634, 22.0455247 ], [ 102.4547651, 22.0462137 ], [ 102.4533554, 22.0467361 ], [ 102.4509749, 22.0477215 ], [ 102.4490613, 22.0486353 ], [ 102.4472552, 22.0497466 ], [ 102.4455769, 22.0510428 ], [ 102.4440453, 22.0525095 ], [ 102.4426776, 22.0541301 ], [ 102.4426056, 22.0542252 ], [ 102.4376407, 22.0549314 ], [ 102.435876, 22.0552638 ], [ 102.4341482, 22.0557531 ], [ 102.4324713, 22.0563955 ], [ 102.4317907, 22.0566919 ], [ 102.4300507, 22.0575524 ], [ 102.4284023, 22.0585776 ], [ 102.426861, 22.0597578 ], [ 102.4254414, 22.0610818 ], [ 102.4241568, 22.0625372 ], [ 102.4230194, 22.0641103 ], [ 102.4225506, 22.0648298 ], [ 102.4216353, 22.0663835 ], [ 102.4208637, 22.0680133 ], [ 102.420242, 22.0697059 ], [ 102.4197493, 22.0712606 ], [ 102.4193022, 22.0729142 ], [ 102.4189983, 22.0745998 ], [ 102.4188563, 22.0756409 ], [ 102.4186876, 22.0775743 ], [ 102.4187071, 22.0795149 ], [ 102.4189146, 22.0814445 ], [ 102.4190247, 22.081976 ], [ 102.4184591, 22.0829376 ], [ 102.41768, 22.0845915 ], [ 102.4170551, 22.0863097 ], [ 102.4165898, 22.0880778 ], [ 102.4162879, 22.089881 ], [ 102.4161519, 22.0917042 ], [ 102.4161249, 22.0926436 ], [ 102.4161758, 22.094756 ], [ 102.4164494, 22.0968513 ], [ 102.4165423, 22.0973542 ], [ 102.4155343, 22.0975617 ], [ 102.4138568, 22.0980633 ], [ 102.4122296, 22.0987096 ], [ 102.4106652, 22.0994958 ], [ 102.4094126, 22.1001956 ], [ 102.4070152, 22.1017707 ], [ 102.4054924, 22.1029356 ], [ 102.4052622, 22.1031028 ], [ 102.3984769, 22.1057911 ], [ 102.3959447, 22.106765 ], [ 102.3948771, 22.1069946 ], [ 102.3928728, 22.1073289 ], [ 102.3911182, 22.1074767 ], [ 102.3898632, 22.1075824 ], [ 102.3889716, 22.1076777 ], [ 102.3849225, 22.1082025 ], [ 102.38286, 22.1085807 ], [ 102.3808485, 22.1091727 ], [ 102.3783579, 22.11005 ], [ 102.3768051, 22.1106711 ], [ 102.3753096, 22.1114197 ], [ 102.3731458, 22.1126186 ], [ 102.3713807, 22.1137204 ], [ 102.3697396, 22.1149996 ], [ 102.3682402, 22.1164423 ], [ 102.3668989, 22.1180331 ], [ 102.3661998, 22.1189556 ], [ 102.3649965, 22.1207343 ], [ 102.3639908, 22.1226319 ], [ 102.3631944, 22.1246263 ], [ 102.3626164, 22.1266946 ], [ 102.3622636, 22.128813 ], [ 102.3621122, 22.1301671 ], [ 102.3619891, 22.132206 ], [ 102.3620747, 22.1342468 ], [ 102.362386, 22.1375839 ], [ 102.3624962, 22.1394149 ], [ 102.3540202, 22.1457692 ], [ 102.3535832, 22.1456157 ], [ 102.3516621, 22.1450472 ], [ 102.3513272, 22.1449661 ], [ 102.3503106, 22.1447201 ], [ 102.3482269, 22.1443315 ], [ 102.3461137, 22.1441655 ], [ 102.3445482, 22.1441258 ], [ 102.3427942, 22.1441583 ], [ 102.3410499, 22.1443444 ], [ 102.3393285, 22.1446826 ], [ 102.3353312, 22.1456518 ], [ 102.3346037, 22.1458427 ], [ 102.3286006, 22.1475396 ], [ 102.3267978, 22.1481431 ], [ 102.3250605, 22.148915 ], [ 102.3234043, 22.1498484 ], [ 102.3226594, 22.1503162 ], [ 102.3208964, 22.1515608 ], [ 102.3192779, 22.1529882 ], [ 102.3178225, 22.1545815 ], [ 102.3165473, 22.1563225 ], [ 102.3161099, 22.1569927 ], [ 102.3150864, 22.1587501 ], [ 102.3142467, 22.1606023 ], [ 102.3135994, 22.1625303 ], [ 102.3131513, 22.164514 ], [ 102.3128998, 22.1659677 ], [ 102.3126156, 22.1687907 ], [ 102.3124929, 22.1729731 ], [ 102.3124917, 22.1741019 ], [ 102.3126703, 22.1806863 ], [ 102.3116187, 22.1820181 ], [ 102.3098419, 22.1840858 ], [ 102.3094492, 22.1839526 ], [ 102.3091172, 22.1838399 ], [ 102.3074942, 22.1833647 ], [ 102.3058368, 22.1830282 ], [ 102.3043811, 22.1827963 ], [ 102.3017454, 22.1825538 ], [ 102.3008059, 22.1825298 ], [ 102.2986689, 22.1825895 ], [ 102.2965504, 22.182877 ], [ 102.2944747, 22.183389 ], [ 102.292999, 22.1838379 ], [ 102.2910054, 22.1845619 ], [ 102.2890997, 22.1854929 ], [ 102.2873033, 22.1866205 ], [ 102.2862364, 22.1873719 ], [ 102.2860995, 22.1874787 ], [ 102.2858579, 22.1875159 ], [ 102.2856942, 22.1874341 ], [ 102.2838782, 22.1867379 ], [ 102.2820033, 22.1862214 ], [ 102.280087, 22.1858894 ], [ 102.2781476, 22.1857452 ], [ 102.27773, 22.1857345 ], [ 102.2757031, 22.1857853 ], [ 102.2736918, 22.1860412 ], [ 102.2717167, 22.1864993 ], [ 102.2697982, 22.187155 ], [ 102.2679559, 22.1880017 ], [ 102.2662088, 22.1890305 ], [ 102.2657826, 22.1893115 ], [ 102.2641785, 22.1904875 ], [ 102.2626992, 22.1918171 ], [ 102.2613592, 22.1932871 ], [ 102.2601719, 22.1948829 ], [ 102.2591489, 22.1965888 ], [ 102.2583005, 22.1983878 ], [ 102.2576349, 22.2002622 ], [ 102.2571713, 22.2018076 ], [ 102.2567412, 22.2035095 ], [ 102.2555216, 22.2094154 ], [ 102.2552442, 22.2111326 ], [ 102.2551845, 22.2119481 ], [ 102.2542237, 22.212983 ], [ 102.2530609, 22.2145051 ], [ 102.2522524, 22.2158044 ], [ 102.2508368, 22.2162195 ], [ 102.2489465, 22.2169906 ], [ 102.2488921, 22.2170161 ], [ 102.2448522, 22.2172875 ], [ 102.2433045, 22.2174521 ], [ 102.2417743, 22.2177366 ], [ 102.239575, 22.2182348 ], [ 102.2368511, 22.2188181 ], [ 102.2352283, 22.2192374 ], [ 102.2336464, 22.2197911 ], [ 102.2321164, 22.2204753 ], [ 102.2306315, 22.2212155 ], [ 102.2287848, 22.2222619 ], [ 102.2270594, 22.2234981 ], [ 102.2254748, 22.2249102 ], [ 102.2246135, 22.2257639 ], [ 102.2230972, 22.2274475 ], [ 102.2217811, 22.2292918 ], [ 102.220682, 22.2312731 ], [ 102.2201251, 22.2324266 ], [ 102.2194675, 22.2339463 ], [ 102.2189379, 22.2355151 ], [ 102.2180069, 22.2387028 ], [ 102.217836, 22.2393251 ], [ 102.2168905, 22.242999 ], [ 102.2164575, 22.245176 ], [ 102.2162683, 22.2473876 ], [ 102.2162364, 22.2484574 ], [ 102.2162627, 22.2502401 ], [ 102.2163995, 22.2515512 ], [ 102.2156147, 22.2523802 ], [ 102.2152898, 22.252761 ], [ 102.2141502, 22.2542297 ], [ 102.2131519, 22.2557979 ], [ 102.2123036, 22.257452 ], [ 102.2116125, 22.2591778 ], [ 102.2110846, 22.2609603 ], [ 102.2107245, 22.262784 ], [ 102.2106323, 22.2634005 ], [ 102.2098218, 22.2680019 ], [ 102.2086901, 22.2681823 ], [ 102.2059252, 22.2688271 ], [ 102.2038063, 22.2694829 ], [ 102.2017305, 22.2702536 ], [ 102.1997526, 22.2712492 ], [ 102.1978969, 22.2724572 ], [ 102.1975237, 22.2727308 ], [ 102.1941978, 22.2746959 ], [ 102.1928687, 22.2755539 ], [ 102.1916116, 22.2765142 ], [ 102.1899481, 22.2778925 ], [ 102.1894919, 22.2782822 ], [ 102.1877543, 22.2798121 ], [ 102.1855273, 22.2814703 ], [ 102.1832846, 22.2828088 ], [ 102.181229, 22.2839439 ], [ 102.1795852, 22.2842634 ], [ 102.1779358, 22.2846571 ], [ 102.1763257, 22.2851891 ], [ 102.1751681, 22.285684 ], [ 102.1744404, 22.2856994 ], [ 102.1725601, 22.2859181 ], [ 102.1707089, 22.2863136 ], [ 102.1689034, 22.2868824 ], [ 102.1671598, 22.2876193 ], [ 102.1654936, 22.2885178 ], [ 102.1639198, 22.2895698 ], [ 102.1624526, 22.2907658 ], [ 102.161105, 22.2920952 ], [ 102.1598891, 22.293546 ], [ 102.1594916, 22.2940687 ], [ 102.1583906, 22.2956729 ], [ 102.1574506, 22.2973764 ], [ 102.1566807, 22.2991633 ], [ 102.156088, 22.3010164 ], [ 102.1556781, 22.3029184 ], [ 102.1555613, 22.3036261 ], [ 102.1553721, 22.3051211 ], [ 102.155296, 22.3066261 ], [ 102.1552253, 22.3121326 ], [ 102.1552917, 22.3140372 ], [ 102.1555714, 22.3174205 ], [ 102.1557877, 22.3191329 ], [ 102.1561508, 22.3208203 ], [ 102.1566641, 22.3227883 ], [ 102.1572943, 22.3247744 ], [ 102.1581277, 22.3266841 ], [ 102.159035, 22.328499 ], [ 102.157846, 22.3297384 ], [ 102.1575198, 22.3300866 ], [ 102.1535637, 22.3344123 ], [ 102.151782, 22.3363086 ], [ 102.1504406, 22.3378937 ], [ 102.1492478, 22.3394615 ], [ 102.1481485, 22.3410621 ], [ 102.1472095, 22.3427618 ], [ 102.1460906, 22.3450423 ], [ 102.1458582, 22.3455327 ], [ 102.1447339, 22.3479907 ], [ 102.1437271, 22.3506911 ], [ 102.1428755, 22.3536003 ], [ 102.1426514, 22.3544317 ], [ 102.1422162, 22.356197 ], [ 102.1418466, 22.358081 ], [ 102.1416594, 22.3599918 ], [ 102.1416563, 22.3619117 ], [ 102.1417141, 22.3631569 ], [ 102.1418849, 22.3649966 ], [ 102.1422248, 22.3668127 ], [ 102.1427308, 22.3685897 ], [ 102.143046, 22.3694028 ], [ 102.1422326, 22.3706051 ], [ 102.1409117, 22.3712822 ], [ 102.1380465, 22.3726951 ], [ 102.1361329, 22.3737733 ], [ 102.1343491, 22.3750548 ], [ 102.1327165, 22.3765242 ], [ 102.1320042, 22.3772399 ], [ 102.1305751, 22.3788388 ], [ 102.1293254, 22.3805816 ], [ 102.1282695, 22.3824481 ], [ 102.1279543, 22.3830824 ], [ 102.1271637, 22.3848926 ], [ 102.1265555, 22.3867719 ], [ 102.1261357, 22.388702 ], [ 102.12603, 22.389614 ], [ 102.1251261, 22.3909531 ], [ 102.1242449, 22.3925577 ], [ 102.1235141, 22.3942362 ], [ 102.1229399, 22.3959745 ], [ 102.1228254, 22.396383 ], [ 102.1224115, 22.3981721 ], [ 102.1221634, 22.3999917 ], [ 102.1220833, 22.4018264 ], [ 102.1221717, 22.4036607 ], [ 102.1224281, 22.4054791 ], [ 102.1228502, 22.4072664 ], [ 102.1234344, 22.4090074 ], [ 102.1235273, 22.4092471 ], [ 102.1236359, 22.4095276 ], [ 102.1245597, 22.4115661 ], [ 102.1257054, 22.4134887 ], [ 102.1319569, 22.4227571 ], [ 102.131749, 22.4244122 ], [ 102.1316995, 22.4264167 ], [ 102.131851, 22.428416 ], [ 102.1322019, 22.4303902 ], [ 102.1327487, 22.4323193 ], [ 102.133486, 22.4341839 ], [ 102.1344062, 22.4359653 ], [ 102.1355002, 22.4376457 ], [ 102.1367569, 22.4392081 ], [ 102.1381638, 22.4406368 ], [ 102.1417654, 22.4439449 ], [ 102.1421999, 22.4443324 ], [ 102.1442039, 22.4460683 ], [ 102.1457873, 22.4473063 ], [ 102.147487, 22.4483791 ], [ 102.1492858, 22.4492759 ], [ 102.1511655, 22.4499876 ], [ 102.1531072, 22.4505071 ], [ 102.1550912, 22.450829 ], [ 102.1568949, 22.4510293 ], [ 102.1592411, 22.451151 ], [ 102.1615855, 22.4509967 ], [ 102.1636453, 22.450739 ], [ 102.1647779, 22.4508242 ], [ 102.1691995, 22.45186 ], [ 102.1720822, 22.4527523 ], [ 102.1735205, 22.453689 ], [ 102.1753881, 22.4546432 ], [ 102.1773453, 22.4553966 ], [ 102.1793706, 22.4559409 ], [ 102.180188, 22.4561152 ], [ 102.1821067, 22.4564278 ], [ 102.1840466, 22.4565526 ], [ 102.1859894, 22.4564884 ], [ 102.1879169, 22.456236 ], [ 102.1898107, 22.4557976 ], [ 102.191653, 22.4551775 ], [ 102.1925688, 22.4548188 ], [ 102.1948829, 22.4537372 ], [ 102.1962189, 22.4530054 ], [ 102.1981406, 22.4518066 ], [ 102.1989391, 22.4511726 ], [ 102.2031266, 22.4495347 ], [ 102.2054724, 22.4487124 ], [ 102.2063364, 22.4489387 ], [ 102.2081525, 22.4492393 ], [ 102.2099885, 22.4493717 ], [ 102.2118925, 22.4494211 ], [ 102.2136221, 22.4493911 ], [ 102.2153426, 22.4492118 ], [ 102.2170412, 22.4488845 ], [ 102.2189604, 22.4484278 ], [ 102.2209486, 22.4478443 ], [ 102.2224587, 22.4472252 ], [ 102.2251063, 22.4481991 ], [ 102.226812, 22.4487412 ], [ 102.2285594, 22.4491286 ], [ 102.229072, 22.4491949 ], [ 102.2283415, 22.4508221 ], [ 102.2277486, 22.4525494 ], [ 102.2273157, 22.4543237 ], [ 102.227153, 22.4551534 ], [ 102.2269946, 22.4559613 ], [ 102.2266819, 22.4582483 ], [ 102.2266347, 22.460556 ], [ 102.2267104, 22.4625835 ], [ 102.2269037, 22.4647088 ], [ 102.2273224, 22.4668015 ], [ 102.2279616, 22.4688376 ], [ 102.2288142, 22.470794 ], [ 102.2290156, 22.4711961 ], [ 102.2293282, 22.4718202 ], [ 102.2302969, 22.4735373 ], [ 102.2314301, 22.4751507 ], [ 102.2327166, 22.4766448 ], [ 102.2341439, 22.4780048 ], [ 102.2356982, 22.4792178 ], [ 102.2375649, 22.4805318 ], [ 102.2394593, 22.4817129 ], [ 102.2414734, 22.4826755 ], [ 102.2419006, 22.4828511 ], [ 102.2435078, 22.4835113 ], [ 102.2440131, 22.4851507 ], [ 102.244772, 22.4869603 ], [ 102.2457047, 22.4886868 ], [ 102.2460939, 22.4893297 ], [ 102.2471915, 22.4909568 ], [ 102.2484432, 22.4924685 ], [ 102.2498371, 22.4938501 ], [ 102.2513597, 22.4950886 ], [ 102.2529964, 22.4961718 ], [ 102.2536654, 22.4965688 ], [ 102.2541222, 22.4968093 ], [ 102.2542994, 22.4975207 ], [ 102.2547688, 22.4994052 ], [ 102.2551979, 22.5008827 ], [ 102.2557392, 22.5023228 ], [ 102.2571381, 22.5056499 ], [ 102.257328, 22.5060871 ], [ 102.2584774, 22.5086482 ], [ 102.2594862, 22.510601 ], [ 102.2603936, 22.5121433 ], [ 102.2613457, 22.5136107 ], [ 102.2624224, 22.5149894 ], [ 102.2636155, 22.5162686 ], [ 102.2645416, 22.5171784 ], [ 102.2659962, 22.5184744 ], [ 102.2675699, 22.5196227 ], [ 102.2691725, 22.5206764 ], [ 102.2706317, 22.5215493 ], [ 102.2709609, 22.52171 ], [ 102.2724816, 22.5251787 ], [ 102.2725134, 22.5252509 ], [ 102.2745557, 22.5298599 ], [ 102.2753092, 22.5313822 ], [ 102.2766801, 22.5338795 ], [ 102.2773949, 22.5353051 ], [ 102.2795614, 22.5400034 ], [ 102.2803594, 22.5415526 ], [ 102.2812892, 22.5430265 ], [ 102.2829872, 22.5454748 ], [ 102.2839096, 22.5467015 ], [ 102.2849233, 22.5478538 ], [ 102.2867723, 22.5497996 ], [ 102.2883385, 22.5512793 ], [ 102.2900548, 22.5525819 ], [ 102.2917815, 22.5537514 ], [ 102.2994521, 22.5595196 ], [ 102.2998049, 22.5613002 ], [ 102.3003792, 22.563193 ], [ 102.3008502, 22.5645075 ], [ 102.3014358, 22.5659601 ], [ 102.3021333, 22.5673623 ], [ 102.3024027, 22.5678546 ], [ 102.303416, 22.5695102 ], [ 102.3045851, 22.5710597 ], [ 102.3058989, 22.5724886 ], [ 102.307345, 22.5737835 ], [ 102.3089098, 22.574932 ], [ 102.3105786, 22.5759235 ], [ 102.3123357, 22.5767485 ], [ 102.3141644, 22.5773993 ], [ 102.3160476, 22.5778697 ], [ 102.3166356, 22.5779866 ], [ 102.3176056, 22.5781547 ], [ 102.3228841, 22.5789364 ], [ 102.323822, 22.5790528 ], [ 102.3247541, 22.5791461 ], [ 102.3245008, 22.5802569 ], [ 102.3243107, 22.5813343 ], [ 102.3240713, 22.5832013 ], [ 102.3240084, 22.5850826 ], [ 102.3240252, 22.5863128 ], [ 102.3242214, 22.5888475 ], [ 102.3243964, 22.5900817 ], [ 102.324875, 22.5924325 ], [ 102.325113, 22.593324 ], [ 102.3259207, 22.5957266 ], [ 102.3266108, 22.5974165 ], [ 102.3273107, 22.5989438 ], [ 102.3281364, 22.600407 ], [ 102.3285399, 22.6010567 ], [ 102.3296031, 22.602602 ], [ 102.3308064, 22.6040408 ], [ 102.3321392, 22.6053606 ], [ 102.3327568, 22.6059173 ], [ 102.3343249, 22.6071932 ], [ 102.3360137, 22.6083043 ], [ 102.3378061, 22.6092392 ], [ 102.3396837, 22.6099884 ], [ 102.3455944, 22.612007 ], [ 102.3465568, 22.6123088 ], [ 102.3484428, 22.6128484 ], [ 102.3502622, 22.613278 ], [ 102.3521138, 22.613536 ], [ 102.3528515, 22.6136038 ], [ 102.355023, 22.6136848 ], [ 102.3571905, 22.6135298 ], [ 102.3593283, 22.6131405 ], [ 102.3597455, 22.6130409 ], [ 102.3603526, 22.6137318 ], [ 102.3606908, 22.6141071 ], [ 102.3622272, 22.615769 ], [ 102.3628936, 22.616456 ], [ 102.3637825, 22.6173297 ], [ 102.3647236, 22.6184409 ], [ 102.366, 22.6199483 ], [ 102.3666417, 22.6206699 ], [ 102.3668637, 22.6209077 ], [ 102.36724, 22.622297 ], [ 102.3679186, 22.6243536 ], [ 102.3688156, 22.6263248 ], [ 102.3694662, 22.6275708 ], [ 102.3705415, 22.629389 ], [ 102.3717058, 22.6311397 ], [ 102.3724443, 22.6321771 ], [ 102.3732076, 22.63318 ], [ 102.3743558, 22.634556 ], [ 102.3756226, 22.6358238 ], [ 102.3771152, 22.6371893 ], [ 102.3784875, 22.6383363 ], [ 102.3799562, 22.6394563 ], [ 102.380016, 22.6395095 ], [ 102.3795415, 22.6409077 ], [ 102.3782377, 22.6446324 ], [ 102.3776793, 22.6466738 ], [ 102.3760544, 22.6479437 ], [ 102.3746045, 22.649193 ], [ 102.3732808, 22.6505751 ], [ 102.3720952, 22.6520775 ], [ 102.3711133, 22.6534522 ], [ 102.3704872, 22.6543828 ], [ 102.3689075, 22.6568794 ], [ 102.3677491, 22.6589789 ], [ 102.3668504, 22.661202 ], [ 102.3657274, 22.6645436 ], [ 102.3630503, 22.6710097 ], [ 102.3622815, 22.6732266 ], [ 102.3615461, 22.6758317 ], [ 102.361093, 22.6778191 ], [ 102.3608446, 22.6798424 ], [ 102.3608034, 22.6818804 ], [ 102.3609698, 22.683912 ], [ 102.3611631, 22.6853598 ], [ 102.361481, 22.6871298 ], [ 102.3619566, 22.6888641 ], [ 102.3625861, 22.6905487 ], [ 102.3630049, 22.6915322 ], [ 102.3636991, 22.6929951 ], [ 102.3645093, 22.6943971 ], [ 102.3652298, 22.6955348 ], [ 102.3662921, 22.6970519 ], [ 102.3674902, 22.6984642 ], [ 102.3690248, 22.7001121 ], [ 102.3705557, 22.70159 ], [ 102.372235, 22.7028968 ], [ 102.3740079, 22.7041309 ], [ 102.374784, 22.7046448 ], [ 102.3774484, 22.706321 ], [ 102.3793341, 22.7073698 ], [ 102.3813218, 22.7082094 ], [ 102.3834102, 22.7089615 ], [ 102.3860402, 22.7097099 ], [ 102.3875383, 22.7100274 ], [ 102.3893512, 22.7103254 ], [ 102.3911838, 22.7104557 ], [ 102.3923888, 22.7104859 ], [ 102.3943163, 22.7104413 ], [ 102.3962305, 22.7102112 ], [ 102.3976696, 22.7099674 ], [ 102.3993689, 22.709603 ], [ 102.4010302, 22.7090923 ], [ 102.4026408, 22.7084394 ], [ 102.4028938, 22.7083238 ], [ 102.4029883, 22.7082806 ], [ 102.4041138, 22.7089135 ], [ 102.404928, 22.7093172 ], [ 102.4058183, 22.709787 ], [ 102.4084459, 22.7109408 ], [ 102.4097141, 22.7113922 ], [ 102.411274, 22.7118766 ], [ 102.4128681, 22.7122322 ], [ 102.4134527, 22.7123377 ], [ 102.4139591, 22.7127632 ], [ 102.4149912, 22.7135586 ], [ 102.4156485, 22.7140207 ], [ 102.4159142, 22.7150501 ], [ 102.416397, 22.7166014 ], [ 102.4170676, 22.7184354 ], [ 102.4178436, 22.7202739 ], [ 102.4187629, 22.7221671 ], [ 102.419876, 22.7239532 ], [ 102.4206722, 22.7250925 ], [ 102.4207652, 22.7252069 ], [ 102.4208994, 22.7259505 ], [ 102.4213946, 22.7280437 ], [ 102.4221117, 22.7300716 ], [ 102.4231689, 22.7326167 ], [ 102.4240907, 22.7345396 ], [ 102.4250215, 22.7362419 ], [ 102.4259215, 22.7377302 ], [ 102.4269474, 22.7391347 ], [ 102.4280915, 22.7404447 ], [ 102.4284974, 22.7408706 ], [ 102.4284604, 22.741094 ], [ 102.428322, 22.7423577 ], [ 102.4282063, 22.744179 ], [ 102.4282571, 22.7460032 ], [ 102.4285827, 22.7504269 ], [ 102.4288142, 22.752326 ], [ 102.4295896, 22.7568659 ], [ 102.4298518, 22.758147 ], [ 102.4305594, 22.7611082 ], [ 102.4310302, 22.7627608 ], [ 102.4316411, 22.764367 ], [ 102.4323877, 22.7659147 ], [ 102.4332643, 22.7673927 ], [ 102.4342409, 22.7688887 ], [ 102.4345611, 22.7693641 ], [ 102.4376069, 22.7737499 ], [ 102.4382071, 22.7745689 ], [ 102.4410436, 22.7782405 ], [ 102.442881, 22.7803064 ], [ 102.4444256, 22.7818182 ], [ 102.4458818, 22.7831108 ], [ 102.4474567, 22.7842556 ], [ 102.4495025, 22.7855956 ], [ 102.4512284, 22.7866065 ], [ 102.4530864, 22.7875734 ], [ 102.4547273, 22.7883351 ], [ 102.4564304, 22.7889455 ], [ 102.4581816, 22.7893994 ], [ 102.4601547, 22.7898166 ], [ 102.4613126, 22.790026 ], [ 102.4622914, 22.7901735 ], [ 102.4622941, 22.7901777 ], [ 102.4634975, 22.7916948 ], [ 102.4640742, 22.7923536 ], [ 102.4651341, 22.7934741 ], [ 102.4656168, 22.7939465 ], [ 102.4671821, 22.7953261 ], [ 102.4688826, 22.7965351 ], [ 102.4706998, 22.7975604 ], [ 102.4726139, 22.7983908 ], [ 102.4746042, 22.7990172 ], [ 102.4753925, 22.7992208 ], [ 102.4774311, 22.7996356 ], [ 102.4795019, 22.7998364 ], [ 102.4815823, 22.799821 ], [ 102.482676, 22.7997559 ], [ 102.4842677, 22.799597 ], [ 102.4843867, 22.7995803 ], [ 102.4848023, 22.7997203 ], [ 102.4865166, 22.8002139 ], [ 102.4877982, 22.8005217 ], [ 102.4898733, 22.8009056 ], [ 102.4919773, 22.8010687 ], [ 102.4932668, 22.8011004 ], [ 102.4947508, 22.8010818 ], [ 102.4962294, 22.8009532 ], [ 102.4993175, 22.8005687 ], [ 102.5013494, 22.8002084 ], [ 102.5033333, 22.7996407 ], [ 102.5049531, 22.7990853 ], [ 102.5056327, 22.799102 ], [ 102.5077995, 22.7990377 ], [ 102.5099466, 22.7987393 ], [ 102.5120488, 22.7982102 ], [ 102.5140814, 22.7974567 ], [ 102.5154884, 22.7968465 ], [ 102.5171538, 22.7960306 ], [ 102.5187363, 22.7950639 ], [ 102.5202226, 22.7939548 ], [ 102.5215997, 22.7927128 ], [ 102.5219013, 22.7924143 ], [ 102.5248685, 22.7894775 ], [ 102.5258992, 22.7883775 ], [ 102.5284952, 22.7853886 ], [ 102.5288743, 22.7849521 ], [ 102.5300584, 22.7833857 ], [ 102.5308942, 22.7832146 ], [ 102.5327936, 22.7826241 ], [ 102.534625, 22.7818478 ], [ 102.5355308, 22.7814095 ], [ 102.5371206, 22.7805495 ], [ 102.5386263, 22.7795494 ], [ 102.5400356, 22.7784175 ], [ 102.5407222, 22.7778129 ], [ 102.5414575, 22.7771659 ], [ 102.5419505, 22.7767172 ], [ 102.5449078, 22.7739344 ], [ 102.5460735, 22.772742 ], [ 102.549541, 22.768886 ], [ 102.550966, 22.7673094 ], [ 102.5509665, 22.7673093 ], [ 102.5516659, 22.7671421 ], [ 102.5536189, 22.7665687 ], [ 102.5555034, 22.7657998 ], [ 102.5573001, 22.7648434 ], [ 102.5589902, 22.7637093 ], [ 102.5605564, 22.7624092 ], [ 102.5619823, 22.7609568 ], [ 102.5632531, 22.7593669 ], [ 102.5643558, 22.7576561 ], [ 102.5645646, 22.7572928 ], [ 102.5654607, 22.7555392 ], [ 102.5661799, 22.7537059 ], [ 102.5667154, 22.7518108 ], [ 102.5670619, 22.7498722 ], [ 102.5671701, 22.7484932 ], [ 102.5674234, 22.74835 ], [ 102.5692624, 22.7470133 ], [ 102.5706845, 22.7458506 ], [ 102.5723719, 22.7443015 ], [ 102.5738712, 22.7425696 ], [ 102.5739412, 22.7424787 ], [ 102.5746867, 22.7415104 ], [ 102.5751948, 22.7419551 ], [ 102.5770081, 22.7432182 ], [ 102.5789496, 22.7442736 ], [ 102.5805413, 22.7450281 ], [ 102.5818793, 22.7466291 ], [ 102.5832911, 22.7481505 ], [ 102.584853, 22.7495174 ], [ 102.5865482, 22.750715 ], [ 102.5883583, 22.7517305 ], [ 102.5897286, 22.7524083 ], [ 102.5913628, 22.7531278 ], [ 102.5930547, 22.7536985 ], [ 102.5947907, 22.7541162 ], [ 102.596962, 22.754537 ], [ 102.5986158, 22.7547862 ], [ 102.6002846, 22.7548965 ], [ 102.6018714, 22.7549348 ], [ 102.6040182, 22.7548712 ], [ 102.6061458, 22.7545779 ], [ 102.6078419, 22.7542504 ], [ 102.609504, 22.7538551 ], [ 102.6111263, 22.7533195 ], [ 102.612697, 22.7526473 ], [ 102.6147088, 22.7516827 ], [ 102.6161451, 22.7509207 ], [ 102.6175148, 22.7500446 ], [ 102.6209561, 22.7476408 ], [ 102.622726, 22.7462499 ], [ 102.6235928, 22.7454861 ], [ 102.6246585, 22.7445471 ], [ 102.6252946, 22.7439617 ], [ 102.6257897, 22.7434859 ], [ 102.6280148, 22.741347 ], [ 102.6282069, 22.7411624 ], [ 102.6312683, 22.7385403 ], [ 102.6329559, 22.736914 ], [ 102.6340632, 22.7357141 ], [ 102.6342876, 22.7354709 ], [ 102.6355949, 22.7339 ], [ 102.6367351, 22.7322039 ], [ 102.6377307, 22.7305456 ], [ 102.6382205, 22.729781 ], [ 102.6386855, 22.729328 ], [ 102.6393459, 22.7287725 ], [ 102.6410232, 22.7277054 ], [ 102.6449291, 22.7253045 ], [ 102.6460907, 22.7245334 ], [ 102.6477105, 22.7233749 ], [ 102.6493014, 22.7221102 ], [ 102.6507255, 22.7208548 ], [ 102.6512388, 22.7203567 ], [ 102.6523621, 22.7200121 ], [ 102.6539804, 22.7193563 ], [ 102.6555353, 22.7185619 ], [ 102.6572491, 22.7175897 ], [ 102.6589609, 22.7164841 ], [ 102.6611514, 22.717278 ], [ 102.6624701, 22.7177048 ], [ 102.6649311, 22.7184082 ], [ 102.6665678, 22.7188024 ], [ 102.6692321, 22.7193264 ], [ 102.6708856, 22.7195412 ], [ 102.6721645, 22.7206749 ], [ 102.6737786, 22.7218411 ], [ 102.6755007, 22.722841 ], [ 102.6773137, 22.7236648 ], [ 102.6791996, 22.7243042 ], [ 102.6811397, 22.7247528 ], [ 102.6815395, 22.7248245 ], [ 102.6830612, 22.7250375 ], [ 102.6845947, 22.725133 ], [ 102.6853309, 22.7251505 ], [ 102.6869819, 22.7251215 ], [ 102.6886249, 22.7249565 ], [ 102.6902486, 22.7246565 ], [ 102.69099, 22.7244876 ], [ 102.6925679, 22.7240596 ], [ 102.6941055, 22.7235042 ], [ 102.695257, 22.7230342 ], [ 102.696782, 22.7223358 ], [ 102.698243, 22.7215121 ], [ 102.6991094, 22.7209745 ], [ 102.6994002, 22.7207942 ], [ 102.7009947, 22.7196947 ], [ 102.7012476, 22.7195016 ], [ 102.7020788, 22.7188667 ], [ 102.7037273, 22.7186646 ], [ 102.7057999, 22.7181828 ], [ 102.7078096, 22.7174835 ], [ 102.7097336, 22.7165746 ], [ 102.7106173, 22.7160981 ], [ 102.7114887, 22.7155996 ], [ 102.7121844, 22.7151781 ], [ 102.7126921, 22.7148705 ], [ 102.7134636, 22.7144031 ], [ 102.71462, 22.7136467 ], [ 102.7163273, 22.7124437 ], [ 102.717994, 22.7111316 ], [ 102.7195124, 22.7096505 ], [ 102.7202768, 22.7088213 ], [ 102.720411, 22.7086757 ], [ 102.7216905, 22.7071401 ], [ 102.7228103, 22.7054846 ], [ 102.7234416, 22.7044426 ], [ 102.7243073, 22.702856 ], [ 102.7250263, 22.7011978 ], [ 102.7251003, 22.7009737 ], [ 102.725263, 22.700953 ], [ 102.7272106, 22.7005046 ], [ 102.7276155, 22.7003898 ], [ 102.7296201, 22.6997048 ], [ 102.731541, 22.6988116 ], [ 102.7333567, 22.6977203 ], [ 102.7350467, 22.6964431 ], [ 102.7365922, 22.6949942 ], [ 102.7373505, 22.6942038 ], [ 102.7384763, 22.6929256 ], [ 102.7394892, 22.6915562 ], [ 102.7406058, 22.6899039 ], [ 102.741072, 22.6891023 ], [ 102.7424303, 22.6891342 ], [ 102.7428089, 22.6892406 ], [ 102.7447824, 22.6895868 ], [ 102.7467806, 22.6897339 ], [ 102.747316, 22.6897464 ], [ 102.7495437, 22.6896741 ], [ 102.7517496, 22.6893545 ], [ 102.7539062, 22.6887913 ], [ 102.7544466, 22.6886175 ], [ 102.7560408, 22.688029 ], [ 102.7575793, 22.6873072 ], [ 102.7590509, 22.6864575 ], [ 102.7602774, 22.685678 ], [ 102.7620295, 22.6844271 ], [ 102.7636371, 22.6829952 ], [ 102.7650814, 22.6813988 ], [ 102.7657743, 22.6805447 ], [ 102.7669334, 22.6789633 ], [ 102.7672172, 22.6785335 ], [ 102.7682321, 22.6769968 ], [ 102.7684695, 22.6766372 ], [ 102.7694092, 22.6750611 ], [ 102.7702005, 22.6734055 ], [ 102.7710594, 22.6713738 ], [ 102.7717799, 22.6693811 ], [ 102.7719216, 22.6688046 ], [ 102.7719993, 22.6688031 ], [ 102.772737, 22.6687581 ], [ 102.7750749, 22.6684766 ], [ 102.7773635, 22.6679223 ], [ 102.7783087, 22.6676335 ], [ 102.7793132, 22.6672859 ], [ 102.7808396, 22.6672624 ], [ 102.7828728, 22.6671274 ], [ 102.7848818, 22.6667861 ], [ 102.7858921, 22.666561 ], [ 102.787872, 22.6660118 ], [ 102.7897851, 22.6652622 ], [ 102.7916152, 22.6644344 ], [ 102.7934359, 22.6634957 ], [ 102.7951511, 22.6623757 ], [ 102.796722, 22.661231 ], [ 102.7981253, 22.6601086 ], [ 102.7994222, 22.6588647 ], [ 102.8006022, 22.6575094 ], [ 102.8010873, 22.6568989 ], [ 102.8021648, 22.6554067 ], [ 102.8031006, 22.6538217 ], [ 102.8038868, 22.6521573 ], [ 102.8045166, 22.6504278 ], [ 102.8049847, 22.6486477 ], [ 102.8052871, 22.646832 ], [ 102.8053644, 22.6457751 ], [ 102.8062888, 22.6457966 ], [ 102.8079697, 22.645765 ], [ 102.809642, 22.6455922 ], [ 102.8108937, 22.6453554 ], [ 102.8119606, 22.6457817 ], [ 102.8137526, 22.64631 ], [ 102.815586, 22.6466687 ], [ 102.8165862, 22.6468163 ], [ 102.8190434, 22.6470252 ], [ 102.820716, 22.6470639 ], [ 102.8232303, 22.6469638 ], [ 102.8247071, 22.6468115 ], [ 102.8264289, 22.6465578 ], [ 102.8281221, 22.6461554 ], [ 102.8289276, 22.6459265 ], [ 102.8293342, 22.645811 ], [ 102.8305717, 22.6454156 ], [ 102.8320836, 22.6448779 ], [ 102.8328694, 22.6445985 ], [ 102.8340161, 22.6441504 ], [ 102.8349182, 22.6437656 ], [ 102.8363785, 22.6431426 ], [ 102.8371059, 22.6428323 ], [ 102.8435333, 22.640276 ], [ 102.8441152, 22.6400446 ], [ 102.8444751, 22.6398974 ], [ 102.8464385, 22.6390722 ], [ 102.8484534, 22.6380891 ], [ 102.8503456, 22.6368866 ], [ 102.8514376, 22.6361034 ], [ 102.8531134, 22.6347595 ], [ 102.8546355, 22.6332436 ], [ 102.8559862, 22.6315732 ], [ 102.8560932, 22.6314253 ], [ 102.8573188, 22.6313121 ], [ 102.8589326, 22.6310283 ], [ 102.8605176, 22.6306134 ], [ 102.8633521, 22.6297459 ], [ 102.8650086, 22.6291582 ], [ 102.866607, 22.6284273 ], [ 102.8682357, 22.6275942 ], [ 102.8703576, 22.6263381 ], [ 102.8712439, 22.6257367 ], [ 102.87285, 22.6245245 ], [ 102.8743261, 22.6231572 ], [ 102.8756574, 22.6216484 ], [ 102.8768304, 22.6200135 ], [ 102.8778331, 22.6182689 ], [ 102.8786555, 22.6164325 ], [ 102.8788077, 22.6160408 ], [ 102.8809701, 22.614758 ], [ 102.8825535, 22.6137141 ], [ 102.8832487, 22.6132069 ], [ 102.8841239, 22.6125684 ], [ 102.8856554, 22.611331 ], [ 102.8870577, 22.6099492 ], [ 102.8879537, 22.6089748 ], [ 102.8891048, 22.6076046 ], [ 102.8901289, 22.6061371 ], [ 102.8911769, 22.6044821 ], [ 102.8923966, 22.6022546 ], [ 102.8934611, 22.5999783 ], [ 102.8940595, 22.5985585 ], [ 102.8947797, 22.5966473 ], [ 102.895339, 22.5949324 ], [ 102.8957415, 22.5931741 ], [ 102.895984, 22.5913866 ], [ 102.8960789, 22.5903316 ], [ 102.8961593, 22.5885644 ], [ 102.8960832, 22.586797 ], [ 102.8958513, 22.5850433 ], [ 102.8954653, 22.5833169 ], [ 102.8951606, 22.5821906 ], [ 102.8946719, 22.5806583 ], [ 102.8952655, 22.5797672 ], [ 102.8962289, 22.5779352 ], [ 102.8966549, 22.5770121 ], [ 102.8974103, 22.5751299 ], [ 102.8979711, 22.573181 ], [ 102.8983317, 22.5711852 ], [ 102.8984883, 22.5691632 ], [ 102.8985218, 22.5679045 ], [ 102.8993414, 22.5674723 ], [ 102.9008577, 22.5664883 ], [ 102.9022901, 22.5654638 ], [ 102.9033882, 22.5646193 ], [ 102.9064667, 22.5620777 ], [ 102.9077697, 22.5609022 ], [ 102.9089646, 22.5596169 ], [ 102.9100423, 22.5582318 ], [ 102.9107374, 22.5572526 ], [ 102.9117967, 22.5555928 ], [ 102.9126877, 22.553837 ], [ 102.9134017, 22.552002 ], [ 102.9139319, 22.5501057 ], [ 102.914273, 22.5481665 ], [ 102.9144217, 22.5462032 ], [ 102.9144381, 22.5455817 ], [ 102.9144077, 22.5438319 ], [ 102.9142245, 22.5420915 ], [ 102.9141565, 22.5417425 ], [ 102.9158744, 22.540349 ], [ 102.9175203, 22.5388318 ], [ 102.9186452, 22.537709 ], [ 102.919885, 22.536369 ], [ 102.9209853, 22.5350733 ], [ 102.9219717, 22.5336889 ], [ 102.9230875, 22.5319729 ], [ 102.9239683, 22.5304805 ], [ 102.9247167, 22.5289175 ], [ 102.9252159, 22.5277472 ], [ 102.9257427, 22.5262581 ], [ 102.9259829, 22.5261666 ], [ 102.9274396, 22.5254721 ], [ 102.9284573, 22.5249355 ], [ 102.9303757, 22.5237824 ], [ 102.9321533, 22.5224221 ], [ 102.9337677, 22.5208718 ], [ 102.9347316, 22.5198364 ], [ 102.9360474, 22.5182694 ], [ 102.9371962, 22.5165761 ], [ 102.938166, 22.5147744 ], [ 102.9386618, 22.5137283 ], [ 102.939405, 22.5119414 ], [ 102.9399721, 22.5100912 ], [ 102.9403577, 22.5081947 ], [ 102.9405193, 22.5071411 ], [ 102.940654, 22.5057364 ], [ 102.9418106, 22.5054893 ], [ 102.9444011, 22.5048076 ], [ 102.9448288, 22.5049703 ], [ 102.9463642, 22.5054842 ], [ 102.9474378, 22.5057958 ], [ 102.9491499, 22.5062119 ], [ 102.950892, 22.5064757 ], [ 102.9526506, 22.5065851 ], [ 102.954412, 22.5065394 ], [ 102.9551861, 22.5064851 ], [ 102.9570272, 22.5062698 ], [ 102.9588405, 22.505885 ], [ 102.9606104, 22.505334 ], [ 102.9623216, 22.5046215 ], [ 102.9633386, 22.5041416 ], [ 102.9649447, 22.5032925 ], [ 102.9664671, 22.5023012 ], [ 102.9678932, 22.5011758 ], [ 102.9682257, 22.500888 ], [ 102.9696934, 22.5008878 ], [ 102.971782, 22.5007911 ], [ 102.9734115, 22.5006487 ], [ 102.9745235, 22.5005055 ], [ 102.9759124, 22.5008914 ], [ 102.9777689, 22.5013132 ], [ 102.9796571, 22.5015565 ], [ 102.9808907, 22.5016561 ], [ 102.9837359, 22.5016828 ], [ 102.9845872, 22.5016301 ], [ 102.9866915, 22.5013874 ], [ 102.9887583, 22.5009236 ], [ 102.9907644, 22.5002438 ], [ 102.9926874, 22.4993556 ], [ 102.9934708, 22.4989421 ], [ 102.995296, 22.4978509 ], [ 102.996995, 22.4965721 ], [ 102.9985486, 22.49512 ], [ 103.0002625, 22.4933383 ], [ 103.000378, 22.4932183 ], [ 103.000961, 22.4925852 ], [ 103.0023148, 22.4910503 ], [ 103.0035082, 22.4896971 ], [ 103.0039344, 22.4891976 ], [ 103.0060882, 22.4865877 ], [ 103.0073374, 22.484901 ], [ 103.0084029, 22.4830926 ], [ 103.0085004, 22.4829053 ], [ 103.0088096, 22.4823114 ], [ 103.0095451, 22.4807343 ], [ 103.0095526, 22.4807138 ], [ 103.0112879, 22.4803357 ], [ 103.013049, 22.4797775 ], [ 103.0142995, 22.4793166 ], [ 103.0159407, 22.4786273 ], [ 103.0175141, 22.4777948 ], [ 103.0190073, 22.4768257 ], [ 103.0204083, 22.4757276 ], [ 103.0217062, 22.4745093 ], [ 103.0228201, 22.4733663 ], [ 103.0243167, 22.4716441 ], [ 103.0256074, 22.4697627 ], [ 103.0264335, 22.4683977 ], [ 103.0271303, 22.4680366 ], [ 103.0302027, 22.4663094 ], [ 103.0317052, 22.4665391 ], [ 103.0345543, 22.466846 ], [ 103.036833, 22.4669605 ], [ 103.0403366, 22.4669366 ], [ 103.040986, 22.467485 ], [ 103.0425592, 22.4686854 ], [ 103.0442434, 22.4697245 ], [ 103.046022, 22.470592 ], [ 103.0473312, 22.4711522 ], [ 103.0493013, 22.4718754 ], [ 103.0499639, 22.4720424 ], [ 103.0499136, 22.4721992 ], [ 103.0495011, 22.4741149 ], [ 103.0492781, 22.4760619 ], [ 103.0491851, 22.4774897 ], [ 103.0491447, 22.4785133 ], [ 103.0491259, 22.479874 ], [ 103.0491834, 22.4816907 ], [ 103.0494056, 22.4834947 ], [ 103.0497907, 22.485271 ], [ 103.0503354, 22.4870051 ], [ 103.0530496, 22.4944446 ], [ 103.0534217, 22.4953894 ], [ 103.0540759, 22.4969341 ], [ 103.0547362, 22.498493 ], [ 103.0554282, 22.5008599 ], [ 103.05876, 22.5138398 ], [ 103.0593719, 22.5157997 ], [ 103.0601814, 22.5176865 ], [ 103.0611802, 22.5194803 ], [ 103.0623576, 22.5211623 ], [ 103.0637012, 22.5227148 ], [ 103.0648343, 22.5238956 ], [ 103.0655759, 22.5248805 ], [ 103.0672714, 22.5266375 ], [ 103.0677413, 22.5270684 ], [ 103.0699273, 22.5288082 ], [ 103.0703805, 22.5291198 ], [ 103.0720609, 22.5301569 ], [ 103.0738353, 22.5310232 ], [ 103.0756866, 22.5317103 ], [ 103.0775965, 22.5322115 ], [ 103.0795466, 22.5325219 ], [ 103.0804236, 22.5326174 ], [ 103.0823495, 22.5327335 ], [ 103.0835785, 22.5327482 ], [ 103.0860085, 22.5342294 ], [ 103.0878618, 22.5352293 ], [ 103.08981, 22.5360287 ], [ 103.0918314, 22.5366189 ], [ 103.0927435, 22.5368338 ], [ 103.0946703, 22.5371891 ], [ 103.0966226, 22.5373543 ], [ 103.0985818, 22.5373276 ], [ 103.1005289, 22.5371093 ], [ 103.1017028, 22.5369191 ], [ 103.1027557, 22.5366869 ], [ 103.1042799, 22.5366261 ], [ 103.1049029, 22.5376115 ], [ 103.105316, 22.5381947 ], [ 103.1064653, 22.5396664 ], [ 103.1077468, 22.5410245 ], [ 103.1091494, 22.5422572 ], [ 103.1106608, 22.5433537 ], [ 103.1122679, 22.5443044 ], [ 103.1139567, 22.5451011 ], [ 103.1153035, 22.5456612 ], [ 103.1164684, 22.5460578 ], [ 103.1169379, 22.5469234 ], [ 103.1182117, 22.5495178 ], [ 103.1191842, 22.5512707 ], [ 103.1203273, 22.5529174 ], [ 103.1216296, 22.5544414 ], [ 103.1230778, 22.5558274 ], [ 103.1246575, 22.5570614 ], [ 103.1282094, 22.55956 ], [ 103.1297778, 22.5605577 ], [ 103.1314321, 22.5614055 ], [ 103.1331579, 22.5620961 ], [ 103.1349404, 22.5626234 ], [ 103.1367642, 22.5629829 ], [ 103.1386135, 22.5631716 ], [ 103.1404723, 22.5631877 ], [ 103.1423245, 22.5630312 ], [ 103.1441543, 22.5627034 ], [ 103.1471218, 22.5620281 ], [ 103.1476439, 22.562467 ], [ 103.148807, 22.5633737 ], [ 103.1500338, 22.5641923 ], [ 103.1505515, 22.5645108 ], [ 103.1490744, 22.5662918 ], [ 103.1473261, 22.5683893 ], [ 103.1461922, 22.5698875 ], [ 103.1446332, 22.572162 ], [ 103.1438452, 22.5734078 ], [ 103.1406972, 22.5788158 ], [ 103.139642, 22.5808995 ], [ 103.1379042, 22.5848945 ], [ 103.1372454, 22.5866235 ], [ 103.1367493, 22.5884061 ], [ 103.1364383, 22.5897636 ], [ 103.1360753, 22.5918503 ], [ 103.135935, 22.5939638 ], [ 103.1359169, 22.5953246 ], [ 103.1359877, 22.5972937 ], [ 103.136252, 22.5992463 ], [ 103.1367072, 22.6011634 ], [ 103.1373488, 22.6030264 ], [ 103.1386425, 22.6062566 ], [ 103.1387377, 22.6064902 ], [ 103.1393055, 22.6078577 ], [ 103.1402691, 22.6098572 ], [ 103.1414484, 22.6117377 ], [ 103.1428287, 22.6134759 ], [ 103.1433049, 22.6140116 ], [ 103.144174, 22.6148914 ], [ 103.1442867, 22.615884 ], [ 103.1446618, 22.6176867 ], [ 103.1453674, 22.6204363 ], [ 103.1459801, 22.6223989 ], [ 103.1467911, 22.6242882 ], [ 103.1477918, 22.6260843 ], [ 103.1518138, 22.6325032 ], [ 103.1527288, 22.6338399 ], [ 103.1537489, 22.6350981 ], [ 103.1573643, 22.6392056 ], [ 103.1588793, 22.6407498 ], [ 103.1605523, 22.6421213 ], [ 103.161816, 22.6429465 ], [ 103.1618482, 22.6442796 ], [ 103.162088, 22.6462295 ], [ 103.1625181, 22.6481464 ], [ 103.1631341, 22.6500119 ], [ 103.1638616, 22.6518983 ], [ 103.1647439, 22.6538637 ], [ 103.1658325, 22.6557227 ], [ 103.1671148, 22.657454 ], [ 103.1685758, 22.6590372 ], [ 103.1708448, 22.6612446 ], [ 103.1721852, 22.6624364 ], [ 103.173627, 22.6635033 ], [ 103.1780462, 22.6664764 ], [ 103.1794438, 22.6673356 ], [ 103.1815833, 22.6685328 ], [ 103.1832656, 22.6693729 ], [ 103.1850193, 22.6700512 ], [ 103.1868633, 22.6706665 ], [ 103.1888044, 22.6712072 ], [ 103.1907901, 22.6715498 ], [ 103.1928001, 22.6716909 ], [ 103.1948142, 22.671629 ], [ 103.1968118, 22.6713648 ], [ 103.1982128, 22.6711071 ], [ 103.2002176, 22.6706304 ], [ 103.2021627, 22.6699499 ], [ 103.2040275, 22.6690729 ], [ 103.2079134, 22.6669945 ], [ 103.2103985, 22.666916 ], [ 103.2112633, 22.6669801 ], [ 103.2119124, 22.6683004 ], [ 103.2128765, 22.6698757 ], [ 103.2139819, 22.6713553 ], [ 103.2151853, 22.6728199 ], [ 103.216696, 22.6744624 ], [ 103.2183803, 22.6759263 ], [ 103.2202171, 22.6771935 ], [ 103.2226595, 22.6786845 ], [ 103.2229621, 22.6788656 ], [ 103.2309903, 22.6835743 ], [ 103.2312665, 22.6840991 ], [ 103.2323007, 22.6856808 ], [ 103.2334795, 22.6871577 ], [ 103.2347924, 22.6885169 ], [ 103.2362278, 22.689746 ], [ 103.2377727, 22.6908342 ], [ 103.2394135, 22.6917717 ], [ 103.2411354, 22.6925502 ], [ 103.2419027, 22.6928543 ], [ 103.243585, 22.6934358 ], [ 103.2453124, 22.6938655 ], [ 103.2470711, 22.6941399 ], [ 103.2488472, 22.6942568 ], [ 103.2500863, 22.6942831 ], [ 103.2521934, 22.6942167 ], [ 103.2542819, 22.6939288 ], [ 103.2563285, 22.6934227 ], [ 103.2582269, 22.6928455 ], [ 103.2601913, 22.6940086 ], [ 103.2602934, 22.6940888 ], [ 103.2599172, 22.6988842 ], [ 103.2598566, 22.7006122 ], [ 103.2599454, 22.702339 ], [ 103.2601918, 22.7049341 ], [ 103.2604557, 22.706787 ], [ 103.2608917, 22.7086071 ], [ 103.2614959, 22.7103785 ], [ 103.262263, 22.7120856 ], [ 103.2631863, 22.7137136 ], [ 103.2642578, 22.7152482 ], [ 103.2648186, 22.7159762 ], [ 103.2648141, 22.7165711 ], [ 103.2650125, 22.7186306 ], [ 103.2651873, 22.7198049 ], [ 103.2654123, 22.7208321 ], [ 103.2648426, 22.7223182 ], [ 103.2643394, 22.7238023 ], [ 103.2639539, 22.7253212 ], [ 103.2636184, 22.7269003 ], [ 103.2632779, 22.729098 ], [ 103.2631834, 22.7313199 ], [ 103.2632158, 22.7337824 ], [ 103.2632596, 22.7348681 ], [ 103.2634995, 22.7384173 ], [ 103.2636569, 22.7399103 ], [ 103.2639259, 22.7413874 ], [ 103.2642248, 22.7427389 ], [ 103.2647468, 22.7446464 ], [ 103.2654546, 22.746493 ], [ 103.2663414, 22.7482607 ], [ 103.2673984, 22.7499321 ], [ 103.2686153, 22.751491 ], [ 103.2699802, 22.7529221 ], [ 103.2704081, 22.7533285 ], [ 103.2713397, 22.7542626 ], [ 103.272608, 22.755429 ], [ 103.2727471, 22.7555364 ], [ 103.2729173, 22.7558306 ], [ 103.2740912, 22.7576298 ], [ 103.2754513, 22.7592926 ], [ 103.2769819, 22.7608 ], [ 103.2778879, 22.7616011 ], [ 103.2794153, 22.7628239 ], [ 103.2797214, 22.7630233 ], [ 103.2802275, 22.7642865 ], [ 103.2811182, 22.7660059 ], [ 103.2821709, 22.7676311 ], [ 103.2833759, 22.7691469 ], [ 103.2839988, 22.769857 ], [ 103.2850017, 22.7709194 ], [ 103.2866869, 22.7725787 ], [ 103.2881393, 22.7738336 ], [ 103.2883292, 22.7745754 ], [ 103.288937, 22.7765164 ], [ 103.2899363, 22.7790761 ], [ 103.2907983, 22.7809025 ], [ 103.2918708, 22.7828582 ], [ 103.296672, 22.7938612 ], [ 103.2965893, 22.7941889 ], [ 103.2962409, 22.7958695 ], [ 103.296038, 22.7975738 ], [ 103.2958871, 22.7995654 ], [ 103.2958434, 22.8018099 ], [ 103.2959381, 22.8043902 ], [ 103.2962261, 22.8071162 ], [ 103.296551, 22.8089662 ], [ 103.2968886, 22.8103962 ], [ 103.2966752, 22.8122017 ], [ 103.2965425, 22.8140377 ], [ 103.2965047, 22.8162342 ], [ 103.2967081, 22.8184215 ], [ 103.29715, 22.8205733 ], [ 103.2975005, 22.8219041 ], [ 103.2980649, 22.8236993 ], [ 103.2987955, 22.8254335 ], [ 103.2996858, 22.8270914 ], [ 103.3007281, 22.8286582 ], [ 103.3019129, 22.8301202 ], [ 103.302308776013959, 22.830564205627315 ], [ 103.295111941245665, 22.777470890713175 ] ], [ [ 102.8365305, 21.7905353 ], [ 102.8360902, 21.7893598 ], [ 102.8354915, 21.7881542 ], [ 102.8356481, 21.787846 ], [ 102.8363881, 21.7862064 ], [ 102.8365305, 21.7905353 ] ], [ [ 102.8338179, 21.8150245 ], [ 102.8340458, 21.817448 ], [ 102.8343785, 21.8189672 ], [ 102.8334694, 21.8213179 ], [ 102.8326272, 21.8211556 ], [ 102.8313335, 21.8189133 ], [ 102.8337914, 21.8142182 ], [ 102.8338179, 21.8150245 ] ] ] } }
]
}
