{
"type": "FeatureCollection",
"name": "2026-09-11",
"crs": { "type": "name", "properties": { "name": "urn:ogc:def:crs:OGC:1.3:CRS84" } },
"features": [
{ "type": "Feature", "properties": { }, "geometry": { "type": "MultiPolygon", "coordinates": [ [ [ [ 108.907645203272736, 10.549428003090997 ], [ 108.945855946264643, 10.555356250517166 ], [ 108.955708768530698, 10.574768911396173 ], [ 108.951351162814206, 10.561633072315248 ], [ 108.959003771473263, 10.553992470341196 ], [ 108.960849890814899, 10.522159847909068 ], [ 108.982290369126545, 10.506920395585437 ], [ 108.986509819857929, 10.511221022911698 ], [ 108.9865078, 10.5107913 ], [ 108.9863967, 10.5087782 ], [ 108.9860835, 10.5067865 ], [ 108.9859038, 10.5061022 ], [ 108.9863953, 10.5051988 ], [ 108.986655080739709, 10.504584775889423 ], [ 108.983349106867166, 10.498016685459003 ], [ 108.972122379777772, 10.506331048565144 ], [ 108.947851576555038, 10.500873511912097 ], [ 108.929801341182468, 10.512466083153134 ], [ 108.924059620033404, 10.534508165170564 ], [ 108.91054513732486, 10.538709322217477 ], [ 108.907645203272736, 10.549428003090997 ] ] ], [ [ [ 106.916536809673005, 11.741180345119387 ], [ 108.988148239984326, 11.335954659329795 ], [ 108.960847870233479, 11.314367483956119 ], [ 108.935096892369216, 11.306963219891539 ], [ 108.918464167306794, 11.306758637237134 ], [ 108.91581385867056, 11.316780315404595 ], [ 108.891669393999237, 11.334043876736533 ], [ 108.85435626497447, 11.33424213847927 ], [ 108.839758308577004, 11.322323441758106 ], [ 108.817266425873299, 11.31742618890642 ], [ 108.801276705382605, 11.299569934881085 ], [ 108.785566849556517, 11.303897347665389 ], [ 108.777955069944525, 11.288838080885631 ], [ 108.755675125784336, 11.280693222329957 ], [ 108.730665052907298, 11.183578319414766 ], [ 108.712254452771205, 11.173957835898451 ], [ 108.709184096396157, 11.163865600889975 ], [ 108.696959192914804, 11.182496653560129 ], [ 108.662056409897943, 11.194295617172509 ], [ 108.633071820467677, 11.18875399438234 ], [ 108.619062283470385, 11.175272731275786 ], [ 108.607017723632609, 11.182908726124777 ], [ 108.587028070744608, 11.182472351569695 ], [ 108.565238028277165, 11.163523784427731 ], [ 108.529148907124522, 11.155409394225295 ], [ 108.511488898858218, 11.140978180067199 ], [ 108.496967853197219, 11.115388728833365 ], [ 108.47559040091673, 11.047448218932324 ], [ 108.46382049722331, 11.040615553977917 ], [ 108.43060428425899, 11.044683469525255 ], [ 108.41520639592612, 11.025070890515691 ], [ 108.403496554787694, 11.032670653992925 ], [ 108.37296283953431, 11.030516850398351 ], [ 108.350019000765542, 11.005272326903283 ], [ 108.338371836767067, 10.950251512647055 ], [ 108.321798538615241, 10.958697419030324 ], [ 108.309365752077568, 10.955836152938112 ], [ 108.294953063267258, 10.929019335530029 ], [ 108.29591360471008, 10.913443114227769 ], [ 108.279625601451215, 10.915961615211822 ], [ 108.276361623644732, 10.941825840685588 ], [ 108.231542438777055, 10.955132208076321 ], [ 108.190479950959656, 10.935471211807926 ], [ 108.159413702588324, 10.928665315608637 ], [ 108.133357283466879, 10.93225871034061 ], [ 108.108445637689073, 10.916210855772123 ], [ 108.091126190978301, 10.915441330755272 ], [ 108.074452493676773, 10.899439399970086 ], [ 108.083232950240912, 10.885347533680806 ], [ 108.065724784665946, 10.886699273379012 ], [ 108.036467348592268, 10.827816246370855 ], [ 108.015545873161045, 10.733667653745142 ], [ 108.007560880713996, 10.728967761620119 ], [ 107.994976637521873, 10.693402834231001 ], [ 107.982951605947036, 10.703721897639671 ], [ 107.962697885024227, 10.701175868139666 ], [ 107.931928265116881, 10.717206651597158 ], [ 107.899031109618775, 10.722276227943405 ], [ 107.827375641633296, 10.703035001446175 ], [ 107.772605634033511, 10.645808228009388 ], [ 107.729935483927747, 10.631908068077969 ], [ 107.696264492032881, 10.629955662403601 ], [ 107.66144755251905, 10.607342466886257 ], [ 107.620406442847425, 10.594394119261043 ], [ 107.564538651085229, 10.564527114280413 ], [ 107.510670698023119, 10.499347216262054 ], [ 107.470768987608849, 10.497732693284611 ], [ 107.444467312377142, 10.468504096079942 ], [ 107.368696121514873, 10.467487274718648 ], [ 107.332191685436158, 10.444264147395309 ], [ 107.3198508865555, 10.444531953909722 ], [ 107.257422877549203, 10.379816018319719 ], [ 107.238193675026082, 10.379678795256266 ], [ 107.20691004615108, 10.404511070832768 ], [ 107.169670334212839, 10.400936776401439 ], [ 107.119827255965888, 10.36871104482932 ], [ 107.084645520463425, 10.323436137375269 ], [ 107.069440838914673, 10.337151588627883 ], [ 107.057647550971382, 10.387960628976073 ], [ 107.070517669276967, 10.387727912667811 ], [ 107.083638634786382, 10.401645959436886 ], [ 107.094396693196416, 10.400606830162351 ], [ 107.100966012739889, 10.410757755661962 ], [ 107.112305212263394, 10.412224880232367 ], [ 107.11478133050737, 10.428280702978881 ], [ 107.089799288420608, 10.434777235840036 ], [ 107.079800513820572, 10.419557300903127 ], [ 107.069704503511744, 10.436946054151193 ], [ 107.049061505127113, 10.445962803199789 ], [ 107.041836245050121, 10.472604590551553 ], [ 107.031711011955409, 10.474042704082184 ], [ 107.023547412921872, 10.465088945753362 ], [ 107.016738787471198, 10.481951949982568 ], [ 106.995484042968599, 10.493496904428126 ], [ 106.97835157601817, 10.474168109569268 ], [ 106.976350252457593, 10.460150201465025 ], [ 106.943495308110712, 10.470375120891259 ], [ 106.932687603128997, 10.453727281895981 ], [ 106.934896085431703, 10.440691494262955 ], [ 106.947570438476944, 10.428040361629266 ], [ 106.975127048555905, 10.416919617210306 ], [ 106.971370644664461, 10.405897587893001 ], [ 106.897206780097051, 10.375777026785777 ], [ 106.869520504745424, 10.38182913990218 ], [ 106.847883938655841, 10.376855053172472 ], [ 106.819908560511578, 10.413590383299047 ], [ 106.777618665391842, 10.450204150681547 ], [ 106.760944959649095, 10.478534307990605 ], [ 106.755196465355638, 10.511688712257836 ], [ 106.734833502005841, 10.511981913108931 ], [ 106.725273281493472, 10.487565142072599 ], [ 106.782378111391992, 10.411937324776106 ], [ 106.782406449505828, 10.29047731634539 ], [ 106.755722744274678, 10.256888683635728 ], [ 106.796955974606334, 10.213668213744613 ], [ 106.7968095, 10.2133252 ], [ 106.7958611, 10.2113979 ], [ 106.7947115, 10.2095835 ], [ 106.7933739, 10.2079028 ], [ 106.7931692, 10.2076958 ], [ 106.793153103326048, 10.207269160025714 ], [ 106.787992724616217, 10.200060460207739 ], [ 106.76480749769911, 10.211829592663982 ], [ 106.741207254841314, 10.192524063735769 ], [ 106.771885862847938, 10.173343675807727 ], [ 106.786595448452786, 10.153963767350255 ], [ 106.790622174772935, 10.107149022438879 ], [ 106.738226006479579, 10.042083602871637 ], [ 106.590140150621323, 10.07102056553431 ], [ 106.916536809673005, 11.741180345119387 ] ] ] ] } }
]
}
