{
"type": "FeatureCollection",
"name": "2026-08-27",
"crs": { "type": "name", "properties": { "name": "urn:ogc:def:crs:OGC:1.3:CRS84" } },
"features": [
{ "type": "Feature", "properties": { }, "geometry": { "type": "Polygon", "coordinates": [ [ [ 104.667161889525516, 19.394208580116171 ], [ 104.637682551115688, 19.209428493885216 ], [ 104.604380219851848, 19.106113952301136 ], [ 104.60796989086424, 19.082551064029705 ], [ 104.580026447624249, 19.026319052731822 ], [ 104.580510644820961, 18.978567297343879 ], [ 104.558469376203647, 18.94228234850944 ], [ 104.55844206675819, 18.900017486672397 ], [ 104.557537679117942, 18.898165355515765 ], [ 104.5570643, 18.8999528 ], [ 104.556742, 18.9020373 ], [ 104.5565582, 18.9038579 ], [ 104.5564572, 18.9059178 ], [ 104.5564587, 18.905946 ], [ 104.5537317, 18.9103304 ], [ 104.5534536, 18.9106465 ], [ 104.5486799, 18.9160737 ], [ 104.5474607, 18.9176047 ], [ 104.546397, 18.9192476 ], [ 104.545499, 18.9209866 ], [ 104.5447752, 18.922805 ], [ 104.5442327, 18.9246855 ], [ 104.54387, 18.9262211 ], [ 104.5435004, 18.928247 ], [ 104.5434557, 18.9288228 ], [ 104.535346, 18.93649 ], [ 104.5339847, 18.9377768 ], [ 104.5299819, 18.9415606 ], [ 104.5286839, 18.942908 ], [ 104.5275175, 18.9443708 ], [ 104.5264929, 18.9459362 ], [ 104.525619, 18.9475905 ], [ 104.5249036, 18.9493192 ], [ 104.5243528, 18.9511072 ], [ 104.5238695, 18.952984 ], [ 104.5236412, 18.9539741 ], [ 104.5230959, 18.9566473 ], [ 104.522772, 18.9588615 ], [ 104.5226974, 18.961098 ], [ 104.5227179, 18.9620037 ], [ 104.5222319, 18.961905 ], [ 104.5200774, 18.9615884 ], [ 104.5179012, 18.961508 ], [ 104.5157291, 18.9616646 ], [ 104.5137295, 18.9619188 ], [ 104.5123064, 18.9621521 ], [ 104.5108039, 18.9624544 ], [ 104.5100457, 18.9625246 ], [ 104.5077459, 18.9628733 ], [ 104.5055021, 18.9634866 ], [ 104.5043513, 18.9638744 ], [ 104.5042378, 18.9639126 ], [ 104.5025734, 18.9645565 ], [ 104.5009731, 18.9653463 ], [ 104.4994496, 18.9662755 ], [ 104.498015, 18.9673369 ], [ 104.4964212, 18.9686299 ], [ 104.4951277, 18.9697754 ], [ 104.4939378, 18.9710282 ], [ 104.4928606, 18.9723791 ], [ 104.491904, 18.9738179 ], [ 104.4908084, 18.975631 ], [ 104.4895624, 18.9780511 ], [ 104.488786, 18.9798505 ], [ 104.4882254, 18.9789687 ], [ 104.4871062, 18.9775202 ], [ 104.4858592, 18.9761801 ], [ 104.4844948, 18.9749597 ], [ 104.4830247, 18.9738691 ], [ 104.4820659, 18.9732237 ], [ 104.4803268, 18.9721772 ], [ 104.4784906, 18.9713124 ], [ 104.4765763, 18.9706381 ], [ 104.4746034, 18.9701613 ], [ 104.4725924, 18.9698869 ], [ 104.4705639, 18.9698178 ], [ 104.4685389, 18.9699546 ], [ 104.4665382, 18.9702959 ], [ 104.4633321, 18.971012 ], [ 104.4602125, 18.9693906 ], [ 104.4585899, 18.9686375 ], [ 104.4569065, 18.9680323 ], [ 104.4551758, 18.9675799 ], [ 104.4534116, 18.9672841 ], [ 104.451335, 18.9670307 ], [ 104.449502, 18.9668921 ], [ 104.447664, 18.9669224 ], [ 104.4458366, 18.9671213 ], [ 104.4445895, 18.9673154 ], [ 104.4421022, 18.9678668 ], [ 104.4407506, 18.9682582 ], [ 104.4388938, 18.9688962 ], [ 104.4371085, 18.9697132 ], [ 104.4354119, 18.9707014 ], [ 104.4345792, 18.9712428 ], [ 104.4328563, 18.9724985 ], [ 104.4312769, 18.9739304 ], [ 104.4304952, 18.974719 ], [ 104.4286246, 18.9768991 ], [ 104.4273465, 18.9786256 ], [ 104.4272056, 18.9788184 ], [ 104.4256994, 18.9809047 ], [ 104.4237388, 18.982035 ], [ 104.4220286, 18.9831407 ], [ 104.4204396, 18.9844145 ], [ 104.4189884, 18.9858434 ], [ 104.4188821, 18.9859719 ], [ 104.4175482, 18.9863664 ], [ 104.4157956, 18.9870706 ], [ 104.4143428, 18.9877356 ], [ 104.4128596, 18.9884907 ], [ 104.4104928, 18.9898224 ], [ 104.4091801, 18.990629 ], [ 104.4079335, 18.9915344 ], [ 104.4071855, 18.9921229 ], [ 104.4058076, 18.9933123 ], [ 104.4045435, 18.9946222 ], [ 104.4034038, 18.9960415 ], [ 104.4023979, 18.9975585 ], [ 104.4021269, 18.9980106 ], [ 104.4012847, 18.9995681 ], [ 104.4005836, 19.0011939 ], [ 104.4003745, 19.0017446 ], [ 104.3997318, 19.0037491 ], [ 104.3993035, 19.0058101 ], [ 104.3990941, 19.0079047 ], [ 104.399106, 19.0100097 ], [ 104.3991451, 19.0106794 ], [ 104.3992138, 19.0115375 ], [ 104.3993741, 19.0131135 ], [ 104.3995087, 19.0138936 ], [ 104.3992218, 19.01425 ], [ 104.3943908, 19.0179394 ], [ 104.3937312, 19.0184655 ], [ 104.3930244, 19.0190541 ], [ 104.3925696, 19.0194446 ], [ 104.3919044, 19.0200332 ], [ 104.3905419, 19.0213595 ], [ 104.3893115, 19.0228092 ], [ 104.3882243, 19.0243691 ], [ 104.3875573, 19.0254304 ], [ 104.38666, 19.0270138 ], [ 104.384934, 19.0304111 ], [ 104.3846788, 19.030932 ], [ 104.384284, 19.0317683 ], [ 104.3835999, 19.0334009 ], [ 104.3830629, 19.0350875 ], [ 104.3828562, 19.0358522 ], [ 104.3824503, 19.0376949 ], [ 104.3822199, 19.0395677 ], [ 104.382167, 19.0414538 ], [ 104.3821706, 19.0415076 ], [ 104.3797932, 19.0418693 ], [ 104.3797936, 19.0418717 ], [ 104.3785513, 19.0420428 ], [ 104.376458, 19.0425658 ], [ 104.3744331, 19.0433112 ], [ 104.3725004, 19.0442704 ], [ 104.372085, 19.0445053 ], [ 104.370337, 19.045617 ], [ 104.3690487, 19.0466378 ], [ 104.3656982, 19.0490158 ], [ 104.3640204, 19.0503473 ], [ 104.3624946, 19.0518505 ], [ 104.3608574, 19.0536462 ], [ 104.353278, 19.0523092 ], [ 104.351142, 19.0520499 ], [ 104.3489906, 19.0520216 ], [ 104.3468485, 19.0522246 ], [ 104.3447406, 19.0526566 ], [ 104.3426913, 19.0533124 ], [ 104.3409225, 19.0539854 ], [ 104.3360918, 19.0558235 ], [ 104.3299233, 19.0581707 ], [ 104.3274636, 19.0593027 ], [ 104.3267098, 19.0597136 ], [ 104.322138, 19.0622061 ], [ 104.3138872, 19.0664616 ], [ 104.3133385, 19.0667555 ], [ 104.3109784, 19.0680673 ], [ 104.3105347, 19.068246 ], [ 104.3093805, 19.068512 ], [ 104.3068209, 19.069102 ], [ 104.3050195, 19.069607 ], [ 104.3034953, 19.0701123 ], [ 104.3014197, 19.0709315 ], [ 104.2994484, 19.0719768 ], [ 104.2976057, 19.0732352 ], [ 104.2956746, 19.0747185 ], [ 104.2938473, 19.076307 ], [ 104.2922253, 19.0781045 ], [ 104.2918377, 19.0785902 ], [ 104.2890734, 19.082055 ], [ 104.2880439, 19.0834679 ], [ 104.2871418, 19.0849652 ], [ 104.2862395, 19.0866226 ], [ 104.2853305, 19.0885245 ], [ 104.2846268, 19.0905115 ], [ 104.2841362, 19.0925615 ], [ 104.283864, 19.0946517 ], [ 104.2838363, 19.0958033 ], [ 104.2834265, 19.0980755 ], [ 104.2822264, 19.0984938 ], [ 104.2778773, 19.1000096 ], [ 104.2755014, 19.1008378 ], [ 104.2746223, 19.1008513 ], [ 104.2744667, 19.1008351 ], [ 104.2654144, 19.0979338 ], [ 104.2643632, 19.0976283 ], [ 104.2631424, 19.0973096 ], [ 104.2589379, 19.0962116 ], [ 104.256832, 19.0957811 ], [ 104.2546921, 19.095579 ], [ 104.2525428, 19.0956078 ], [ 104.2520208, 19.0956429 ], [ 104.2444201, 19.096154 ], [ 104.2440883, 19.0960907 ], [ 104.2409252, 19.0946559 ], [ 104.2389409, 19.0938804 ], [ 104.2368854, 19.0933204 ], [ 104.234782, 19.0929822 ], [ 104.233435, 19.0928387 ], [ 104.2315283, 19.0927273 ], [ 104.2296197, 19.0927983 ], [ 104.2277266, 19.093051 ], [ 104.2258662, 19.0934831 ], [ 104.2240555, 19.0940907 ], [ 104.2213552, 19.0951428 ], [ 104.2208597, 19.0953436 ], [ 104.2162081, 19.0973007 ], [ 104.2134994, 19.0982246 ], [ 104.2108444, 19.0993497 ], [ 104.2088463, 19.1003723 ], [ 104.2068417, 19.1011512 ], [ 104.2052364, 19.1018575 ], [ 104.2036992, 19.1027017 ], [ 104.2022418, 19.1036773 ], [ 104.2008755, 19.1047768 ], [ 104.199341, 19.1061267 ], [ 104.197811, 19.1076253 ], [ 104.1964501, 19.109279 ], [ 104.1952738, 19.1110686 ], [ 104.1920896, 19.1165293 ], [ 104.1911207, 19.1184137 ], [ 104.1903566, 19.1203901 ], [ 104.1898059, 19.1224362 ], [ 104.1894747, 19.1245291 ], [ 104.1893668, 19.1266452 ], [ 104.1894835, 19.1287609 ], [ 104.1895817, 19.1296661 ], [ 104.1898869, 19.1315954 ], [ 104.1903789, 19.1334857 ], [ 104.1910529, 19.135319 ], [ 104.1919026, 19.1370779 ], [ 104.1952803, 19.1432772 ], [ 104.194856, 19.1433793 ], [ 104.1927397, 19.1441488 ], [ 104.1907233, 19.1451514 ], [ 104.1887818, 19.1462572 ], [ 104.1869466, 19.1474396 ], [ 104.1852512, 19.1488149 ], [ 104.1837158, 19.1503669 ], [ 104.1823587, 19.152077 ], [ 104.1811274, 19.1538156 ], [ 104.1800718, 19.155473 ], [ 104.179184, 19.1572261 ], [ 104.1784726, 19.1590578 ], [ 104.1774903, 19.1620087 ], [ 104.177076, 19.1634257 ], [ 104.1748071, 19.1724046 ], [ 104.1707261, 19.1782777 ], [ 104.1704819, 19.1786625 ], [ 104.1687892, 19.1786291 ], [ 104.1671991, 19.178661 ], [ 104.1659895, 19.1787334 ], [ 104.1530696, 19.1795064 ], [ 104.152206, 19.1795769 ], [ 104.1522031, 19.1795772 ], [ 104.1518615, 19.1796155 ], [ 104.1458626, 19.1803405 ], [ 104.1443029, 19.1805918 ], [ 104.1402081, 19.1814188 ], [ 104.1250427, 19.1844819 ], [ 104.1233635, 19.1848974 ], [ 104.1217265, 19.1854564 ], [ 104.1203656, 19.1859879 ], [ 104.1187198, 19.1867176 ], [ 104.1171464, 19.1875924 ], [ 104.115658, 19.1886051 ], [ 104.1142666, 19.1897475 ], [ 104.1129837, 19.1910105 ], [ 104.1118195, 19.1923837 ], [ 104.1113783, 19.1929543 ], [ 104.109996, 19.1947419 ], [ 104.1098617, 19.1949339 ], [ 104.1079921, 19.1944201 ], [ 104.1071577, 19.1942395 ], [ 104.1053569, 19.1939351 ], [ 104.1035359, 19.1937962 ], [ 104.1017097, 19.193824 ], [ 104.0998938, 19.1940182 ], [ 104.0985003, 19.194232 ], [ 104.0966797, 19.1945986 ], [ 104.0949009, 19.1951324 ], [ 104.0931794, 19.195829 ], [ 104.0915299, 19.1966822 ], [ 104.0899666, 19.1976847 ], [ 104.0885031, 19.1988279 ], [ 104.0871519, 19.200102 ], [ 104.0858936, 19.201404 ], [ 104.0857483, 19.2015544 ], [ 104.0846026, 19.2028479 ], [ 104.0835729, 19.2042354 ], [ 104.0826667, 19.2057066 ], [ 104.0818909, 19.2072506 ], [ 104.0814432, 19.2082468 ], [ 104.0804743, 19.2100351 ], [ 104.0776397, 19.215053 ], [ 104.0757667, 19.2158866 ], [ 104.0743589, 19.2165131 ], [ 104.0727885, 19.2172963 ], [ 104.0712929, 19.218214 ], [ 104.0649837, 19.2224773 ], [ 104.0632838, 19.223763 ], [ 104.0630103, 19.22402 ], [ 104.0622536, 19.2238949 ], [ 104.0601427, 19.2237723 ], [ 104.0579827, 19.2237612 ], [ 104.0558699, 19.2238622 ], [ 104.0537796, 19.2241857 ], [ 104.0527173, 19.2244676 ], [ 104.0514685, 19.2241648 ], [ 104.040527, 19.2215117 ], [ 104.0400102, 19.2213936 ], [ 104.0255548, 19.2182917 ], [ 104.0240356, 19.2180266 ], [ 104.0214504, 19.2176774 ], [ 104.0165192, 19.2164104 ], [ 104.0143102, 19.2150747 ], [ 104.0124749, 19.2140916 ], [ 104.0101511, 19.2129985 ], [ 104.0083709, 19.2122636 ], [ 104.0065284, 19.2117033 ], [ 104.0046405, 19.2113229 ], [ 104.003164, 19.2110987 ], [ 104.0013848, 19.2109094 ], [ 103.9995959, 19.21088 ], [ 103.9978114, 19.2110106 ], [ 103.9960458, 19.2113001 ], [ 103.9947937, 19.2115634 ], [ 103.9929743, 19.2120362 ], [ 103.9917785, 19.2124078 ], [ 103.9902126, 19.2129668 ], [ 103.9886985, 19.2136539 ], [ 103.9872467, 19.2144645 ], [ 103.9857712, 19.2153707 ], [ 103.9842096, 19.2164345 ], [ 103.9827553, 19.217641 ], [ 103.9814214, 19.2189793 ], [ 103.9802198, 19.2204376 ], [ 103.9791611, 19.2220027 ], [ 103.9784135, 19.2233704 ], [ 103.9744724, 19.2251852 ], [ 103.9712625, 19.2254721 ], [ 103.9691985, 19.2257657 ], [ 103.9671763, 19.2262726 ], [ 103.9652178, 19.2269872 ], [ 103.9627722, 19.228027 ], [ 103.9614557, 19.2285868 ], [ 103.9593983, 19.2296048 ], [ 103.9521498, 19.233725 ], [ 103.9502704, 19.2347932 ], [ 103.9488378, 19.2356897 ], [ 103.947486, 19.2367039 ], [ 103.9462247, 19.2378286 ], [ 103.941019, 19.242881 ], [ 103.9402371, 19.2436836 ], [ 103.9349848, 19.2493863 ], [ 103.9312899, 19.253398 ], [ 103.9275068, 19.2564125 ], [ 103.9225548, 19.2602033 ], [ 103.922062, 19.260593 ], [ 103.9190978, 19.2630135 ], [ 103.9162425, 19.2653452 ], [ 103.9132565, 19.2677835 ], [ 103.9122204, 19.2686907 ], [ 103.9093275, 19.2714054 ], [ 103.9079042, 19.2728856 ], [ 103.9066402, 19.2745039 ], [ 103.9049964, 19.2768471 ], [ 103.9001607, 19.2837403 ], [ 103.8992059, 19.2852647 ], [ 103.8981872, 19.2846282 ], [ 103.8964884, 19.2837792 ], [ 103.8948504, 19.2830556 ], [ 103.8932872, 19.2824421 ], [ 103.891678, 19.2819619 ], [ 103.8900342, 19.2816184 ], [ 103.8881447, 19.2813057 ], [ 103.8863513, 19.2810915 ], [ 103.8845458, 19.2810401 ], [ 103.8827432, 19.2811517 ], [ 103.8809579, 19.2814255 ], [ 103.8792046, 19.2818592 ], [ 103.8774976, 19.2824493 ], [ 103.8745836, 19.2836065 ], [ 103.8728064, 19.2844148 ], [ 103.8711166, 19.2853925 ], [ 103.86953, 19.2865303 ], [ 103.8681339, 19.2877543 ], [ 103.8675074, 19.2879761 ], [ 103.8656989, 19.288828 ], [ 103.8644075, 19.2895172 ], [ 103.8629733, 19.2903611 ], [ 103.8616141, 19.2913213 ], [ 103.8603396, 19.2923912 ], [ 103.8594207, 19.2932301 ], [ 103.8579778, 19.2946899 ], [ 103.8566922, 19.29629 ], [ 103.8555774, 19.2980133 ], [ 103.854645, 19.2998418 ], [ 103.853905, 19.3017563 ], [ 103.853365, 19.3037365 ], [ 103.8530309, 19.3057616 ], [ 103.8529434, 19.3065383 ], [ 103.8528464, 19.3073993 ], [ 103.8527251, 19.3092191 ], [ 103.8526608, 19.3122861 ], [ 103.8526962, 19.3139665 ], [ 103.8530014, 19.318796 ], [ 103.8530346, 19.3193229 ], [ 103.8531914, 19.3208597 ], [ 103.8534663, 19.3223799 ], [ 103.8536722, 19.3233114 ], [ 103.8541747, 19.3251599 ], [ 103.8548518, 19.3269518 ], [ 103.8556971, 19.3286706 ], [ 103.8567031, 19.3303008 ], [ 103.856871, 19.3305458 ], [ 103.8573269, 19.3312105 ], [ 103.8584509, 19.332696 ], [ 103.8597083, 19.3340705 ], [ 103.861088, 19.335322 ], [ 103.8637472, 19.3375172 ], [ 103.8684952, 19.3414364 ], [ 103.8695808, 19.3423325 ], [ 103.8717051, 19.3438637 ], [ 103.8784407, 19.3480776 ], [ 103.8799359, 19.3490131 ], [ 103.8817456, 19.350019 ], [ 103.8836497, 19.3508323 ], [ 103.8856277, 19.3514445 ], [ 103.8876583, 19.3518489 ], [ 103.8899052, 19.3521765 ], [ 103.8917485, 19.3523585 ], [ 103.8936008, 19.3523693 ], [ 103.8972099, 19.352223 ], [ 103.8990035, 19.3520692 ], [ 103.8992155, 19.3520316 ], [ 103.89989, 19.3531482 ], [ 103.9011524, 19.3548156 ], [ 103.9018856, 19.3556855 ], [ 103.9032778, 19.3571759 ], [ 103.9048144, 19.3585167 ], [ 103.9064796, 19.359694 ], [ 103.9082561, 19.3606957 ], [ 103.9097433, 19.361437 ], [ 103.9116857, 19.36228 ], [ 103.9137064, 19.3629129 ], [ 103.9157827, 19.3633286 ], [ 103.9176698, 19.3636034 ], [ 103.9208395, 19.3641835 ], [ 103.9212895, 19.364305 ], [ 103.9221823, 19.3647124 ], [ 103.9229842, 19.3651945 ], [ 103.9286664, 19.3692517 ], [ 103.9314923, 19.3717579 ], [ 103.9328436, 19.3728551 ], [ 103.9342852, 19.3738307 ], [ 103.9357505, 19.3747319 ], [ 103.9363176, 19.3750429 ], [ 103.9363428, 19.3750863 ], [ 103.9366294, 19.3755413 ], [ 103.9362475, 19.3764261 ], [ 103.9362213, 19.3764961 ], [ 103.936047, 19.3769623 ], [ 103.9354084, 19.3789932 ], [ 103.9349893, 19.3810805 ], [ 103.9347944, 19.3832005 ], [ 103.9348261, 19.3853292 ], [ 103.9350838, 19.3874424 ], [ 103.9351848, 19.388015 ], [ 103.9355863, 19.3898065 ], [ 103.9361504, 19.3915535 ], [ 103.9368724, 19.3932415 ], [ 103.9377461, 19.3948561 ], [ 103.9387641, 19.3963839 ], [ 103.939918, 19.3978118 ], [ 103.9411979, 19.3991279 ], [ 103.9419351, 19.3998194 ], [ 103.9431917, 19.4009037 ], [ 103.9516212, 19.4075877 ], [ 103.9530183, 19.4086005 ], [ 103.9544975, 19.4094891 ], [ 103.9560477, 19.4102469 ], [ 103.9562939, 19.4103419 ], [ 103.9563249, 19.4103967 ], [ 103.9574701, 19.4120217 ], [ 103.9587711, 19.413525 ], [ 103.9602148, 19.4148917 ], [ 103.9617871, 19.4161083 ], [ 103.9634725, 19.4171628 ], [ 103.9640669, 19.4174948 ], [ 103.9658421, 19.418374 ], [ 103.9676956, 19.4190732 ], [ 103.9696091, 19.4195857 ], [ 103.971564, 19.4199063 ], [ 103.9730635, 19.4200765 ], [ 103.9742002, 19.4201728 ], [ 103.9767951, 19.4203182 ], [ 103.9772391, 19.4207315 ], [ 103.9787206, 19.421872 ], [ 103.9793505, 19.4223116 ], [ 103.9811028, 19.4234045 ], [ 103.9829584, 19.4243108 ], [ 103.9848976, 19.425021 ], [ 103.9868996, 19.4255274 ], [ 103.9882496, 19.4257956 ], [ 103.9882589, 19.4257974 ], [ 103.9900284, 19.4260696 ], [ 103.9918151, 19.4261824 ], [ 103.9939561, 19.4262216 ], [ 103.9956023, 19.426184 ], [ 103.9981984, 19.4260175 ], [ 103.999446, 19.4258981 ], [ 104.0014051, 19.4256485 ], [ 104.0028657, 19.4254072 ], [ 104.0028845, 19.4254026 ], [ 104.0033408, 19.4263267 ], [ 104.0045108, 19.4281619 ], [ 104.0058733, 19.4298591 ], [ 104.0074122, 19.4313982 ], [ 104.0078182, 19.4317623 ], [ 104.0091691, 19.4328712 ], [ 104.0106117, 19.433858 ], [ 104.0121349, 19.434715 ], [ 104.0137271, 19.4354358 ], [ 104.014659, 19.4358095 ], [ 104.016373, 19.436408 ], [ 104.0181341, 19.4368486 ], [ 104.0199279, 19.4371278 ], [ 104.0217397, 19.4372431 ], [ 104.0232422, 19.4372704 ], [ 104.0239793, 19.437252 ], [ 104.0242317, 19.4373989 ], [ 104.0265001, 19.4385816 ], [ 104.0282936, 19.4394068 ], [ 104.0301597, 19.4400512 ], [ 104.0305727, 19.4401713 ], [ 104.0329361, 19.4411049 ], [ 104.0341561, 19.4416582 ], [ 104.0362702, 19.4431095 ], [ 104.0364651, 19.4432433 ], [ 104.0383762, 19.4444037 ], [ 104.040405, 19.4453436 ], [ 104.0425259, 19.4460511 ], [ 104.0430866, 19.4462039 ], [ 104.0446623, 19.4465487 ], [ 104.0446083, 19.4466756 ], [ 104.0439951, 19.448673 ], [ 104.0435936, 19.4507234 ], [ 104.0434082, 19.4528046 ], [ 104.0434409, 19.4548937 ], [ 104.0436914, 19.4569681 ], [ 104.044157, 19.4590049 ], [ 104.0443615, 19.4597243 ], [ 104.0450313, 19.4616874 ], [ 104.0459008, 19.4635704 ], [ 104.0469607, 19.4653533 ], [ 104.0481996, 19.4670169 ], [ 104.049604, 19.4685432 ], [ 104.051159, 19.4699158 ], [ 104.0528478, 19.47112 ], [ 104.0530583, 19.4712542 ], [ 104.0539311, 19.4718105 ], [ 104.055635, 19.4727824 ], [ 104.0574258, 19.4735826 ], [ 104.0585792, 19.4739675 ], [ 104.0586785, 19.4740589 ], [ 104.0594254, 19.4747126 ], [ 104.059526, 19.4747963 ], [ 104.0600464, 19.4754517 ], [ 104.0612249, 19.4768065 ], [ 104.0625202, 19.4780501 ], [ 104.063915, 19.4792739 ], [ 104.0639195, 19.4792999 ], [ 104.0641248, 19.4810982 ], [ 104.0643946, 19.4828041 ], [ 104.0648105, 19.4844803 ], [ 104.0651523, 19.4856408 ], [ 104.0659094, 19.4877623 ], [ 104.0669003, 19.4897853 ], [ 104.0676405, 19.491103 ], [ 104.068386, 19.4923255 ], [ 104.070252, 19.4951525 ], [ 104.0710057, 19.4962171 ], [ 104.0721265, 19.4976956 ], [ 104.0739059, 19.5002284 ], [ 104.0751162, 19.5017823 ], [ 104.0761865, 19.5030251 ], [ 104.076901122084195, 19.503773833648271 ], [ 104.667161889525516, 19.394208580116171 ] ] ] } }
]
}
