{
"type": "FeatureCollection",
"name": "2026-09-23",
"crs": { "type": "name", "properties": { "name": "urn:ogc:def:crs:OGC:1.3:CRS84" } },
"features": [
{ "type": "Feature", "properties": { }, "geometry": { "type": "MultiPolygon", "coordinates": [ [ [ [ 106.916536809255334, 11.741180346152563 ], [ 108.988148239984326, 11.335954659329795 ], [ 108.960847870233479, 11.314367483956119 ], [ 108.935096892369216, 11.306963219891539 ], [ 108.918464167306794, 11.306758637237134 ], [ 108.915195289600277, 11.317387107106018 ], [ 108.886944821455771, 11.334790385053527 ], [ 108.845051651618817, 11.331442524787175 ], [ 108.839758308577004, 11.322323441758106 ], [ 108.816563461030015, 11.316866443930172 ], [ 108.812478512686695, 11.300667542619921 ], [ 108.786062315633657, 11.305664508111583 ], [ 108.777955069944525, 11.288838080885631 ], [ 108.755675125784379, 11.28069322233002 ], [ 108.730665052907298, 11.183578319414766 ], [ 108.712254452771205, 11.173957835898451 ], [ 108.709184096396157, 11.163865600889975 ], [ 108.696959192914804, 11.182496653560129 ], [ 108.662056409897943, 11.194295617172509 ], [ 108.633071820467677, 11.18875399438234 ], [ 108.619062283470385, 11.175272731275786 ], [ 108.607017723632609, 11.182908726124777 ], [ 108.587028070744608, 11.182472351569695 ], [ 108.565238028277165, 11.163523784427731 ], [ 108.529148907124522, 11.155409394225295 ], [ 108.511488898858218, 11.140978180067199 ], [ 108.496967853197219, 11.115388728833365 ], [ 108.47559040091673, 11.047448218932324 ], [ 108.46382049722331, 11.040615553977917 ], [ 108.43060428425899, 11.044683469525255 ], [ 108.41520639592612, 11.025070890515691 ], [ 108.403496554787694, 11.032670653992925 ], [ 108.37296283953431, 11.030516850398351 ], [ 108.350019000765542, 11.005272326903283 ], [ 108.338371836824749, 10.950251512605915 ], [ 108.321798538615241, 10.958697419030324 ], [ 108.309365752077568, 10.955836152938112 ], [ 108.294953063267258, 10.929019335530029 ], [ 108.29591360471008, 10.913443114227769 ], [ 108.279625601451215, 10.915961615211822 ], [ 108.276361623644732, 10.941825840685588 ], [ 108.231542438777055, 10.955132208076321 ], [ 108.190479950959656, 10.935471211807926 ], [ 108.159413702588324, 10.928665315608637 ], [ 108.133357283466879, 10.93225871034061 ], [ 108.108445639424573, 10.916210855381669 ], [ 108.091126190978301, 10.915441330755272 ], [ 108.074587937015323, 10.901151350735871 ], [ 108.036467348592268, 10.827816246370855 ], [ 108.015545873161045, 10.733667653745142 ], [ 108.007560880713996, 10.728967761620119 ], [ 107.994976637521873, 10.693402834231001 ], [ 107.982951605947036, 10.703721897639671 ], [ 107.962697885024227, 10.701175868139666 ], [ 107.931928265116881, 10.717206651597158 ], [ 107.899031109618775, 10.722276227943405 ], [ 107.827375641633296, 10.703035001446175 ], [ 107.772605634033511, 10.645808228009388 ], [ 107.729935483927747, 10.631908068077969 ], [ 107.696264492032881, 10.629955662403601 ], [ 107.66144755251905, 10.607342466886257 ], [ 107.620406442847425, 10.594394119261043 ], [ 107.564538651085229, 10.564527114280413 ], [ 107.510670698023119, 10.499347216262054 ], [ 107.470768987608849, 10.497732693284611 ], [ 107.444469389441963, 10.468503893367656 ], [ 107.368696121514873, 10.467487274718648 ], [ 107.332191685422259, 10.444264147396641 ], [ 107.3198508865555, 10.444531953909722 ], [ 107.257422877549203, 10.379816018319719 ], [ 107.238193675026082, 10.379678795256266 ], [ 107.208396411715555, 10.405987648583871 ], [ 107.17064316815447, 10.401987421613713 ], [ 107.107660778143796, 10.355975390857541 ], [ 107.084645520463425, 10.323436137375269 ], [ 107.069440838914673, 10.337151588627883 ], [ 107.048603073577723, 10.405885672027065 ], [ 107.049068090773588, 10.406128451858716 ], [ 107.068653127271361, 10.392125888347307 ], [ 107.088884616409473, 10.393331381479234 ], [ 107.10004710103965, 10.405264084145408 ], [ 107.103364357584582, 10.429580527875194 ], [ 107.093279522526984, 10.435091812646158 ], [ 107.072717088932677, 10.432126671122367 ], [ 107.060840614629143, 10.444679919853499 ], [ 107.049061469410859, 10.445962702468588 ], [ 107.041836227025527, 10.472604607880568 ], [ 107.031711041189368, 10.47404271038422 ], [ 107.023547412921872, 10.465088945753362 ], [ 107.016123537123264, 10.484391864365655 ], [ 106.995918545649104, 10.495061452917769 ], [ 106.978351576312505, 10.474168110074803 ], [ 106.976350252457593, 10.460150201465025 ], [ 106.945527143427128, 10.471251032694237 ], [ 106.935610655389951, 10.464358135678488 ], [ 106.934896085431703, 10.440691494262955 ], [ 106.975127048555905, 10.416919617210306 ], [ 106.971370644664461, 10.405897587893001 ], [ 106.897206780134724, 10.375777026955431 ], [ 106.869520504745424, 10.38182913990218 ], [ 106.84788567760431, 10.376854721987165 ], [ 106.843700118129476, 10.392572075333593 ], [ 106.827741495934362, 10.397001580160657 ], [ 106.819908548395432, 10.413590396318874 ], [ 106.777618665453005, 10.450204150676182 ], [ 106.760944959649095, 10.478534307990605 ], [ 106.755196452599534, 10.511688728215519 ], [ 106.734833502005841, 10.511981913108931 ], [ 106.724397227157084, 10.487716273598604 ], [ 106.782378111391992, 10.411937324776106 ], [ 106.782406449505828, 10.29047731634539 ], [ 106.755722744274678, 10.256888683635728 ], [ 106.796956418815881, 10.21366925399305 ], [ 106.7968095, 10.2133252 ], [ 106.7958611, 10.2113979 ], [ 106.7947115, 10.2095835 ], [ 106.7933739, 10.2079028 ], [ 106.7931692, 10.2076958 ], [ 106.793153133558747, 10.207269961339023 ], [ 106.787992724616217, 10.200060460207739 ], [ 106.76480749769911, 10.211829592663982 ], [ 106.741207254841314, 10.192524063735769 ], [ 106.771885862895047, 10.173343676018845 ], [ 106.786595311216161, 10.153965909846184 ], [ 106.790622174772935, 10.107149022438879 ], [ 106.738485108497144, 10.044940043559812 ], [ 106.590434591370112, 10.073829858499819 ], [ 106.916536809255334, 11.741180346152563 ] ] ], [ [ [ 108.908041407685545, 10.525406158702939 ], [ 108.91961470813807, 10.531142204393735 ], [ 108.925902489991643, 10.553560931187503 ], [ 108.946117934082977, 10.556612776422664 ], [ 108.957680246781933, 10.579586906181079 ], [ 108.958068998888962, 10.579450638355123 ], [ 108.950234291016997, 10.558224350872212 ], [ 108.95839750590504, 10.548307769955047 ], [ 108.957559948413262, 10.526852805008916 ], [ 108.968912398019668, 10.517685785785686 ], [ 108.964086422386075, 10.498245319316579 ], [ 108.932203832247851, 10.509186357712585 ], [ 108.92279679757101, 10.525874126043053 ], [ 108.910925928569299, 10.523585980308127 ], [ 108.908548525379814, 10.515611151486127 ], [ 108.9077334, 10.5189457 ], [ 108.9074613, 10.5202441 ], [ 108.90638646926655, 10.526380302135468 ], [ 108.908041407685545, 10.525406158702939 ] ] ] ] } }
]
}
