{
"type": "FeatureCollection",
"name": "2026-09-16",
"crs": { "type": "name", "properties": { "name": "urn:ogc:def:crs:OGC:1.3:CRS84" } },
"features": [
{ "type": "Feature", "properties": { }, "geometry": { "type": "MultiPolygon", "coordinates": [ [ [ [ 106.571344222251597, 8.692864720837397 ], [ 106.577510558869037, 8.708211588830872 ], [ 106.582613959384489, 8.704629852468237 ], [ 106.571698685485259, 8.639593895469529 ], [ 106.559767311040702, 8.626749982288089 ], [ 106.53757647823015, 8.652891445961719 ], [ 106.538295400300356, 8.661456834215219 ], [ 106.554962603038135, 8.67091541537715 ], [ 106.554387033820817, 8.691194937043251 ], [ 106.571344222251597, 8.692864720837397 ] ] ], [ [ [ 104.713113001345675, 8.647317520396477 ], [ 104.727358143951832, 8.657238344926309 ], [ 104.761579391582501, 8.650433021072129 ], [ 104.779037708561333, 8.65457407601613 ], [ 104.785029755690672, 8.676962974207303 ], [ 104.782123801877063, 8.702973100158816 ], [ 104.791639462011688, 8.722120405294806 ], [ 104.811478026649496, 8.734267692953757 ], [ 104.846125834175652, 8.740867680664707 ], [ 104.876788406136882, 8.77576492739885 ], [ 104.86765033653856, 8.788625322694269 ], [ 104.808808575415313, 8.772212753347883 ], [ 104.786075969898761, 8.795110972778062 ], [ 104.77946604918597, 8.816128664540541 ], [ 104.803988809625992, 8.929802227189041 ], [ 104.801522293527057, 9.007627448636038 ], [ 104.808391539899716, 9.035907013006346 ], [ 104.811144821321122, 9.139744017572941 ], [ 104.807789537689956, 9.169875278616869 ], [ 104.797748846356157, 9.178777390285989 ], [ 104.808703105544225, 9.186594252098072 ], [ 104.817022202944926, 9.219655509246669 ], [ 104.824324367545671, 9.354844003013632 ], [ 105.6926514366681, 9.182810697682099 ], [ 105.672436890865882, 9.168021044073582 ], [ 105.502084000527773, 9.09495864834564 ], [ 105.452618818748633, 9.055135656594109 ], [ 105.396235489914361, 8.99456993600977 ], [ 105.383149591635885, 8.943608309951577 ], [ 105.331566273766654, 8.837093647664316 ], [ 105.266789183715872, 8.769773239888774 ], [ 105.216901329115061, 8.757434621477401 ], [ 105.180221032862988, 8.737666827476705 ], [ 105.140402115105971, 8.693555479996924 ], [ 105.127662268063048, 8.673139595127354 ], [ 105.128381782388672, 8.659185163672808 ], [ 105.104987757403791, 8.635956987117137 ], [ 105.055162681982196, 8.623522386035921 ], [ 105.010317429443234, 8.600954795046583 ], [ 104.984169896477141, 8.600671713057226 ], [ 104.957842517677889, 8.586917703694153 ], [ 104.839707970826623, 8.563188471332641 ], [ 104.802142922957088, 8.567569572788647 ], [ 104.791309752860741, 8.582868743457317 ], [ 104.725933526161157, 8.599559745743058 ], [ 104.715607663986489, 8.606539570077581 ], [ 104.713113001345675, 8.647317520396477 ] ] ] ] } }
]
}
