{
"type": "FeatureCollection",
"name": "2026-09-22",
"crs": { "type": "name", "properties": { "name": "urn:ogc:def:crs:OGC:1.3:CRS84" } },
"features": [
{ "type": "Feature", "properties": { }, "geometry": { "type": "Polygon", "coordinates": [ [ [ 104.626904300069313, 10.552521397950525 ], [ 104.6296804, 10.5514662 ], [ 104.630664, 10.5515633 ], [ 104.6316731, 10.5528254 ], [ 104.6319469, 10.5531679 ], [ 104.6332413, 10.5546341 ], [ 104.6346728, 10.5559667 ], [ 104.6362276, 10.5571532 ], [ 104.6378909, 10.5581822 ], [ 104.6396467, 10.5590437 ], [ 104.6414782, 10.5597297 ], [ 104.643368, 10.5602335 ], [ 104.645298, 10.5605503 ], [ 104.6472497, 10.5606771 ], [ 104.658664, 10.5608592 ], [ 104.6599212, 10.5608397 ], [ 104.6926406, 10.5593032 ], [ 104.6943158, 10.5591537 ], [ 104.6959726, 10.558864 ], [ 104.6975991, 10.5584362 ], [ 104.72051, 10.551367 ], [ 104.7364246, 10.5464565 ], [ 104.738801, 10.5457229 ], [ 104.7395121, 10.5454888 ], [ 104.7551513, 10.5400124 ], [ 104.7582707, 10.5398233 ], [ 104.7761853, 10.5402769 ], [ 104.8588718, 10.5423497 ], [ 104.872259, 10.5539112 ], [ 104.8804265, 10.5609637 ], [ 104.8838273, 10.566021 ], [ 104.8996414, 10.5972203 ], [ 104.9024268, 10.6027147 ], [ 104.9031527, 10.604023 ], [ 104.9163239, 10.6257967 ], [ 104.9179775, 10.6281342 ], [ 104.9286495, 10.6411357 ], [ 104.9363355, 10.6504981 ], [ 104.9375181, 10.6518152 ], [ 104.9462133, 10.6606769 ], [ 104.9475546, 10.6619242 ], [ 104.9490045, 10.6630435 ], [ 104.9505506, 10.6640255 ], [ 104.9809296, 10.6814209 ], [ 104.9814092, 10.6816868 ], [ 104.9877791, 10.6851059 ], [ 104.9919808, 10.6873612 ], [ 105.0043048, 10.6944303 ], [ 105.0516328, 10.7215674 ], [ 105.061662, 10.7273159 ], [ 105.0708451, 10.7332792 ], [ 105.0686411, 10.746241 ], [ 105.0679095, 10.7474097 ], [ 105.0654028, 10.7494986 ], [ 105.0479755, 10.7640191 ], [ 105.0465738, 10.7653047 ], [ 105.0453006, 10.7667176 ], [ 105.0441674, 10.7682451 ], [ 105.0431843, 10.7698733 ], [ 105.0423604, 10.7715876 ], [ 105.0417031, 10.7733723 ], [ 105.0412182, 10.7752114 ], [ 105.0409102, 10.7770883 ], [ 105.0400684, 10.784372 ], [ 105.0399509, 10.7859005 ], [ 105.0394668, 10.7985024 ], [ 105.0394452, 10.799066 ], [ 105.0389436, 10.8121238 ], [ 105.0265249, 10.836452 ], [ 105.0263518, 10.8367994 ], [ 105.0119052, 10.8665104 ], [ 105.0110937, 10.8684272 ], [ 105.0104857, 10.8704179 ], [ 105.010088, 10.8724611 ], [ 105.0084436, 10.8841122 ], [ 105.0082621, 10.8861382 ], [ 105.0082873, 10.8881722 ], [ 105.0085191, 10.8901931 ], [ 105.0089549, 10.89218 ], [ 105.0096722, 10.8948045 ], [ 105.0103566, 10.8973083 ], [ 105.0110491, 10.8993867 ], [ 105.0119648, 10.9013769 ], [ 105.0130927, 10.9032551 ], [ 105.0144193, 10.9049986 ], [ 105.0147197, 10.9053515 ], [ 105.018089, 10.9093092 ], [ 105.0179194, 10.9121161 ], [ 105.0179018, 10.9141901 ], [ 105.0180991, 10.9162547 ], [ 105.0185091, 10.9182877 ], [ 105.0191274, 10.9202674 ], [ 105.0199475, 10.9221724 ], [ 105.0209604, 10.9239822 ], [ 105.0242234, 10.9291624 ], [ 105.0242556, 10.9292134 ], [ 105.0322337, 10.9417948 ], [ 105.0333604, 10.9433931 ], [ 105.0346378, 10.9448737 ], [ 105.0360537, 10.9462225 ], [ 105.0375945, 10.9474265 ], [ 105.0471412, 10.9541618 ], [ 105.0486671, 10.955138 ], [ 105.050275, 10.955972 ], [ 105.0519519, 10.9566572 ], [ 105.0564606, 10.9582653 ], [ 105.0571958, 10.9628251 ], [ 105.057609, 10.964768 ], [ 105.0582129, 10.9666603 ], [ 105.0590015, 10.9684834 ], [ 105.0599671, 10.9702193 ], [ 105.0611001, 10.9718508 ], [ 105.0623894, 10.9733619 ], [ 105.0638221, 10.9747377 ], [ 105.0653843, 10.9759645 ], [ 105.0670605, 10.9770304 ], [ 105.0688342, 10.9779247 ], [ 105.0706878, 10.9786387 ], [ 105.072603, 10.9791652 ], [ 105.0745611, 10.9794992 ], [ 105.0765427, 10.9796373 ], [ 105.0785281, 10.9795782 ], [ 105.080498, 10.9793224 ], [ 105.0824327, 10.9788725 ], [ 105.0843132, 10.9782329 ], [ 105.0861211, 10.9774099 ], [ 105.087727, 10.9765802 ], [ 105.0892732, 10.9756918 ], [ 105.0895588, 10.9754919 ], [ 105.0913414, 10.9750104 ], [ 105.0915765, 10.9749469 ], [ 105.0990195, 10.9789764 ], [ 105.100744, 10.9798059 ], [ 105.1025399, 10.9804668 ], [ 105.1043907, 10.9809531 ], [ 105.1080575, 10.981731 ], [ 105.110028, 10.9820472 ], [ 105.1120201, 10.9821655 ], [ 105.1140141, 10.9820847 ], [ 105.1159901, 10.9818056 ], [ 105.1179285, 10.9813309 ], [ 105.1198099, 10.9806654 ], [ 105.1216156, 10.9798157 ], [ 105.1233276, 10.9787904 ], [ 105.124929, 10.9775995 ], [ 105.1264037, 10.9762549 ], [ 105.127737, 10.9747701 ], [ 105.1289158, 10.9731598 ], [ 105.1299282, 10.97144 ], [ 105.1301872, 10.9709451 ], [ 105.1306849, 10.9699937 ], [ 105.1312018, 10.9689306 ], [ 105.1334797, 10.9638697 ], [ 105.1341991, 10.9620347 ], [ 105.1347344, 10.9601378 ], [ 105.1350804, 10.9581975 ], [ 105.1352337, 10.9562325 ], [ 105.1351929, 10.9542619 ], [ 105.1345802, 10.9455241 ], [ 105.1343962, 10.9439596 ], [ 105.1445465, 10.9443314 ], [ 105.1473891, 10.9442331 ], [ 105.156661, 10.9432492 ], [ 105.1592798, 10.9429713 ], [ 105.1596465, 10.9429324 ], [ 105.16157, 10.942633 ], [ 105.1634553, 10.942148 ], [ 105.1652844, 10.941482 ], [ 105.1670402, 10.9406413 ], [ 105.1689196, 10.9396262 ], [ 105.1793462, 10.9339942 ], [ 105.1829358, 10.9331196 ], [ 105.186856, 10.9331721 ], [ 105.18896, 10.9332003 ], [ 105.1978264, 10.9333188 ], [ 105.1997218, 10.9332542 ], [ 105.2016026, 10.9330104 ], [ 105.2034519, 10.9325895 ], [ 105.2052529, 10.9319953 ], [ 105.2069896, 10.9312332 ], [ 105.2086463, 10.9303101 ], [ 105.2145866, 10.9266204 ], [ 105.2265883, 10.9199604 ], [ 105.23724, 10.9166047 ], [ 105.2461115, 10.9167213 ], [ 105.2578182, 10.9188084 ], [ 105.2597208, 10.9190542 ], [ 105.2616382, 10.9191165 ], [ 105.2635527, 10.9189949 ], [ 105.2654467, 10.9186903 ], [ 105.2673029, 10.9182057 ], [ 105.2691041, 10.9175455 ], [ 105.2708338, 10.9167158 ], [ 105.272476, 10.9157242 ], [ 105.2740156, 10.9145798 ], [ 105.2754386, 10.9132931 ], [ 105.2767317, 10.9118761 ], [ 105.2776894, 10.9107198 ], [ 105.2790267, 10.9097718 ], [ 105.2793035, 10.9095944 ], [ 105.2804487, 10.9088605 ], [ 105.2844103, 10.9082601 ], [ 105.2862899, 10.9078822 ], [ 105.2881247, 10.9073262 ], [ 105.2925266, 10.9057581 ], [ 105.2945827, 10.9048936 ], [ 105.2965297, 10.9038056 ], [ 105.3017896, 10.9004684 ], [ 105.3170782, 10.8927668 ], [ 105.3201599, 10.8912147 ], [ 105.320413, 10.8910849 ], [ 105.3206399, 10.8909665 ], [ 105.3306005, 10.8857732 ], [ 105.3346082, 10.8913286 ], [ 105.3355081, 10.8924844 ], [ 105.3423276, 10.9006104 ], [ 105.3436198, 10.9020092 ], [ 105.3450392, 10.9032786 ], [ 105.3465728, 10.9044074 ], [ 105.3482069, 10.9053852 ], [ 105.3488548, 10.9056934 ], [ 105.3490011, 10.9060695 ], [ 105.3497909, 10.9076643 ], [ 105.351115, 10.9100632 ], [ 105.3520576, 10.9116024 ], [ 105.3528519, 10.9127769 ], [ 105.3537691, 10.9144322 ], [ 105.3547822, 10.9160692 ], [ 105.355948, 10.9176013 ], [ 105.3572557, 10.9190142 ], [ 105.3586931, 10.9202948 ], [ 105.360247, 10.9214312 ], [ 105.361903, 10.922413 ], [ 105.3636457, 10.923231 ], [ 105.3639682, 10.923346 ], [ 105.3642688, 10.9240358 ], [ 105.3652048, 10.925909 ], [ 105.3664357, 10.9280801 ], [ 105.3669185, 10.9289815 ], [ 105.3678705, 10.9305764 ], [ 105.3689664, 10.9320761 ], [ 105.3701966, 10.9334677 ], [ 105.3715506, 10.9347391 ], [ 105.37352, 10.9364233 ], [ 105.3756067, 10.9379844 ], [ 105.377733, 10.9393687 ], [ 105.3793332, 10.9403078 ], [ 105.3810136, 10.9410946 ], [ 105.386088, 10.9431893 ], [ 105.3861857, 10.9432585 ], [ 105.3874375, 10.9441451 ], [ 105.3901229, 10.9514987 ], [ 105.3909715, 10.9534832 ], [ 105.3920291, 10.9553646 ], [ 105.3937558, 10.9580819 ], [ 105.4054745, 10.9820681 ], [ 105.4063468, 10.9836651 ], [ 105.4073607, 10.9851762 ], [ 105.4076556, 10.9855752 ], [ 105.4087406, 10.9869179 ], [ 105.4099374, 10.988162 ], [ 105.4103766, 10.9885808 ], [ 105.4119157, 10.9899059 ], [ 105.4135813, 10.9910681 ], [ 105.4153562, 10.9920554 ], [ 105.417222, 10.9928576 ], [ 105.4191596, 10.9934665 ], [ 105.4211489, 10.9938757 ], [ 105.4232552, 10.9941985 ], [ 105.4253372, 10.9944068 ], [ 105.4281493, 10.9945402 ], [ 105.42982, 10.9945496 ], [ 105.4314856, 10.9944196 ], [ 105.4331345, 10.9941509 ], [ 105.434948, 10.9937771 ], [ 105.4368617, 10.9932829 ], [ 105.4387173, 10.9926023 ], [ 105.4404967, 10.9917418 ], [ 105.4421824, 10.9907099 ], [ 105.4437581, 10.9895167 ], [ 105.4452082, 10.9881737 ], [ 105.4465188, 10.9866942 ], [ 105.4472414, 10.9857923 ], [ 105.447541, 10.9854182 ], [ 105.4490332, 10.9832842 ], [ 105.4501922, 10.9813727 ], [ 105.4505918, 10.9808761 ], [ 105.4511848, 10.9812851 ], [ 105.4526221, 10.9821096 ], [ 105.4541226, 10.9828124 ], [ 105.4563107, 10.9837286 ], [ 105.457946, 10.984331 ], [ 105.4596274, 10.9847887 ], [ 105.4613423, 10.9850984 ], [ 105.4637377, 10.9854239 ], [ 105.4661899, 10.9856046 ], [ 105.4688889, 10.9856371 ], [ 105.4697485, 10.9856289 ], [ 105.4720488, 10.9855577 ], [ 105.4738785, 10.9854169 ], [ 105.4756876, 10.9851089 ], [ 105.4774609, 10.9846363 ], [ 105.4795686, 10.9839697 ], [ 105.4816728, 10.9831715 ], [ 105.4836739, 10.9821419 ], [ 105.4854866, 10.9810762 ], [ 105.4867433, 10.9802728 ], [ 105.4879366, 10.9793781 ], [ 105.489041, 10.9784838 ], [ 105.490545, 10.9771346 ], [ 105.4919052, 10.9756405 ], [ 105.4931077, 10.9740168 ], [ 105.4931852, 10.9738865 ], [ 105.4945835, 10.9741334 ], [ 105.4965656, 10.9742831 ], [ 105.4985527, 10.9742353 ], [ 105.5005253, 10.9739905 ], [ 105.5024639, 10.9735511 ], [ 105.5043492, 10.9729214 ], [ 105.5061628, 10.9721076 ], [ 105.5078866, 10.9711179 ], [ 105.5082844, 10.9708624 ], [ 105.5313316, 10.9733101 ], [ 105.5412876, 10.9784168 ], [ 105.5431724, 10.9792636 ], [ 105.5451344, 10.9799115 ], [ 105.5471529, 10.9803534 ], [ 105.5711094, 10.9843145 ], [ 105.57470614386726, 10.98532239720868 ], [ 105.65127764666174, 10.976441028800483 ], [ 105.653999106935856, 11.006296556503685 ], [ 105.6598329, 11.0077498 ], [ 105.6792725, 11.0176302 ], [ 105.684643, 11.0227578 ], [ 105.6921424, 11.0303382 ], [ 105.6936842, 11.0317421 ], [ 105.6953638, 11.0329779 ], [ 105.7039532, 11.0386319 ], [ 105.7055604, 11.0395853 ], [ 105.7072495, 11.0403845 ], [ 105.7167236, 11.0443368 ], [ 105.7182554, 11.0449036 ], [ 105.7198283, 11.0453435 ], [ 105.7293216, 11.0475848 ], [ 105.731497, 11.0479729 ], [ 105.7337021, 11.0481187 ], [ 105.7444794, 11.0482346 ], [ 105.7690794, 11.0528916 ], [ 105.7708259, 11.053143 ], [ 105.7725876, 11.0532395 ], [ 105.7751833, 11.053267 ], [ 105.777307, 11.0531765 ], [ 105.7794092, 11.0528612 ], [ 105.7814659, 11.0523245 ], [ 105.7834542, 11.0515726 ], [ 105.7851876, 11.0506966 ], [ 105.7891582, 11.0493971 ], [ 105.7910593, 11.0486657 ], [ 105.7928761, 11.0477448 ], [ 105.7945899, 11.0466439 ], [ 105.7961828, 11.0453744 ], [ 105.7976383, 11.0439494 ], [ 105.7989413, 11.0423838 ], [ 105.8000783, 11.0406938 ], [ 105.8010375, 11.0388969 ], [ 105.8274708, 10.9826593 ], [ 105.8298867, 10.9784644 ], [ 105.8338944, 10.971506 ], [ 105.8707064, 10.9247072 ], [ 105.8713463, 10.9238938 ], [ 105.8716731, 10.9234667 ], [ 105.878443, 10.9143679 ], [ 105.879613, 10.9126084 ], [ 105.8805909, 10.9107352 ], [ 105.8813657, 10.9087693 ], [ 105.8819287, 10.9067326 ], [ 105.8822737, 10.9046479 ], [ 105.882469, 10.9028985 ], [ 105.8826826, 10.9009853 ], [ 105.882804, 10.8990585 ], [ 105.882739, 10.8971289 ], [ 105.8824882, 10.8952147 ], [ 105.8820541, 10.8933335 ], [ 105.8814406, 10.8915029 ], [ 105.8806534, 10.88974 ], [ 105.8733473, 10.8752939 ], [ 105.888145, 10.8692233 ], [ 105.8944504, 10.8676157 ], [ 105.8955469, 10.8673362 ], [ 105.9052791, 10.8648542 ], [ 105.9054134, 10.8658788 ], [ 105.9058291, 10.8677039 ], [ 105.9064136, 10.869482 ], [ 105.9071618, 10.8711978 ], [ 105.9078173, 10.8725275 ], [ 105.9104318, 10.8778308 ], [ 105.9113868, 10.8795495 ], [ 105.912506, 10.881166 ], [ 105.9137785, 10.8826649 ], [ 105.9151921, 10.8840316 ], [ 105.916733, 10.8852529 ], [ 105.9255677, 10.8915737 ], [ 105.9256905, 10.8916543 ], [ 105.9252399, 10.8931991 ], [ 105.920228, 10.9038218 ], [ 105.9194154, 10.9058156 ], [ 105.9188219, 10.907885 ], [ 105.9184543, 10.9100064 ], [ 105.9183168, 10.9121549 ], [ 105.9182652, 10.9172884 ], [ 105.9183418, 10.9192499 ], [ 105.9186104, 10.9211945 ], [ 105.9190683, 10.9231033 ], [ 105.9197111, 10.9249581 ], [ 105.9205326, 10.926741 ], [ 105.921525, 10.9284347 ], [ 105.9226786, 10.930023 ], [ 105.9239824, 10.9314905 ], [ 105.9254238, 10.9328231 ], [ 105.9269888, 10.9340081 ], [ 105.9286625, 10.9350338 ], [ 105.9304287, 10.9358906 ], [ 105.9322704, 10.9365701 ], [ 105.9341698, 10.9370658 ], [ 105.9361086, 10.9373729 ], [ 105.9380682, 10.9374884 ], [ 105.9414055, 10.9375211 ], [ 105.9434951, 10.9374323 ], [ 105.9455639, 10.9371257 ], [ 105.9475894, 10.9366047 ], [ 105.9495494, 10.9358751 ], [ 105.9514225, 10.9349447 ], [ 105.9531882, 10.9338239 ], [ 105.9548272, 10.9325248 ], [ 105.957447, 10.9302153 ], [ 106.0089908, 10.8847768 ], [ 106.0156334, 10.8789209 ], [ 106.0171099, 10.8776188 ], [ 106.0200656, 10.875012 ], [ 106.0245759, 10.8716323 ], [ 106.0255652, 10.8708146 ], [ 106.0294119, 10.8678837 ], [ 106.040144, 10.8597056 ], [ 106.0554022, 10.8490407 ], [ 106.0709632, 10.8381618 ], [ 106.0795236, 10.8335326 ], [ 106.0903552, 10.8319294 ], [ 106.1150573, 10.8333136 ], [ 106.1234508, 10.8337833 ], [ 106.1235448, 10.8337883 ], [ 106.1587961, 10.8355945 ], [ 106.1606851, 10.835602 ], [ 106.1625663, 10.8354312 ], [ 106.1644231, 10.8350837 ], [ 106.1662197, 10.8345679 ], [ 106.1617755, 10.8412428 ], [ 106.1439873, 10.8679548 ], [ 106.1429278, 10.8697402 ], [ 106.1420591, 10.8716259 ], [ 106.1413906, 10.8735914 ], [ 106.1409294, 10.8756156 ], [ 106.1406805, 10.8776767 ], [ 106.1406138, 10.8786537 ], [ 106.1191529, 10.9023626 ], [ 106.1179773, 10.9037885 ], [ 106.1169384, 10.9053169 ], [ 106.116045, 10.9069346 ], [ 106.1153047, 10.9086278 ], [ 106.1147239, 10.9103822 ], [ 106.1143075, 10.9121827 ], [ 106.114059, 10.914014 ], [ 106.1139806, 10.9158603 ], [ 106.1139881, 10.9178334 ], [ 106.1140789, 10.9196619 ], [ 106.1143365, 10.9214745 ], [ 106.1147587, 10.9232559 ], [ 106.1153421, 10.9249913 ], [ 106.1185089, 10.933154 ], [ 106.119391, 10.9351096 ], [ 106.1204775, 10.9369595 ], [ 106.1256585, 10.9447864 ], [ 106.1251736, 10.9462054 ], [ 106.1245781, 10.9483219 ], [ 106.1242185, 10.9504909 ], [ 106.1235883, 10.9562332 ], [ 106.1214638, 10.975588 ], [ 106.1213454, 10.977571 ], [ 106.1214243, 10.9795559 ], [ 106.1216997, 10.9815232 ], [ 106.1221689, 10.9834535 ], [ 106.1228273, 10.9853277 ], [ 106.1236683, 10.9871274 ], [ 106.1246838, 10.9888348 ], [ 106.1258636, 10.9904329 ], [ 106.1271961, 10.9919062 ], [ 106.1286683, 10.99324 ], [ 106.1302654, 10.9944212 ], [ 106.1319719, 10.9954381 ], [ 106.1441373, 11.0018916 ], [ 106.1459846, 11.002754 ], [ 106.14791, 11.0034238 ], [ 106.1498937, 11.0038941 ], [ 106.1519149, 11.00416 ], [ 106.1539526, 11.0042188 ], [ 106.1559858, 11.0040698 ], [ 106.1579932, 11.0037147 ], [ 106.1612976, 11.0029546 ], [ 106.1628686, 11.0025252 ], [ 106.1646667, 11.0019541 ], [ 106.1663867, 11.0014764 ], [ 106.1683479, 11.0008208 ], [ 106.1724159, 10.9992227 ], [ 106.1713543, 11.0055669 ], [ 106.171171, 11.0069626 ], [ 106.1677459, 11.042759 ], [ 106.1647313, 11.0480795 ], [ 106.1628374, 11.051422 ], [ 106.155617, 11.0641643 ], [ 106.1454469, 11.0785338 ], [ 106.1454364, 11.0785271 ], [ 106.1436076, 11.0776044 ], [ 106.1379581, 11.0751085 ], [ 106.1376396, 11.0748039 ], [ 106.1359859, 11.0732219 ], [ 106.134781, 11.0720391 ], [ 106.1320935, 11.0694002 ], [ 106.1272308, 11.0646258 ], [ 106.1253939, 11.0628222 ], [ 106.1201668, 11.057284 ], [ 106.1197012, 11.0567907 ], [ 106.1182481, 11.0553988 ], [ 106.1166625, 11.05416 ], [ 106.1149604, 11.0530867 ], [ 106.1131591, 11.0521899 ], [ 106.1112768, 11.0514786 ], [ 106.1093326, 11.0509601 ], [ 106.1073461, 11.0506395 ], [ 106.1053375, 11.0505202 ], [ 106.1028068, 11.0504974 ], [ 106.1008666, 11.0505742 ], [ 106.098943, 11.0508387 ], [ 106.0970542, 11.0512886 ], [ 106.0952178, 11.0519195 ], [ 106.0934513, 11.0527254 ], [ 106.0917713, 11.0536989 ], [ 106.0901936, 11.0548307 ], [ 106.0866877, 11.0576131 ], [ 106.0851877, 11.0589308 ], [ 106.0838265, 11.0603915 ], [ 106.0826178, 11.0619806 ], [ 106.0815735, 11.0636823 ], [ 106.0807041, 11.0654796 ], [ 106.0800183, 11.0673547 ], [ 106.0795228, 11.0692888 ], [ 106.0792226, 11.0712627 ], [ 106.0787603, 11.0758253 ], [ 106.0787278, 11.0761452 ], [ 106.0775242, 11.077784 ], [ 106.0759806, 11.0777699 ], [ 106.074713, 11.0777583 ], [ 106.0727337, 11.0778383 ], [ 106.070772, 11.0781137 ], [ 106.0688471, 11.0785819 ], [ 106.066978, 11.0792381 ], [ 106.0651831, 11.080076 ], [ 106.0634798, 11.0810874 ], [ 106.0618849, 11.0822623 ], [ 106.060414, 11.0835892 ], [ 106.0590817, 11.0850552 ], [ 106.0579009, 11.0866457 ], [ 106.048771, 11.1003088 ], [ 106.0391692, 11.1087333 ], [ 106.0387451, 11.1089535 ], [ 106.028625, 11.1142073 ], [ 106.0158776, 11.1208251 ], [ 106.0140663, 11.1218898 ], [ 106.0123767, 11.1231386 ], [ 106.011996, 11.1234522 ], [ 106.005996, 11.1283949 ], [ 106.0046022, 11.1296576 ], [ 106.0033332, 11.1310457 ], [ 106.0022001, 11.1325469 ], [ 106.0012131, 11.1341478 ], [ 106.0003809, 11.1358344 ], [ 105.9997107, 11.1375917 ], [ 105.9992086, 11.1394042 ], [ 105.9972252, 11.1481416 ], [ 105.9968221, 11.1506415 ], [ 105.9947205, 11.172346 ], [ 105.976305, 11.1764746 ], [ 105.9692692, 11.1770108 ], [ 105.9631746, 11.1774753 ], [ 105.9616222, 11.1776549 ], [ 105.9600886, 11.1779551 ], [ 105.9518199, 11.179912 ], [ 105.9486647, 11.1806588 ], [ 105.9470338, 11.1811185 ], [ 105.9454477, 11.1817147 ], [ 105.9439178, 11.1824429 ], [ 105.9387876, 11.1851572 ], [ 105.9275073, 11.1911254 ], [ 105.9241851, 11.1928831 ], [ 105.9226728, 11.1937701 ], [ 105.921244, 11.1947862 ], [ 105.9199097, 11.1959235 ], [ 105.9186802, 11.1971733 ], [ 105.9138452, 11.2025392 ], [ 105.9074575, 11.2096285 ], [ 105.9055522, 11.2117429 ], [ 105.9038507, 11.2139157 ], [ 105.8922783, 11.2310024 ], [ 105.8913708, 11.2324758 ], [ 105.890594, 11.2340222 ], [ 105.8899539, 11.23563 ], [ 105.8860396, 11.2468505 ], [ 105.8854972, 11.2486823 ], [ 105.885132, 11.2505575 ], [ 105.8849475, 11.252459 ], [ 105.8849452, 11.2543694 ], [ 105.8851252, 11.2562713 ], [ 105.8854858, 11.2581474 ], [ 105.8867011, 11.2631637 ], [ 105.8874292, 11.265522 ], [ 105.8877064, 11.2662558 ], [ 105.8859742, 11.2668218 ], [ 105.8830714, 11.2668882 ], [ 105.8800985, 11.265842 ], [ 105.8778184, 11.2650397 ], [ 105.8743033, 11.2636096 ], [ 105.8735331, 11.2632962 ], [ 105.8716617, 11.2626409 ], [ 105.8697346, 11.2621742 ], [ 105.8677709, 11.2619005 ], [ 105.8657896, 11.2618227 ], [ 105.8638104, 11.2619414 ], [ 105.8618527, 11.2622555 ], [ 105.8599357, 11.2627619 ], [ 105.8570759, 11.2636712 ], [ 105.8552901, 11.2643342 ], [ 105.8535755, 11.265164 ], [ 105.8519476, 11.2661533 ], [ 105.8504212, 11.2672929 ], [ 105.8490101, 11.2685726 ], [ 105.8477272, 11.2699807 ], [ 105.8465841, 11.2715045 ], [ 105.8455912, 11.2731301 ], [ 105.8447573, 11.2748428 ], [ 105.8424851, 11.2801369 ], [ 105.8417761, 11.2820538 ], [ 105.8412663, 11.2840331 ], [ 105.8409613, 11.2860541 ], [ 105.840864, 11.2880956 ], [ 105.8409757, 11.2901364 ], [ 105.841295, 11.2921551 ], [ 105.8418187, 11.2941307 ], [ 105.8425413, 11.2960426 ], [ 105.8437786, 11.2988702 ], [ 105.8448137, 11.3009096 ], [ 105.846075, 11.3028175 ], [ 105.8475457, 11.304569 ], [ 105.8476978, 11.3047304 ], [ 105.8455533, 11.3106508 ], [ 105.844963, 11.3125788 ], [ 105.8445698, 11.3145565 ], [ 105.8443778, 11.3165637 ], [ 105.8443889, 11.3185801 ], [ 105.8446029, 11.3205851 ], [ 105.8451972, 11.3243446 ], [ 105.8455917, 11.3262402 ], [ 105.8461677, 11.3280887 ], [ 105.8469197, 11.3298729 ], [ 105.8478407, 11.3315759 ], [ 105.8489221, 11.333182 ], [ 105.8501537, 11.3346759 ], [ 105.851524, 11.3360438 ], [ 105.8530202, 11.3372728 ], [ 105.8544586, 11.3383421 ], [ 105.8553534, 11.3405759 ], [ 105.858234, 11.350858 ], [ 105.8600571, 11.3573653 ], [ 105.8597195, 11.3575845 ], [ 105.8582721, 11.358727 ], [ 105.8569359, 11.359998 ], [ 105.8557226, 11.3613867 ], [ 105.8546423, 11.3628812 ], [ 105.8537042, 11.3644688 ], [ 105.8529164, 11.3661362 ], [ 105.8523137, 11.3675805 ], [ 105.8508941, 11.3709827 ], [ 105.8496669, 11.3739236 ], [ 105.8489918, 11.3757996 ], [ 105.8485069, 11.3777334 ], [ 105.8482168, 11.3797059 ], [ 105.8481246, 11.3816974 ], [ 105.8482312, 11.3836883 ], [ 105.8485354, 11.3856586 ], [ 105.8490343, 11.3875889 ], [ 105.8497229, 11.3894599 ], [ 105.8505943, 11.3912531 ], [ 105.8531456, 11.3958986 ], [ 105.8528248, 11.3970679 ], [ 105.852489, 11.3990671 ], [ 105.8523573, 11.40109 ], [ 105.8524311, 11.4031159 ], [ 105.8527096, 11.4051238 ], [ 105.8531899, 11.4070933 ], [ 105.8538671, 11.409004 ], [ 105.8547343, 11.4108364 ], [ 105.8557824, 11.4125716 ], [ 105.8570009, 11.4141917 ], [ 105.8583771, 11.4156802 ], [ 105.8598969, 11.4170217 ], [ 105.8615447, 11.4182025 ], [ 105.8648901, 11.4203518 ], [ 105.865376, 11.4206737 ], [ 105.8655139, 11.4213773 ], [ 105.8660397, 11.423162 ], [ 105.8670488, 11.426079 ], [ 105.8674733, 11.4271966 ], [ 105.8688252, 11.4304591 ], [ 105.8695542, 11.4320238 ], [ 105.8704153, 11.4335197 ], [ 105.8714023, 11.4349359 ], [ 105.8721347, 11.4358144 ], [ 105.8695243, 11.4374665 ], [ 105.8682155, 11.4383697 ], [ 105.8669825, 11.439374 ], [ 105.8629614, 11.4429245 ], [ 105.8611783, 11.4447114 ], [ 105.8581981, 11.4481013 ], [ 105.8569716, 11.4496434 ], [ 105.8559028, 11.4512987 ], [ 105.8550021, 11.4530512 ], [ 105.8542782, 11.4548837 ], [ 105.8538063, 11.4562753 ], [ 105.8532605, 11.4581948 ], [ 105.8529087, 11.460159 ], [ 105.8527545, 11.4621486 ], [ 105.8527992, 11.4641436 ], [ 105.8530425, 11.4661242 ], [ 105.8534742, 11.4686071 ], [ 105.8539381, 11.4706403 ], [ 105.8546112, 11.4726141 ], [ 105.8554861, 11.4745072 ], [ 105.8565534, 11.4762988 ], [ 105.8578015, 11.4779696 ], [ 105.8594614, 11.4799655 ], [ 105.8602662, 11.4816753 ], [ 105.8622488, 11.4858875 ], [ 105.8616574, 11.4866923 ], [ 105.8606689, 11.4883524 ], [ 105.8598453, 11.4901 ], [ 105.8591941, 11.491919 ], [ 105.8587215, 11.4937924 ], [ 105.8579754, 11.4974956 ], [ 105.8576134, 11.5003148 ], [ 105.8573246, 11.5054141 ], [ 105.8573246, 11.5076752 ], [ 105.8575341, 11.5113765 ], [ 105.8577592, 11.5134426 ], [ 105.8581975, 11.5154742 ], [ 105.8588442, 11.5174494 ], [ 105.8596962, 11.5196563 ], [ 105.860428, 11.5213219 ], [ 105.861308, 11.5229141 ], [ 105.8623291, 11.5244198 ], [ 105.8641969, 11.526921 ], [ 105.8642887, 11.5278898 ], [ 105.8642583, 11.5281902 ], [ 105.8630131, 11.5313413 ], [ 105.8603944, 11.536251 ], [ 105.8597492, 11.5367748 ], [ 105.8589012, 11.5375307 ], [ 105.8569309, 11.539287 ], [ 105.8559696, 11.540203 ], [ 105.8540912, 11.5421157 ], [ 105.8525011, 11.5416815 ], [ 105.8506987, 11.5412778 ], [ 105.8488668, 11.541042 ], [ 105.8470208, 11.5409762 ], [ 105.8451767, 11.541081 ], [ 105.8433502, 11.5413555 ], [ 105.8415567, 11.5417974 ], [ 105.8400825, 11.5422337 ], [ 105.8396773, 11.5423536 ], [ 105.83872, 11.5426369 ], [ 105.8376924, 11.5428332 ], [ 105.8370314, 11.5429594 ], [ 105.8318938, 11.5439405 ], [ 105.8248406, 11.5442527 ], [ 105.8229664, 11.5444243 ], [ 105.8211167, 11.5447712 ], [ 105.8193078, 11.5452906 ], [ 105.8175557, 11.5459776 ], [ 105.8143112, 11.5474295 ], [ 105.8104694, 11.5489807 ], [ 105.8086446, 11.5498265 ], [ 105.806914, 11.5508513 ], [ 105.8052951, 11.5520448 ], [ 105.8020613, 11.5546897 ], [ 105.800641, 11.5559694 ], [ 105.7993493, 11.5573789 ], [ 105.7981981, 11.5589053 ], [ 105.797198, 11.5605347 ], [ 105.7963579, 11.5622521 ], [ 105.7956857, 11.5640419 ], [ 105.7951875, 11.5658876 ], [ 105.7948677, 11.5677726 ], [ 105.7941644, 11.5735949 ], [ 105.7940226, 11.5756759 ], [ 105.7940983, 11.5777604 ], [ 105.79437, 11.5796796 ], [ 105.7940313, 11.5803307 ], [ 105.7900496, 11.5879834 ], [ 105.7892521, 11.5897129 ], [ 105.7886226, 11.5915103 ], [ 105.7881669, 11.5933595 ], [ 105.7878892, 11.5952436 ], [ 105.787792, 11.5971456 ], [ 105.7878761, 11.5990482 ], [ 105.7881409, 11.6009342 ], [ 105.7885838, 11.6027865 ], [ 105.7892008, 11.6045882 ], [ 105.7899865, 11.6063231 ], [ 105.7909336, 11.6079754 ], [ 105.7919096, 11.6093548 ], [ 105.791062313144735, 11.610963309037963 ], [ 107.126947442591884, 11.347077133889838 ], [ 106.957480210439456, 10.509061817087201 ], [ 106.946461233139217, 10.496642326098806 ], [ 106.948645556780491, 10.472707537297516 ], [ 106.934354909477648, 10.46612502490639 ], [ 106.932620396032988, 10.443368425238919 ], [ 106.939814040167605, 10.436325630426351 ], [ 106.932924608492812, 10.391030923839789 ], [ 106.898562746502989, 10.375588034098799 ], [ 106.87687722325461, 10.378609424116052 ], [ 106.863581307875108, 10.383350385199947 ], [ 106.87037906927381, 10.399715558069909 ], [ 106.861402976348103, 10.407814313267522 ], [ 106.8372156703239, 10.395686463251284 ], [ 106.784849236888533, 10.391288474352301 ], [ 106.78079396973817, 10.28780800239047 ], [ 106.75562528452312, 10.258466194445797 ], [ 106.797322379570545, 10.214526259667775 ], [ 106.7968095, 10.2133252 ], [ 106.7958611, 10.2113979 ], [ 106.7947115, 10.2095835 ], [ 106.7933739, 10.2079028 ], [ 106.7931692, 10.2076958 ], [ 106.792977278640677, 10.202608952612636 ], [ 106.780932978281129, 10.198156027313619 ], [ 106.777288822956038, 10.187644142164521 ], [ 106.778809230411824, 10.166731321169586 ], [ 106.79040072817368, 10.15054860458641 ], [ 106.792231846601425, 10.109818471402013 ], [ 106.733912453635952, 10.039783331319178 ], [ 106.694065778260523, 10.033800814764108 ], [ 106.6814014231919, 10.003616042031075 ], [ 106.106560382315095, 10.118158341744328 ], [ 106.093705688244597, 10.107118464973388 ], [ 106.08685001366652, 10.062905329666021 ], [ 106.06540971829223, 10.065690580300336 ], [ 105.306611762424566, 10.216397960123338 ], [ 105.293564417213332, 10.202381894488219 ], [ 105.287397142333745, 10.163796235323836 ], [ 105.260279634667128, 10.164199205569789 ], [ 104.577636312650128, 10.299633172944404 ], [ 104.626904300069313, 10.552521397950525 ] ] ] } }
]
}
