{
"type": "FeatureCollection",
"name": "2026-09-21",
"crs": { "type": "name", "properties": { "name": "urn:ogc:def:crs:OGC:1.3:CRS84" } },
"features": [
{ "type": "Feature", "properties": { }, "geometry": { "type": "MultiPolygon", "coordinates": [ [ [ [ 104.831692481176745, 10.170005345194959 ], [ 104.826064377489189, 10.167773871658097 ], [ 104.790371128784457, 10.205913461385686 ], [ 104.737008059262152, 10.227158731116871 ], [ 104.684008427404351, 10.1943942886176 ], [ 104.645753141169095, 10.13658338034908 ], [ 104.618138774874026, 10.145625975824338 ], [ 104.599626356727029, 10.141871185730304 ], [ 104.593714584775086, 10.150799645715757 ], [ 104.570398142489225, 10.153892424613826 ], [ 104.577543108034746, 10.161706097815332 ], [ 104.599522869110885, 10.15297876617036 ], [ 104.606576894828876, 10.161905257814876 ], [ 104.596579881765109, 10.174093825492317 ], [ 104.577107157809664, 10.170483303123957 ], [ 104.590890048581812, 10.193880634661504 ], [ 104.576712892424297, 10.26196150302345 ], [ 104.550129934088616, 10.28926228236157 ], [ 104.527071953194238, 10.271685266073693 ], [ 104.533056642217147, 10.290483006739912 ], [ 104.51967419244113, 10.334784298165429 ], [ 104.495865211168777, 10.360952204669983 ], [ 104.478851664287447, 10.361075033907104 ], [ 104.470212054184628, 10.371751000604021 ], [ 104.440793760943109, 10.365372054085771 ], [ 104.450378824841067, 10.406464330201374 ], [ 104.423623514913515, 10.437895380487738 ], [ 104.4246253, 10.4387598 ], [ 104.4262191, 10.4398842 ], [ 104.427915, 10.4408479 ], [ 104.4296966, 10.4416419 ], [ 104.4315471, 10.4422586 ], [ 104.4335448, 10.4428177 ], [ 104.4536404, 10.448441 ], [ 104.4553014, 10.4488303 ], [ 104.4569896, 10.4490766 ], [ 104.4586926, 10.4491781 ], [ 104.4651016, 10.4492862 ], [ 104.4695822, 10.4493617 ], [ 104.4722036, 10.4492336 ], [ 104.4799993, 10.4483373 ], [ 104.4819102, 10.4480232 ], [ 104.4837818, 10.4475258 ], [ 104.4855965, 10.4468497 ], [ 104.4873373, 10.4460013 ], [ 104.4889879, 10.4449884 ], [ 104.493557, 10.4418706 ], [ 104.4945322, 10.445367 ], [ 104.4950257, 10.4468962 ], [ 104.4956404, 10.4483807 ], [ 104.4973388, 10.4520574 ], [ 104.4981543, 10.4536349 ], [ 104.4991066, 10.4551339 ], [ 104.5001881, 10.4565425 ], [ 104.5044146, 10.4615685 ], [ 104.5055392, 10.462798 ], [ 104.5067623, 10.4639296 ], [ 104.5105648, 10.4671645 ], [ 104.5119902, 10.4682703 ], [ 104.5135094, 10.4692432 ], [ 104.5151102, 10.4700752 ], [ 104.5167794, 10.4707596 ], [ 104.5185034, 10.4712907 ], [ 104.5202683, 10.4716644 ], [ 104.5281092, 10.4729581 ], [ 104.5281708, 10.4729652 ], [ 104.5284777, 10.4747927 ], [ 104.5291112, 10.4769893 ], [ 104.5299911, 10.4790992 ], [ 104.5315875, 10.4823847 ], [ 104.5332206, 10.4857457 ], [ 104.5331963, 10.4884568 ], [ 104.5330446, 10.4935668 ], [ 104.5330801, 10.4954913 ], [ 104.5333005, 10.4974034 ], [ 104.5337037, 10.4992856 ], [ 104.534286, 10.5011202 ], [ 104.5350419, 10.5028904 ], [ 104.5359645, 10.5045797 ], [ 104.5393772, 10.510171 ], [ 104.5404511, 10.5117549 ], [ 104.5416715, 10.5132288 ], [ 104.5430272, 10.5145793 ], [ 104.5445057, 10.5157941 ], [ 104.5460936, 10.5168621 ], [ 104.5477762, 10.5177734 ], [ 104.5495383, 10.5185197 ], [ 104.5562428, 10.5209882 ], [ 104.5581305, 10.521579 ], [ 104.5599636, 10.5219589 ], [ 104.5603694, 10.5251333 ], [ 104.5606234, 10.5266524 ], [ 104.5609935, 10.5281475 ], [ 104.5625199, 10.5334316 ], [ 104.563278, 10.5355861 ], [ 104.5642768, 10.5376401 ], [ 104.5655033, 10.5395668 ], [ 104.5695434, 10.5451784 ], [ 104.5708623, 10.5468205 ], [ 104.5744348, 10.5508177 ], [ 104.5758588, 10.5522572 ], [ 104.5774211, 10.5535454 ], [ 104.5791056, 10.554669 ], [ 104.5808952, 10.5556164 ], [ 104.5870981, 10.5585086 ], [ 104.5880407, 10.5589482 ], [ 104.589717, 10.5596391 ], [ 104.591449, 10.5601754 ], [ 104.5932225, 10.5605526 ], [ 104.5950228, 10.5607676 ], [ 104.5968352, 10.5608188 ], [ 104.6049842, 10.5606791 ], [ 104.6068316, 10.5605617 ], [ 104.6086601, 10.5602741 ], [ 104.6104543, 10.5598186 ], [ 104.6156904, 10.5582281 ], [ 104.6173929, 10.5576258 ], [ 104.6190341, 10.5568723 ], [ 104.6206006, 10.5559739 ], [ 104.6247425, 10.5533431 ], [ 104.6296804, 10.5514662 ], [ 104.630664, 10.5515633 ], [ 104.6316731, 10.5528254 ], [ 104.6319469, 10.5531679 ], [ 104.6332413, 10.5546341 ], [ 104.6346728, 10.5559667 ], [ 104.6362276, 10.5571532 ], [ 104.6378909, 10.5581822 ], [ 104.6396467, 10.5590437 ], [ 104.6414782, 10.5597297 ], [ 104.643368, 10.5602335 ], [ 104.645298, 10.5605503 ], [ 104.6472497, 10.5606771 ], [ 104.658664, 10.5608592 ], [ 104.6599212, 10.5608397 ], [ 104.6926406, 10.5593032 ], [ 104.6943158, 10.5591537 ], [ 104.6959726, 10.558864 ], [ 104.6975991, 10.5584362 ], [ 104.72051, 10.551367 ], [ 104.7364246, 10.5464565 ], [ 104.738801, 10.5457229 ], [ 104.7395121, 10.5454888 ], [ 104.7551513, 10.5400124 ], [ 104.7582707, 10.5398233 ], [ 104.7761853, 10.5402769 ], [ 104.8588718, 10.5423497 ], [ 104.872259, 10.5539112 ], [ 104.8804265, 10.5609637 ], [ 104.8838273, 10.566021 ], [ 104.8996414, 10.5972203 ], [ 104.9024268, 10.6027147 ], [ 104.9031527, 10.604023 ], [ 104.9163239, 10.6257967 ], [ 104.9179775, 10.6281342 ], [ 104.928165093175778, 10.640545556135198 ], [ 104.831692481176745, 10.170005345194959 ] ] ], [ [ [ 104.543421069418997, 10.122241691278637 ], [ 104.524437960767116, 10.124398783557487 ], [ 104.517987379047923, 10.148489330596128 ], [ 104.530545705612084, 10.165694193865299 ], [ 104.526367326278333, 10.187822785384103 ], [ 104.534280904614789, 10.184031172525833 ], [ 104.536150328778874, 10.172248002812321 ], [ 104.531890677975596, 10.146522624784723 ], [ 104.542674907548843, 10.143703291376745 ], [ 104.548470771571075, 10.153476332059924 ], [ 104.556944516479916, 10.149976383200341 ], [ 104.543421069418997, 10.122241691278637 ] ] ], [ [ [ 104.630757557578917, 9.822864185234138 ], [ 104.660321984144815, 9.816575183080115 ], [ 104.650511246293021, 9.794575106596225 ], [ 104.606989361509264, 9.796672298159054 ], [ 104.630757557578917, 9.822864185234138 ] ] ], [ [ [ 104.350826007324557, 9.727232394148182 ], [ 104.366023429986853, 9.711066173614386 ], [ 104.359830267329784, 9.662586825707384 ], [ 104.35172930398565, 9.663491150130286 ], [ 104.344637456659086, 9.678745881745611 ], [ 104.350425194749249, 9.693723321384171 ], [ 104.341475749749165, 9.710929482838582 ], [ 104.350826007324557, 9.727232394148182 ] ] ], [ [ [ 103.838815494854131, 10.37914337586774 ], [ 103.926830463920012, 10.362838825720026 ], [ 103.942557167228202, 10.382867776277138 ], [ 103.944389878228122, 10.399711804332647 ], [ 103.966272823842246, 10.411592503147519 ], [ 103.971895756484329, 10.440165147195124 ], [ 103.991946379050134, 10.452469287123719 ], [ 104.00806080945145, 10.447837143122483 ], [ 104.027799921285549, 10.417179248454259 ], [ 104.059834130721796, 10.40460863597327 ], [ 104.079560117213333, 10.373526053642886 ], [ 104.080855477854698, 10.353142284695265 ], [ 104.073384878134945, 10.340543899631195 ], [ 104.08072913935311, 10.312630652506874 ], [ 104.075608736189224, 10.278121412590307 ], [ 104.081294109181883, 10.243123930085801 ], [ 104.070915981590957, 10.212424124225292 ], [ 104.05349472155315, 10.192912083134008 ], [ 104.044745237979214, 10.151599109146002 ], [ 104.033534881615921, 10.136848274466308 ], [ 104.036898759808992, 10.117718111324344 ], [ 104.024789662046771, 10.100865373799182 ], [ 104.025536073989201, 10.081419879194362 ], [ 104.047492961354394, 10.068728107055293 ], [ 104.036412362557257, 10.053154237241849 ], [ 104.039643995003047, 10.03951064492556 ], [ 104.033899274394287, 10.030380317073131 ], [ 104.050976104726288, 10.006232013098865 ], [ 104.041376478896808, 10.003280075388595 ], [ 104.039122105652268, 9.993047711269282 ], [ 104.023778465328718, 10.012523439962919 ], [ 104.010987190116538, 10.007046679215975 ], [ 104.026870046037232, 9.974101791391567 ], [ 104.025584426290067, 9.916378628387761 ], [ 104.016853139008944, 9.908642387773092 ], [ 104.003014468225032, 9.914859771746775 ], [ 103.986850550385469, 9.908985480065953 ], [ 103.979313085906185, 9.918478073530881 ], [ 104.01047231766529, 9.921293643884468 ], [ 104.018211355234484, 9.938582312275653 ], [ 104.009219064523549, 9.955762047996545 ], [ 104.013775334360275, 9.982801373256368 ], [ 104.006390295359765, 9.993691643326027 ], [ 104.007707304657401, 10.018830661020594 ], [ 104.000115280079569, 10.04259239960089 ], [ 103.988679048979733, 10.053475502969448 ], [ 103.969243681737382, 10.173457079491232 ], [ 103.948883530127858, 10.240333486875103 ], [ 103.912659012066626, 10.2891043949205 ], [ 103.890155138464564, 10.289774126223536 ], [ 103.874670675649824, 10.305837874132337 ], [ 103.860651686095864, 10.298706269453252 ], [ 103.844200550425739, 10.349907926795074 ], [ 103.832578761234117, 10.365537226257619 ], [ 103.838815494854131, 10.37914337586774 ] ] ] ] } }
]
}
