{
"type": "FeatureCollection",
"name": "2026-10-03",
"crs": { "type": "name", "properties": { "name": "urn:ogc:def:crs:OGC:1.3:CRS84" } },
"features": [
{ "type": "Feature", "properties": { }, "geometry": { "type": "MultiPolygon", "coordinates": [ [ [ [ 104.905953668037583, 10.531701980465176 ], [ 104.895811765875337, 10.518222538477346 ], [ 104.897198980391437, 10.489324004355282 ], [ 104.831909833915645, 10.172873715025306 ], [ 104.82356723370259, 10.170959465864662 ], [ 104.770722498406258, 10.219689270896239 ], [ 104.737008063924833, 10.227158674231342 ], [ 104.68503785824565, 10.196168737603109 ], [ 104.643039026203454, 10.136895229583676 ], [ 104.575834255269939, 10.153271677766224 ], [ 104.578796396270121, 10.15892034501513 ], [ 104.600213011130123, 10.151249569163767 ], [ 104.606786984741447, 10.163153822933442 ], [ 104.601219660535364, 10.173511014076881 ], [ 104.587309733527647, 10.175183256847063 ], [ 104.592883344709193, 10.19609137504594 ], [ 104.585511983259266, 10.210040538216159 ], [ 104.586516680877082, 10.229416707428399 ], [ 104.580021761097044, 10.24030467193019 ], [ 104.5686266164806, 10.240909161046639 ], [ 104.578753502213686, 10.249832188784547 ], [ 104.57709538937884, 10.265821956800998 ], [ 104.550129928474959, 10.289262283560976 ], [ 104.5302126644536, 10.277116040886856 ], [ 104.529138384071459, 10.31492667581781 ], [ 104.513988523828829, 10.343170152298585 ], [ 104.495133581695328, 10.361436490304815 ], [ 104.478851664287447, 10.361075033907104 ], [ 104.470212044545036, 10.371751004560627 ], [ 104.443723277558831, 10.367935737823307 ], [ 104.45158658557952, 10.403015463533917 ], [ 104.435429619905733, 10.429157592464374 ], [ 104.425045159292537, 10.43905600390797 ], [ 104.4262191, 10.4398842 ], [ 104.427915, 10.4408479 ], [ 104.4296966, 10.4416419 ], [ 104.4315471, 10.4422586 ], [ 104.4335448, 10.4428177 ], [ 104.4536404, 10.448441 ], [ 104.4553014, 10.4488303 ], [ 104.4569896, 10.4490766 ], [ 104.4586926, 10.4491781 ], [ 104.4651016, 10.4492862 ], [ 104.4695822, 10.4493617 ], [ 104.4722036, 10.4492336 ], [ 104.4799993, 10.4483373 ], [ 104.4819102, 10.4480232 ], [ 104.4837818, 10.4475258 ], [ 104.4855965, 10.4468497 ], [ 104.4873373, 10.4460013 ], [ 104.4889879, 10.4449884 ], [ 104.493557, 10.4418706 ], [ 104.4945322, 10.445367 ], [ 104.4950257, 10.4468962 ], [ 104.4956404, 10.4483807 ], [ 104.4973388, 10.4520574 ], [ 104.4981543, 10.4536349 ], [ 104.4991066, 10.4551339 ], [ 104.5001881, 10.4565425 ], [ 104.5044146, 10.4615685 ], [ 104.5055392, 10.462798 ], [ 104.5067623, 10.4639296 ], [ 104.5105648, 10.4671645 ], [ 104.5119902, 10.4682703 ], [ 104.5135094, 10.4692432 ], [ 104.5151102, 10.4700752 ], [ 104.5167794, 10.4707596 ], [ 104.5185034, 10.4712907 ], [ 104.5202683, 10.4716644 ], [ 104.5281092, 10.4729581 ], [ 104.5281708, 10.4729652 ], [ 104.5284777, 10.4747927 ], [ 104.5291112, 10.4769893 ], [ 104.5299911, 10.4790992 ], [ 104.5315875, 10.4823847 ], [ 104.5332206, 10.4857457 ], [ 104.5331963, 10.4884568 ], [ 104.5330446, 10.4935668 ], [ 104.5330801, 10.4954913 ], [ 104.5333005, 10.4974034 ], [ 104.5337037, 10.4992856 ], [ 104.534286, 10.5011202 ], [ 104.5350419, 10.5028904 ], [ 104.5359645, 10.5045797 ], [ 104.5393772, 10.510171 ], [ 104.5404511, 10.5117549 ], [ 104.5416715, 10.5132288 ], [ 104.5430272, 10.5145793 ], [ 104.5445057, 10.5157941 ], [ 104.5460936, 10.5168621 ], [ 104.5477762, 10.5177734 ], [ 104.5495383, 10.5185197 ], [ 104.5562428, 10.5209882 ], [ 104.5581305, 10.521579 ], [ 104.5599636, 10.5219589 ], [ 104.5603694, 10.5251333 ], [ 104.5606234, 10.5266524 ], [ 104.5609935, 10.5281475 ], [ 104.5625199, 10.5334316 ], [ 104.563278, 10.5355861 ], [ 104.5642768, 10.5376401 ], [ 104.5655033, 10.5395668 ], [ 104.5695434, 10.5451784 ], [ 104.5708623, 10.5468205 ], [ 104.5744348, 10.5508177 ], [ 104.5758588, 10.5522572 ], [ 104.5774211, 10.5535454 ], [ 104.5791056, 10.554669 ], [ 104.5808952, 10.5556164 ], [ 104.5870981, 10.5585086 ], [ 104.5880407, 10.5589482 ], [ 104.589717, 10.5596391 ], [ 104.591449, 10.5601754 ], [ 104.5932225, 10.5605526 ], [ 104.5950228, 10.5607676 ], [ 104.5968352, 10.5608188 ], [ 104.6049842, 10.5606791 ], [ 104.6068316, 10.5605617 ], [ 104.6086601, 10.5602741 ], [ 104.6104543, 10.5598186 ], [ 104.6156904, 10.5582281 ], [ 104.6173929, 10.5576258 ], [ 104.6190341, 10.5568723 ], [ 104.6206006, 10.5559739 ], [ 104.6247425, 10.5533431 ], [ 104.6296804, 10.5514662 ], [ 104.630664, 10.5515633 ], [ 104.6316731, 10.5528254 ], [ 104.6319469, 10.5531679 ], [ 104.6332413, 10.5546341 ], [ 104.6346728, 10.5559667 ], [ 104.6362276, 10.5571532 ], [ 104.6378909, 10.5581822 ], [ 104.6396467, 10.5590437 ], [ 104.6414782, 10.5597297 ], [ 104.643368, 10.5602335 ], [ 104.645298, 10.5605503 ], [ 104.6472497, 10.5606771 ], [ 104.658664, 10.5608592 ], [ 104.6599212, 10.5608397 ], [ 104.6926406, 10.5593032 ], [ 104.6943158, 10.5591537 ], [ 104.6959726, 10.558864 ], [ 104.6975991, 10.5584362 ], [ 104.72051, 10.551367 ], [ 104.7364246, 10.5464565 ], [ 104.738801, 10.5457229 ], [ 104.7395121, 10.5454888 ], [ 104.7551513, 10.5400124 ], [ 104.7582707, 10.5398233 ], [ 104.7761853, 10.5402769 ], [ 104.8588718, 10.5423497 ], [ 104.872259, 10.5539112 ], [ 104.8804265, 10.5609637 ], [ 104.8838273, 10.566021 ], [ 104.8996414, 10.5972203 ], [ 104.9024268, 10.6027147 ], [ 104.9031527, 10.604023 ], [ 104.9163239, 10.6257967 ], [ 104.9179775, 10.6281342 ], [ 104.928265223457032, 10.640667543002865 ], [ 104.905953668037583, 10.531701980465176 ] ] ], [ [ [ 103.838815494854131, 10.37914337586774 ], [ 103.926830463920012, 10.362838825720026 ], [ 103.942557149824225, 10.382867768039501 ], [ 103.947314867386922, 10.40229438753463 ], [ 103.966272823842246, 10.411592503147519 ], [ 103.977745129786385, 10.445325918169821 ], [ 103.991946379050134, 10.452469287123719 ], [ 104.00805798165041, 10.447837584939643 ], [ 104.027799921285549, 10.417179248454259 ], [ 104.059834130721796, 10.40460863597327 ], [ 104.077044692092926, 10.376693016898855 ], [ 104.080882357538243, 10.353362397705194 ], [ 104.073399001861503, 10.339658751048365 ], [ 104.080526021836945, 10.309758820107538 ], [ 104.075608755495153, 10.278121417654589 ], [ 104.081294108991926, 10.243123930077596 ], [ 104.070915981590957, 10.212424124225292 ], [ 104.056816903816852, 10.201233147877726 ], [ 104.044745032190789, 10.151597417364972 ], [ 104.033504496063657, 10.138023648948652 ], [ 104.021978345305442, 10.099701925259478 ], [ 104.022706620072086, 10.081906307880761 ], [ 104.04300628576074, 10.069254478730919 ], [ 104.031280899497048, 10.029786897096136 ], [ 104.051171935060665, 10.008876168939828 ], [ 104.039122105652268, 9.993047711269282 ], [ 104.019373335923987, 10.013395338250985 ], [ 104.010411502751808, 10.007032693789053 ], [ 104.008903187742106, 9.990524721497163 ], [ 104.000809776091216, 10.041007207587146 ], [ 103.988679048837199, 10.053475502893566 ], [ 103.958462221835021, 10.215130801387875 ], [ 103.943700511018889, 10.250327929915986 ], [ 103.911931047537593, 10.289583274076266 ], [ 103.890155138464564, 10.289774126223536 ], [ 103.874670675649824, 10.305837874132337 ], [ 103.860651686095864, 10.298706269453252 ], [ 103.844094274366526, 10.353457457897417 ], [ 103.832578761234117, 10.365537226257619 ], [ 103.838815494854131, 10.37914337586774 ] ] ] ] } }
]
}
