{
"type": "FeatureCollection",
"name": "2026-09-29",
"crs": { "type": "name", "properties": { "name": "urn:ogc:def:crs:OGC:1.3:CRS84" } },
"features": [
{ "type": "Feature", "properties": { }, "geometry": { "type": "MultiPolygon", "coordinates": [ [ [ [ 108.925434120724603, 10.552929513331582 ], [ 108.930816726326697, 10.574974992245323 ], [ 108.930993, 10.5749781 ], [ 108.9329157, 10.5748262 ], [ 108.935018, 10.5745576 ], [ 108.9357388, 10.5744887 ], [ 108.9360258, 10.5747871 ], [ 108.936331, 10.5750781 ], [ 108.9379919, 10.5764968 ], [ 108.938600066596578, 10.576910822142505 ], [ 108.950375162267264, 10.578534900255157 ], [ 108.97260338194026, 10.568733878878925 ], [ 108.9732504, 10.5679324 ], [ 108.9743408, 10.5662664 ], [ 108.9745235, 10.5659544 ], [ 108.9754431, 10.5641876 ], [ 108.9761825, 10.5623382 ], [ 108.9767342, 10.5604244 ], [ 108.9768073, 10.5601134 ], [ 108.9771531, 10.5582498 ], [ 108.9773209, 10.556362 ], [ 108.977309650541955, 10.554539683946315 ], [ 108.972092435188046, 10.564157822552264 ], [ 108.960867700839515, 10.561013570323551 ], [ 108.956515507122887, 10.540769140026594 ], [ 108.960904389969301, 10.527319751946296 ], [ 108.976554887329229, 10.527490678183693 ], [ 108.968924080857519, 10.517690765480289 ], [ 108.973415575070916, 10.507304338784328 ], [ 108.986511596006721, 10.511598896928607 ], [ 108.9865078, 10.5107913 ], [ 108.9863967, 10.5087782 ], [ 108.9860835, 10.5067865 ], [ 108.9859038, 10.5061022 ], [ 108.9863953, 10.5051988 ], [ 108.987159, 10.5033937 ], [ 108.9877424, 10.5015226 ], [ 108.9881398, 10.4996033 ], [ 108.9883474, 10.4976543 ], [ 108.988360178025545, 10.496079227529979 ], [ 108.974938797292879, 10.496489048148101 ], [ 108.968867094278949, 10.503533907880207 ], [ 108.945444027209078, 10.504154738327951 ], [ 108.929801341182468, 10.512466083153134 ], [ 108.922585331705633, 10.536863404150484 ], [ 108.910847230022313, 10.541552480221604 ], [ 108.925434120724603, 10.552929513331582 ] ] ], [ [ [ 108.881874554096797, 10.621335041786921 ], [ 108.883404367990565, 10.604575995113247 ], [ 108.8825185, 10.6039196 ], [ 108.8823012, 10.603779 ], [ 108.8802667, 10.6026255 ], [ 108.8800084, 10.6024984 ], [ 108.8778487, 10.6015887 ], [ 108.8776042, 10.6015022 ], [ 108.8750342, 10.6007819 ], [ 108.8747239, 10.6007169 ], [ 108.8720804, 10.6003451 ], [ 108.8717354, 10.6003199 ], [ 108.8690611, 10.6003039 ], [ 108.868802, 10.6003197 ], [ 108.8663226, 10.6006272 ], [ 108.8660392, 10.6006805 ], [ 108.8634565, 10.6013472 ], [ 108.8631284, 10.6014557 ], [ 108.8615629, 10.6020472 ], [ 108.8600523, 10.6027674 ], [ 108.8596967, 10.6029556 ], [ 108.8581737, 10.6038499 ], [ 108.8567354, 10.6048751 ], [ 108.8563965, 10.60514 ], [ 108.8551177, 10.6062292 ], [ 108.8539348, 10.6074218 ], [ 108.8537031, 10.6076759 ], [ 108.8526162, 10.6089742 ], [ 108.851643, 10.6103598 ], [ 108.8514424, 10.6106728 ], [ 108.8500647, 10.6132083 ], [ 108.8499232, 10.6135205 ], [ 108.8493169, 10.615016 ], [ 108.8488331, 10.6165554 ], [ 108.8487511, 10.6168586 ], [ 108.8483721, 10.6185466 ], [ 108.8481404, 10.620261 ], [ 108.848097, 10.6207362 ], [ 108.8480141, 10.6225628 ], [ 108.8480984, 10.6243893 ], [ 108.8481323, 10.6247574 ], [ 108.8483216, 10.6262203 ], [ 108.8486183, 10.6276652 ], [ 108.848686, 10.6279426 ], [ 108.8494476, 10.6303772 ], [ 108.8495399, 10.6306173 ], [ 108.8506829, 10.6330778 ], [ 108.8508482, 10.6333784 ], [ 108.8524111, 10.6357916 ], [ 108.8526181, 10.6360658 ], [ 108.8536929, 10.6373709 ], [ 108.854874, 10.6385805 ], [ 108.8551454, 10.6388359 ], [ 108.856351, 10.6398829 ], [ 108.8576363, 10.6408304 ], [ 108.8579691, 10.6410558 ], [ 108.8594914, 10.6419905 ], [ 108.861091, 10.6427856 ], [ 108.8614329, 10.6429369 ], [ 108.8632026, 10.6436216 ], [ 108.8650292, 10.6441355 ], [ 108.8655336, 10.6442519 ], [ 108.8672685, 10.6445724 ], [ 108.8690248, 10.6447388 ], [ 108.8693703, 10.6447562 ], [ 108.8722191, 10.6446964 ], [ 108.8724763, 10.6446726 ], [ 108.8748016, 10.6443186 ], [ 108.8750569, 10.6442642 ], [ 108.8770953, 10.6437159 ], [ 108.8773419, 10.6436354 ], [ 108.8796801, 10.6427056 ], [ 108.8799404, 10.6425826 ], [ 108.8824179, 10.6411884 ], [ 108.8827295, 10.6409826 ], [ 108.8839596, 10.6401016 ], [ 108.8851196, 10.6391301 ], [ 108.8853749, 10.6388993 ], [ 108.8864623, 10.6378385 ], [ 108.887466, 10.6366982 ], [ 108.8876651, 10.6364539 ], [ 108.8892286, 10.6342458 ], [ 108.8893927, 10.6339772 ], [ 108.8905789, 10.6317249 ], [ 108.8906841, 10.63149 ], [ 108.891574579652371, 10.629073335587123 ], [ 108.881874554096797, 10.621335041786921 ] ] ], [ [ [ 106.884194975057028, 11.57501725014273 ], [ 108.733704049641403, 11.212002418210544 ], [ 108.730665052811418, 11.183578319424459 ], [ 108.712254452771205, 11.173957835898451 ], [ 108.709184096396157, 11.163865600889975 ], [ 108.696959192914804, 11.182496653560129 ], [ 108.662056409897943, 11.194295617172509 ], [ 108.633071820467677, 11.18875399438234 ], [ 108.619062283470385, 11.175272731275786 ], [ 108.607017723632609, 11.182908726124777 ], [ 108.587028070744608, 11.182472351569695 ], [ 108.565238028277165, 11.163523784427731 ], [ 108.526902990665604, 11.153961579938104 ], [ 108.496967853197219, 11.115388728833365 ], [ 108.47559040091673, 11.047448218932324 ], [ 108.46382049722331, 11.040615553977917 ], [ 108.430604284258962, 11.044683469525243 ], [ 108.41520639592612, 11.025070890515691 ], [ 108.403496554787694, 11.032670653992925 ], [ 108.37296283953431, 11.030516850398351 ], [ 108.350019000765542, 11.005272326903283 ], [ 108.338665036955334, 10.953093087186295 ], [ 108.314827522287842, 10.958931169450983 ], [ 108.299575105368476, 10.941668435598833 ], [ 108.294423363990688, 10.92410489954521 ], [ 108.30105693791873, 10.909755377139255 ], [ 108.279625601451215, 10.915961615211822 ], [ 108.276361623644732, 10.941825840685588 ], [ 108.230614941704701, 10.955134306430422 ], [ 108.190479950959656, 10.935471211807926 ], [ 108.159413702588324, 10.928665315608637 ], [ 108.132498898817275, 10.932064699894541 ], [ 108.082465223461384, 10.909357535775365 ], [ 108.036467348592268, 10.827816246370855 ], [ 108.015545873161045, 10.733667653745142 ], [ 108.007560880713996, 10.728967761620119 ], [ 107.993672234058792, 10.690399177599119 ], [ 107.982951605947036, 10.703721897639671 ], [ 107.962697885024227, 10.701175868139666 ], [ 107.931928265116881, 10.717206651597158 ], [ 107.899031109618775, 10.722276227943405 ], [ 107.827375641633296, 10.703035001446175 ], [ 107.772605634033511, 10.645808228009388 ], [ 107.729935483927747, 10.631908068077969 ], [ 107.701971712804394, 10.63200225201571 ], [ 107.564538651085229, 10.564527114280413 ], [ 107.510670698023119, 10.499347216262054 ], [ 107.472498702620456, 10.498378882311867 ], [ 107.456949208846041, 10.484041413028775 ], [ 107.413684558643737, 10.489560547885247 ], [ 107.403239993063579, 10.46870238591513 ], [ 107.367791059165995, 10.467296434287793 ], [ 107.327041532958177, 10.447898426628521 ], [ 106.689681459524451, 10.572209549731005 ], [ 106.884194975057028, 11.57501725014273 ] ] ] ] } }
]
}
