{
"type": "FeatureCollection",
"name": "2026-09-17",
"crs": { "type": "name", "properties": { "name": "urn:ogc:def:crs:OGC:1.3:CRS84" } },
"features": [
{ "type": "Feature", "properties": { }, "geometry": { "type": "MultiPolygon", "coordinates": [ [ [ [ 108.926364598735304, 10.536003764824358 ], [ 108.919790977371932, 10.542943533027099 ], [ 108.908330743232881, 10.540666242980791 ], [ 108.90994728438406, 10.559027933589128 ], [ 108.92138745374568, 10.562965471085915 ], [ 108.933743476824077, 10.554783343023816 ], [ 108.959003771473263, 10.553992470341196 ], [ 108.9570498038441, 10.53211807063599 ], [ 108.968912398019668, 10.517685785785686 ], [ 108.967702883100714, 10.506330061419948 ], [ 108.947851576555038, 10.500873511912097 ], [ 108.915882542520336, 10.52436994069777 ], [ 108.926364598735304, 10.536003764824358 ] ] ], [ [ [ 106.884194975231253, 11.575017249835241 ], [ 108.733704049806533, 11.212002418431895 ], [ 108.730665052811418, 11.183578319424459 ], [ 108.712254452771205, 11.173957835898451 ], [ 108.709184096396157, 11.163865600889975 ], [ 108.700952263870377, 11.166101335053909 ], [ 108.696959192914804, 11.182496653560129 ], [ 108.662056409897943, 11.194295617172509 ], [ 108.633071820467677, 11.18875399438234 ], [ 108.619062283470385, 11.175272731275786 ], [ 108.607017723632609, 11.182908726124777 ], [ 108.587028070744608, 11.182472351569695 ], [ 108.565238028277165, 11.163523784427731 ], [ 108.527626959045307, 11.154459439853406 ], [ 108.496967853197219, 11.115388728833365 ], [ 108.47559040091673, 11.047448218932324 ], [ 108.46382049722331, 11.040615553977917 ], [ 108.430604284258962, 11.044683469525243 ], [ 108.41520639592612, 11.025070890515691 ], [ 108.403496554787694, 11.032670653992925 ], [ 108.37296283953431, 11.030516850398351 ], [ 108.350019000765542, 11.005272326903283 ], [ 108.338371836767067, 10.950251512647055 ], [ 108.321798538615241, 10.958697419030324 ], [ 108.309365752077568, 10.955836152938112 ], [ 108.294953063267258, 10.929019335530029 ], [ 108.29591360471008, 10.913443114227769 ], [ 108.279625601451215, 10.915961615211822 ], [ 108.276361623644732, 10.941825840685588 ], [ 108.230614941704701, 10.955134306430422 ], [ 108.190477613765225, 10.935471458194463 ], [ 108.12955104900513, 10.929588420901263 ], [ 108.082465223461384, 10.909357535775365 ], [ 108.036467348592268, 10.827816246370855 ], [ 108.015545873161045, 10.733667653745142 ], [ 108.007560880713996, 10.728967761620119 ], [ 107.993672234058792, 10.690399177599119 ], [ 107.982951605947036, 10.703721897639671 ], [ 107.962697885024227, 10.701175868139666 ], [ 107.931928265116881, 10.717206651597158 ], [ 107.899031109618775, 10.722276227943405 ], [ 107.827375641633296, 10.703035001446175 ], [ 107.772605634033511, 10.645808228009388 ], [ 107.690537853027408, 10.627953261905301 ], [ 107.66144755251905, 10.607342466886257 ], [ 107.620406442847425, 10.594394119261043 ], [ 107.564538651085229, 10.564527114280413 ], [ 107.510670698023119, 10.499347216262054 ], [ 107.472498702620456, 10.498378882311867 ], [ 107.456949215846322, 10.484041411473216 ], [ 107.413346548509381, 10.489342601336848 ], [ 107.405951211830214, 10.468309484733252 ], [ 107.394290111669704, 10.461322528478604 ], [ 107.380736056795797, 10.468870611748969 ], [ 107.327041532958177, 10.447898426628521 ], [ 107.292014229389551, 10.452927280840502 ], [ 106.975926943610631, 10.515161018111131 ], [ 106.941250206001129, 10.528640256501346 ], [ 106.919408075770818, 10.525950325025905 ], [ 106.689681459524451, 10.572209549731005 ], [ 106.884194975231253, 11.575017249835241 ] ] ] ] } }
]
}
