{
"type": "FeatureCollection",
"name": "2026-09-03",
"crs": { "type": "name", "properties": { "name": "urn:ogc:def:crs:OGC:1.3:CRS84" } },
"features": [
{ "type": "Feature", "properties": { }, "geometry": { "type": "MultiPolygon", "coordinates": [ [ [ [ 104.242485186357072, 19.156661251071942 ], [ 104.25253611755798, 19.1720676375007 ], [ 104.268115132382874, 19.243566559072018 ], [ 104.948770902120685, 19.122777120776831 ], [ 104.992415480007651, 19.121093832506102 ], [ 105.003085256992776, 19.174286759915617 ], [ 105.635450663284374, 19.05988836262939 ], [ 105.623523460078957, 19.029526780210009 ], [ 105.618460380779538, 18.980698796605555 ], [ 105.637689742839726, 18.899420001493592 ], [ 105.686929793019829, 18.876825677630482 ], [ 105.710097022662225, 18.852874743308259 ], [ 105.735004603398238, 18.85920268726672 ], [ 105.718192776687786, 18.844235478189226 ], [ 105.725005478618471, 18.807402934618608 ], [ 105.737908800458385, 18.793772920631003 ], [ 105.752216134135182, 18.799123961889727 ], [ 105.747949869681051, 18.78156708945847 ], [ 105.779884765784942, 18.755097843378678 ], [ 105.79834958858028, 18.671672121565756 ], [ 105.823970625266028, 18.603793802602461 ], [ 105.861466784059118, 18.537502724506759 ], [ 105.917465712156925, 18.464024186429306 ], [ 105.927429029731371, 18.460402994648419 ], [ 105.94343893176621, 18.470773680723006 ], [ 105.943510956438544, 18.454628039951917 ], [ 105.984316199353003, 18.395550891440557 ], [ 106.086951606165854, 18.285480088605436 ], [ 106.120934630027989, 18.26736804144636 ], [ 106.158961264316758, 18.269136332529012 ], [ 106.224390665424721, 18.223679685466127 ], [ 106.252645467367969, 18.216308473764474 ], [ 106.295369889861206, 18.166010570523373 ], [ 106.359064779580009, 18.110003617578197 ], [ 106.396724646711121, 18.099161705551136 ], [ 106.415132554176395, 18.125267861581651 ], [ 106.435260336437551, 18.122580236149339 ], [ 106.423685683806724, 18.089365395846436 ], [ 106.440987013396906, 18.060993288638585 ], [ 106.454636390433862, 18.059177194584624 ], [ 106.445253896890165, 17.999637784395663 ], [ 106.430293444453284, 17.971182423638403 ], [ 106.426747688921949, 17.909451428625729 ], [ 106.354987874650902, 17.565760444944171 ], [ 106.328840209385902, 17.509270463576971 ], [ 106.323273351389204, 17.430992139105445 ], [ 106.312542964612803, 17.410093645923865 ], [ 106.304596587440145, 17.36397909293818 ], [ 106.286743811937455, 17.331580329890418 ], [ 106.274433070371799, 17.240690738918527 ], [ 106.2730463, 17.2396287 ], [ 106.2712593, 17.2384075 ], [ 106.2693508, 17.2373867 ], [ 106.2673431, 17.236578 ], [ 106.2652598, 17.235991 ], [ 106.2613226, 17.2351085 ], [ 106.2608101, 17.2350231 ], [ 106.2599745, 17.2344824 ], [ 106.2583164, 17.2336176 ], [ 106.2565847, 17.2329115 ], [ 106.2547947, 17.2323702 ], [ 106.252962, 17.2319984 ], [ 106.2472806, 17.2311202 ], [ 106.2454726, 17.2309244 ], [ 106.2443715, 17.2308556 ], [ 106.2442201, 17.2308467 ], [ 106.239265, 17.2305748 ], [ 106.2372107, 17.2305678 ], [ 106.2336008, 17.230741 ], [ 106.2334894, 17.2307466 ], [ 106.2334838, 17.2307469 ], [ 106.2316946, 17.2309237 ], [ 106.2299286, 17.2312604 ], [ 106.2281999, 17.2317544 ], [ 106.2265225, 17.2324016 ], [ 106.2242491, 17.2333984 ], [ 106.2225133, 17.2342621 ], [ 106.2208693, 17.2352899 ], [ 106.2193325, 17.2364719 ], [ 106.2129531, 17.2418907 ], [ 106.2037762, 17.2489976 ], [ 106.2028319, 17.2497289 ], [ 106.1990706, 17.2522163 ], [ 106.1975491, 17.2533289 ], [ 106.1963359, 17.2543071 ], [ 106.1960953, 17.2543835 ], [ 106.1942847, 17.2550566 ], [ 106.1905207, 17.2566668 ], [ 106.1888893, 17.2574539 ], [ 106.1873359, 17.2583853 ], [ 106.1859026, 17.2593355 ], [ 106.1797408, 17.2634204 ], [ 106.1778763, 17.2648194 ], [ 106.1754908, 17.266837 ], [ 106.1738189, 17.2684252 ], [ 106.172341, 17.2701952 ], [ 106.169959, 17.2734075 ], [ 106.166618, 17.2770043 ], [ 106.1622204, 17.2804648 ], [ 106.1596052, 17.2820713 ], [ 106.1591446, 17.2823629 ], [ 106.1519359, 17.2870662 ], [ 106.149359, 17.2883936 ], [ 106.1482715, 17.2889973 ], [ 106.1446868, 17.2911355 ], [ 106.1413059, 17.2930186 ], [ 106.1396358, 17.2936471 ], [ 106.1378074, 17.2944413 ], [ 106.1360672, 17.2954135 ], [ 106.1338734, 17.2967869 ], [ 106.1325144, 17.2977177 ], [ 106.1312366, 17.2987572 ], [ 106.1295157, 17.3002791 ], [ 106.1279732, 17.3017999 ], [ 106.1266042, 17.3034785 ], [ 106.1254247, 17.3052954 ], [ 106.1244487, 17.3072292 ], [ 106.1240997, 17.3080251 ], [ 106.123378, 17.3099288 ], [ 106.1228537, 17.3118961 ], [ 106.122532, 17.3139064 ], [ 106.1221739, 17.3172177 ], [ 106.1220645, 17.3188563 ], [ 106.1220663, 17.3189743 ], [ 106.121867, 17.3191596 ], [ 106.1166787, 17.3221678 ], [ 106.1151112, 17.323177 ], [ 106.1136444, 17.3243279 ], [ 106.1118204, 17.3259018 ], [ 106.1113421, 17.3263146 ], [ 106.1079285, 17.3289046 ], [ 106.1078362, 17.328975 ], [ 106.1073517, 17.3293471 ], [ 106.106227, 17.3297491 ], [ 106.1059559, 17.3298483 ], [ 106.1039427, 17.3306009 ], [ 106.1032884, 17.3308455 ], [ 106.1016815, 17.3315275 ], [ 106.1001402, 17.332347 ], [ 106.0986763, 17.3332977 ], [ 106.097602, 17.3340641 ], [ 106.0924937, 17.3376136 ], [ 106.0910733, 17.3386979 ], [ 106.0904008, 17.3392604 ], [ 106.090217, 17.3393135 ], [ 106.0884051, 17.3400342 ], [ 106.0873596, 17.3405103 ], [ 106.0825308, 17.3427095 ], [ 106.0807332, 17.3436408 ], [ 106.0790389, 17.344749 ], [ 106.0774654, 17.3460229 ], [ 106.0744508, 17.3487271 ], [ 106.0728841, 17.3502978 ], [ 106.0638353, 17.3604368 ], [ 106.0477211, 17.3785007 ], [ 106.0182772, 17.4114957 ], [ 105.947658, 17.4905672 ], [ 105.9468656, 17.4914521 ], [ 105.8687536, 17.5786132 ], [ 105.8482606, 17.6014623 ], [ 105.8467838, 17.6016781 ], [ 105.8447812, 17.6021863 ], [ 105.8428416, 17.6028983 ], [ 105.8409858, 17.6038067 ], [ 105.8392337, 17.6049017 ], [ 105.8376039, 17.6061716 ], [ 105.8361138, 17.6076028 ], [ 105.835387, 17.6084619 ], [ 105.8315628, 17.6096122 ], [ 105.8295451, 17.6103392 ], [ 105.8276168, 17.6112781 ], [ 105.8244499, 17.6130361 ], [ 105.822691, 17.6141355 ], [ 105.8210554, 17.6154112 ], [ 105.8195607, 17.6168495 ], [ 105.8169657, 17.6196197 ], [ 105.8156708, 17.6211489 ], [ 105.8145353, 17.6228001 ], [ 105.8135708, 17.6245565 ], [ 105.813247, 17.6252233 ], [ 105.8128079, 17.6252588 ], [ 105.8109733, 17.6255807 ], [ 105.8091766, 17.626072 ], [ 105.8074333, 17.6267282 ], [ 105.8059104, 17.627384 ], [ 105.8040157, 17.6283216 ], [ 105.8022304, 17.629454 ], [ 105.8005747, 17.6307684 ], [ 105.7965716, 17.634307 ], [ 105.7954235, 17.6354062 ], [ 105.7943664, 17.636593 ], [ 105.7917376, 17.6397916 ], [ 105.7916009, 17.6398328 ], [ 105.7898249, 17.6405605 ], [ 105.7888872, 17.6409984 ], [ 105.7872904, 17.6418337 ], [ 105.7857753, 17.6428093 ], [ 105.7843542, 17.6439174 ], [ 105.7830385, 17.6451488 ], [ 105.7817412, 17.6464777 ], [ 105.7802629, 17.6481731 ], [ 105.7789844, 17.6500238 ], [ 105.7779217, 17.6520064 ], [ 105.7778875, 17.6520799 ], [ 105.7764013, 17.6524533 ], [ 105.7746517, 17.6530701 ], [ 105.7729667, 17.6538464 ], [ 105.7728836, 17.6538945 ], [ 105.7718694, 17.6529735 ], [ 105.7702621, 17.6516596 ], [ 105.7685274, 17.6505193 ], [ 105.7666837, 17.649565 ], [ 105.7647511, 17.648807 ], [ 105.7627503, 17.6482534 ], [ 105.7607029, 17.6479101 ], [ 105.758631, 17.647781 ], [ 105.7562992, 17.6477569 ], [ 105.7542626, 17.6478397 ], [ 105.752245, 17.6481294 ], [ 105.7491634, 17.6487335 ], [ 105.7462848, 17.6492978 ], [ 105.7443333, 17.6497834 ], [ 105.7424403, 17.6504626 ], [ 105.7406251, 17.6513284 ], [ 105.7389061, 17.6523722 ], [ 105.7373006, 17.6535833 ], [ 105.7358248, 17.6549495 ], [ 105.7352791, 17.6555082 ], [ 105.7345263, 17.656279 ], [ 105.7331304, 17.6578685 ], [ 105.7319101, 17.6595965 ], [ 105.7308792, 17.6614438 ], [ 105.7300492, 17.6633896 ], [ 105.7294294, 17.6654122 ], [ 105.7290266, 17.6674889 ], [ 105.72725, 17.6802209 ], [ 105.7272326, 17.6803485 ], [ 105.7243281, 17.7021907 ], [ 105.7239013, 17.7023242 ], [ 105.7219446, 17.7031742 ], [ 105.7200895, 17.7042279 ], [ 105.7184692, 17.7052663 ], [ 105.717858, 17.7056579 ], [ 105.7163853, 17.7066981 ], [ 105.7150123, 17.7078668 ], [ 105.71375, 17.7091543 ], [ 105.7126089, 17.7105502 ], [ 105.7115981, 17.7120433 ], [ 105.7107259, 17.7136213 ], [ 105.7092932, 17.7165142 ], [ 105.7084885, 17.7183694 ], [ 105.7078753, 17.7202963 ], [ 105.7074598, 17.7222752 ], [ 105.7065795, 17.7278581 ], [ 105.7063897, 17.7295009 ], [ 105.7063362, 17.7311538 ], [ 105.7063841, 17.7364586 ], [ 105.7059051, 17.7368974 ], [ 105.7055398, 17.737309 ], [ 105.7050023, 17.7373919 ], [ 105.7028965, 17.7379567 ], [ 105.7008647, 17.7387474 ], [ 105.6965256, 17.7407146 ], [ 105.6949103, 17.741537 ], [ 105.6916223, 17.7434035 ], [ 105.6897307, 17.744623 ], [ 105.6879881, 17.7460472 ], [ 105.6829179, 17.7506906 ], [ 105.6817809, 17.7518188 ], [ 105.6807379, 17.7530344 ], [ 105.6778905, 17.7566351 ], [ 105.6775612, 17.7570515 ], [ 105.6760017, 17.7590237 ], [ 105.6748733, 17.7606025 ], [ 105.6739032, 17.7622832 ], [ 105.6731005, 17.7640501 ], [ 105.6695138, 17.773086 ], [ 105.6694971, 17.7731207 ], [ 105.6662079, 17.7752238 ], [ 105.6648536, 17.7761707 ], [ 105.6635821, 17.7772263 ], [ 105.6624021, 17.7783832 ], [ 105.6598028, 17.7811513 ], [ 105.6584859, 17.7827053 ], [ 105.6573338, 17.7843852 ], [ 105.6563586, 17.7861736 ], [ 105.6555704, 17.7880519 ], [ 105.6549773, 17.7900007 ], [ 105.6543651, 17.7924546 ], [ 105.6539604, 17.7945451 ], [ 105.6537802, 17.7966667 ], [ 105.6538266, 17.7987955 ], [ 105.6540286, 17.8014817 ], [ 105.6542832, 17.8034949 ], [ 105.6547405, 17.8054719 ], [ 105.6553958, 17.8073924 ], [ 105.6614246, 17.8225057 ], [ 105.6602523, 17.8237175 ], [ 105.6590333, 17.8252537 ], [ 105.6579706, 17.826902 ], [ 105.6570744, 17.8286465 ], [ 105.6551577, 17.8328757 ], [ 105.6544676, 17.8346091 ], [ 105.6543066, 17.8351576 ], [ 105.6526534, 17.8351316 ], [ 105.650604, 17.8353108 ], [ 105.6485839, 17.8356996 ], [ 105.6455404, 17.8364495 ], [ 105.643642, 17.8370184 ], [ 105.6418092, 17.8377723 ], [ 105.6400601, 17.838704 ], [ 105.6399769, 17.8387538 ], [ 105.6395783, 17.8387023 ], [ 105.6375285, 17.8386493 ], [ 105.635484, 17.8388064 ], [ 105.6334664, 17.8391721 ], [ 105.6314968, 17.8397424 ], [ 105.629596, 17.8405113 ], [ 105.6286571, 17.8409484 ], [ 105.6268353, 17.8419138 ], [ 105.6251225, 17.8430616 ], [ 105.623537, 17.8443797 ], [ 105.6220956, 17.845854 ], [ 105.6208137, 17.8474688 ], [ 105.6203389, 17.8481347 ], [ 105.6191338, 17.8500444 ], [ 105.6181516, 17.8520779 ], [ 105.6175508, 17.8535252 ], [ 105.6170082, 17.8549917 ], [ 105.6169865, 17.8550582 ], [ 105.6101076, 17.8608619 ], [ 105.6090334, 17.8618687 ], [ 105.607764, 17.8622477 ], [ 105.6057922, 17.8629508 ], [ 105.6039048, 17.8638561 ], [ 105.6021222, 17.8649538 ], [ 105.6004642, 17.8662318 ], [ 105.5989489, 17.8676761 ], [ 105.5975928, 17.8692709 ], [ 105.5946278, 17.8731524 ], [ 105.5935285, 17.8747459 ], [ 105.5925884, 17.8764382 ], [ 105.5914016, 17.8788417 ], [ 105.5892382, 17.883223 ], [ 105.5883044, 17.8854412 ], [ 105.5876438, 17.8877555 ], [ 105.586903, 17.8911022 ], [ 105.5865822, 17.8929646 ], [ 105.5864386, 17.894849 ], [ 105.5864735, 17.8967385 ], [ 105.5866866, 17.8986163 ], [ 105.5870126, 17.9006329 ], [ 105.5873866, 17.9024226 ], [ 105.5879224, 17.9041706 ], [ 105.5886156, 17.9058623 ], [ 105.5894604, 17.9074837 ], [ 105.5903753, 17.9090594 ], [ 105.5914513, 17.910718 ], [ 105.5926858, 17.9122622 ], [ 105.5941831, 17.9139562 ], [ 105.59551, 17.9153206 ], [ 105.5969605, 17.9165527 ], [ 105.5969918, 17.9165768 ], [ 105.5972219, 17.9176317 ], [ 105.5979154, 17.9196976 ], [ 105.5993887, 17.9234042 ], [ 105.6000506, 17.9248903 ], [ 105.6008311, 17.9263178 ], [ 105.6016854, 17.9277396 ], [ 105.6016273, 17.9325918 ], [ 105.6016279, 17.9331137 ], [ 105.6017543, 17.9420614 ], [ 105.6018565, 17.9438174 ], [ 105.6021125, 17.9455576 ], [ 105.6025205, 17.9472686 ], [ 105.6029688, 17.9488391 ], [ 105.6035991, 17.9506968 ], [ 105.6044084, 17.9524837 ], [ 105.6053888, 17.9541828 ], [ 105.606531, 17.9557777 ], [ 105.6069448, 17.9562994 ], [ 105.6070495, 17.9568099 ], [ 105.6075191, 17.9586504 ], [ 105.6081611, 17.960438 ], [ 105.6089699, 17.9621567 ], [ 105.609938, 17.9637909 ], [ 105.6110568, 17.9653259 ], [ 105.6123161, 17.9667478 ], [ 105.6147387, 17.9692345 ], [ 105.6163965, 17.9707549 ], [ 105.6182146, 17.9720795 ], [ 105.6211026, 17.9739445 ], [ 105.6210852, 17.9754134 ], [ 105.617283, 17.9775812 ], [ 105.615402, 17.9787981 ], [ 105.6136689, 17.9802178 ], [ 105.6085381, 17.9849246 ], [ 105.6076461, 17.9857429 ], [ 105.6070265, 17.9863844 ], [ 105.6064616, 17.9860371 ], [ 105.6046962, 17.9851775 ], [ 105.602855, 17.9844952 ], [ 105.6009557, 17.9839967 ], [ 105.5990167, 17.9836869 ], [ 105.5970567, 17.9835686 ], [ 105.5957721, 17.9835543 ], [ 105.5938277, 17.9836274 ], [ 105.5918996, 17.983889 ], [ 105.590006, 17.9843367 ], [ 105.5881649, 17.9849663 ], [ 105.5874983, 17.9852312 ], [ 105.5865225, 17.9856188 ], [ 105.5848791, 17.9863591 ], [ 105.583309, 17.9872443 ], [ 105.5818249, 17.9882673 ], [ 105.580439, 17.9894197 ], [ 105.5791625, 17.9906922 ], [ 105.5777421, 17.9922419 ], [ 105.5772799, 17.9927989 ], [ 105.5759024, 17.9931199 ], [ 105.5739771, 17.9937809 ], [ 105.572129, 17.9946342 ], [ 105.5703772, 17.9956709 ], [ 105.5687399, 17.9968803 ], [ 105.567234, 17.9982499 ], [ 105.5656966, 17.9997982 ], [ 105.5643246, 18.00133 ], [ 105.5631171, 18.0029946 ], [ 105.5620869, 18.0047744 ], [ 105.561245, 18.0066505 ], [ 105.5606001, 18.0086032 ], [ 105.5602334, 18.009941 ], [ 105.5598289, 18.0117375 ], [ 105.5595913, 18.0135637 ], [ 105.5595227, 18.015404 ], [ 105.5596236, 18.0172427 ], [ 105.5597927, 18.0183849 ], [ 105.5594192, 18.0193614 ], [ 105.558862, 18.0210362 ], [ 105.5584546, 18.0227535 ], [ 105.5582003, 18.0245001 ], [ 105.5581009, 18.0262623 ], [ 105.5580818, 18.0278276 ], [ 105.5581529, 18.0297736 ], [ 105.5584128, 18.0317035 ], [ 105.5588593, 18.033599 ], [ 105.5594879, 18.0354421 ], [ 105.5619813, 18.0417318 ], [ 105.5622742, 18.042394 ], [ 105.5617503, 18.0437028 ], [ 105.5612605, 18.0453027 ], [ 105.561072, 18.0461727 ], [ 105.5610699, 18.0461739 ], [ 105.5595414, 18.0472843 ], [ 105.5581246, 18.0485339 ], [ 105.5568319, 18.0499116 ], [ 105.5556751, 18.0514052 ], [ 105.5546643, 18.0530013 ], [ 105.5535896, 18.0548901 ], [ 105.5527572, 18.0565227 ], [ 105.5520778, 18.0582247 ], [ 105.551557, 18.0599817 ], [ 105.5512541, 18.0615031 ], [ 105.5492206, 18.0615126 ], [ 105.5478891, 18.0615188 ], [ 105.5460591, 18.0616113 ], [ 105.5388057, 18.062312 ], [ 105.5370402, 18.0625624 ], [ 105.535304, 18.0629691 ], [ 105.5336109, 18.0635288 ], [ 105.5319771, 18.064151 ], [ 105.5316133, 18.0642896 ], [ 105.5298597, 18.0650556 ], [ 105.5281873, 18.0659857 ], [ 105.5266114, 18.0670713 ], [ 105.5251465, 18.0683027 ], [ 105.523806, 18.0696683 ], [ 105.5226021, 18.0711559 ], [ 105.521546, 18.0727517 ], [ 105.5206472, 18.0744411 ], [ 105.5198071, 18.0762206 ], [ 105.5190979, 18.0779215 ], [ 105.5185484, 18.0796805 ], [ 105.5181631, 18.0814826 ], [ 105.5179453, 18.0833125 ], [ 105.5172405, 18.0930326 ], [ 105.5171974, 18.0950893 ], [ 105.5174151, 18.1022191 ], [ 105.5170662, 18.1024203 ], [ 105.5166904, 18.102664 ], [ 105.5153102, 18.1021524 ], [ 105.5134386, 18.1016582 ], [ 105.511528, 18.1013472 ], [ 105.5095962, 18.1012224 ], [ 105.5076614, 18.1012849 ], [ 105.5057418, 18.1015342 ], [ 105.5045704, 18.1017444 ], [ 105.5026358, 18.1021917 ], [ 105.5007552, 18.1028286 ], [ 105.498947, 18.1036488 ], [ 105.497229, 18.1046443 ], [ 105.4956182, 18.1058052 ], [ 105.4941304, 18.1071201 ], [ 105.4915272, 18.1096619 ], [ 105.489917, 18.1114346 ], [ 105.4885302, 18.1133869 ], [ 105.4881838, 18.1139423 ], [ 105.4881645, 18.1139731 ], [ 105.4881534, 18.1139909 ], [ 105.4863839, 18.1168273 ], [ 105.4853634, 18.1186733 ], [ 105.4845429, 18.1206166 ], [ 105.4839317, 18.1226354 ], [ 105.4828557, 18.1270091 ], [ 105.4824896, 18.1288762 ], [ 105.4823025, 18.1307696 ], [ 105.4819509, 18.1376726 ], [ 105.4819383, 18.1394201 ], [ 105.4820784, 18.141162 ], [ 105.4823699, 18.142885 ], [ 105.4828107, 18.144576 ], [ 105.4841583, 18.1489522 ], [ 105.4848121, 18.150761 ], [ 105.4856365, 18.1524986 ], [ 105.4866241, 18.1541489 ], [ 105.4883768, 18.1567818 ], [ 105.4883563, 18.1569009 ], [ 105.4870727, 18.1569093 ], [ 105.4852542, 18.1570879 ], [ 105.4834596, 18.1574318 ], [ 105.4817038, 18.1579381 ], [ 105.4800016, 18.1586025 ], [ 105.4783671, 18.1594194 ], [ 105.478167, 18.1595312 ], [ 105.4771907, 18.1600762 ], [ 105.4755692, 18.1610858 ], [ 105.4740514, 18.1622456 ], [ 105.4726512, 18.1635448 ], [ 105.4713813, 18.1649717 ], [ 105.4702534, 18.1665133 ], [ 105.4692776, 18.1681554 ], [ 105.468463, 18.1698831 ], [ 105.4668953, 18.1736664 ], [ 105.466206, 18.1756066 ], [ 105.4657199, 18.1776073 ], [ 105.4654421, 18.1796475 ], [ 105.4654185, 18.1799277 ], [ 105.4646755, 18.1801481 ], [ 105.4637852, 18.1804122 ], [ 105.4620557, 18.1810127 ], [ 105.4603884, 18.1817687 ], [ 105.4596687, 18.1821357 ], [ 105.4593742, 18.1817769 ], [ 105.4581667, 18.1805524 ], [ 105.4576441, 18.1791784 ], [ 105.4562284, 18.1752789 ], [ 105.4555232, 18.1735836 ], [ 105.4546656, 18.1719602 ], [ 105.4536628, 18.1704222 ], [ 105.4525231, 18.1689827 ], [ 105.4512562, 18.1676537 ], [ 105.4498727, 18.1664466 ], [ 105.4483844, 18.1653714 ], [ 105.4466454, 18.1642328 ], [ 105.4451629, 18.1633511 ], [ 105.44361, 18.1626003 ], [ 105.4419982, 18.1619862 ], [ 105.4403394, 18.1615133 ], [ 105.4359106, 18.1604547 ], [ 105.4338392, 18.1600736 ], [ 105.4317766, 18.1599153 ], [ 105.4315951, 18.1589969 ], [ 105.4304846, 18.1545112 ], [ 105.4298803, 18.1525205 ], [ 105.4290725, 18.1506033 ], [ 105.4278204, 18.1480167 ], [ 105.4269161, 18.1463542 ], [ 105.4258588, 18.1447847 ], [ 105.4246579, 18.1433221 ], [ 105.4233242, 18.1419795 ], [ 105.4218695, 18.1407691 ], [ 105.4203647, 18.139633 ], [ 105.4186118, 18.1384497 ], [ 105.4167437, 18.1374581 ], [ 105.4147815, 18.1366693 ], [ 105.4127468, 18.1360922 ], [ 105.4106627, 18.1357331 ], [ 105.4085522, 18.1355961 ], [ 105.4067991, 18.1355752 ], [ 105.4048212, 18.1356496 ], [ 105.4028603, 18.1359191 ], [ 105.4009357, 18.1363811 ], [ 105.3990661, 18.1370311 ], [ 105.3985255, 18.1372496 ], [ 105.3971832, 18.1377924 ], [ 105.3953317, 18.1386535 ], [ 105.3935776, 18.1396989 ], [ 105.3932102, 18.1399722 ], [ 105.3917079, 18.1398675 ], [ 105.3897253, 18.1399262 ], [ 105.3877582, 18.140181 ], [ 105.3858261, 18.1406295 ], [ 105.3839479, 18.141267 ], [ 105.3823028, 18.1419181 ], [ 105.3808164, 18.1425989 ], [ 105.3800838, 18.14232 ], [ 105.3782358, 18.1418126 ], [ 105.3763477, 18.1414845 ], [ 105.3743637, 18.1412369 ], [ 105.3722671, 18.1410865 ], [ 105.3701663, 18.1411571 ], [ 105.3680845, 18.1414477 ], [ 105.3621311, 18.1426006 ], [ 105.3620991, 18.1426068 ], [ 105.3600107, 18.1431302 ], [ 105.3579907, 18.143875 ], [ 105.3560625, 18.1448326 ], [ 105.3533534, 18.1463651 ], [ 105.3514726, 18.1475725 ], [ 105.3497384, 18.1489822 ], [ 105.3481722, 18.1505766 ], [ 105.3479482, 18.1508317 ], [ 105.3460334, 18.1530131 ], [ 105.3447866, 18.1545862 ], [ 105.3437037, 18.1562764 ], [ 105.3427957, 18.1580666 ], [ 105.3406658, 18.1628466 ], [ 105.3405952, 18.1628415 ], [ 105.3388463, 18.1628688 ], [ 105.33635, 18.1630172 ], [ 105.3348114, 18.1631086 ], [ 105.3341659, 18.1631469 ], [ 105.3322042, 18.1633611 ], [ 105.3302732, 18.1637675 ], [ 105.3283917, 18.1643622 ], [ 105.3265779, 18.1651394 ], [ 105.3248495, 18.1660916 ], [ 105.3232234, 18.1672095 ], [ 105.3217153, 18.1684822 ], [ 105.3208866, 18.1692547 ], [ 105.3195618, 18.1706127 ], [ 105.3183716, 18.1720901 ], [ 105.3173268, 18.1736737 ], [ 105.3164367, 18.1753491 ], [ 105.3158519, 18.1767578 ], [ 105.3155769, 18.1769055 ], [ 105.3140222, 18.177938 ], [ 105.3125706, 18.1791108 ], [ 105.3049969, 18.1858378 ], [ 105.3036256, 18.1871788 ], [ 105.3023891, 18.188645 ], [ 105.3012987, 18.1902229 ], [ 105.3003644, 18.191898 ], [ 105.299595, 18.1936549 ], [ 105.2989973, 18.1954774 ], [ 105.298577, 18.1973488 ], [ 105.2983236, 18.1987991 ], [ 105.2980848, 18.2006975 ], [ 105.2980285, 18.20261 ], [ 105.2981552, 18.2045192 ], [ 105.2984638, 18.2064075 ], [ 105.2989514, 18.2082576 ], [ 105.2996241, 18.2103903 ], [ 105.3001771, 18.2119228 ], [ 105.3008529, 18.2134052 ], [ 105.3019917, 18.2156554 ], [ 105.3029851, 18.2173896 ], [ 105.3027824, 18.2181992 ], [ 105.301178, 18.2178783 ], [ 105.2991692, 18.217684 ], [ 105.297151, 18.2176931 ], [ 105.295144, 18.2179056 ], [ 105.2931687, 18.2183193 ], [ 105.2912451, 18.2189299 ], [ 105.2893928, 18.2197313 ], [ 105.2876267, 18.2206037 ], [ 105.286005, 18.2215005 ], [ 105.2844733, 18.2225436 ], [ 105.2830447, 18.223724 ], [ 105.2817315, 18.2250315 ], [ 105.280545, 18.226455 ], [ 105.2794952, 18.2279822 ], [ 105.2785914, 18.2295999 ], [ 105.2771487, 18.2324889 ], [ 105.27626, 18.2345507 ], [ 105.2760179, 18.2353484 ], [ 105.2757473, 18.2353143 ], [ 105.2739248, 18.2352519 ], [ 105.2721042, 18.2353557 ], [ 105.2703007, 18.235625 ], [ 105.2685292, 18.2360573 ], [ 105.2668044, 18.2366493 ], [ 105.266163, 18.2369026 ], [ 105.2651594, 18.237299 ], [ 105.26347, 18.2380584 ], [ 105.2618581, 18.2389709 ], [ 105.2603375, 18.2400285 ], [ 105.259838, 18.2404496 ], [ 105.257618, 18.2403355 ], [ 105.2569805, 18.2403027 ], [ 105.255109, 18.2402943 ], [ 105.2532449, 18.2404608 ], [ 105.2514045, 18.2408009 ], [ 105.249604, 18.2413115 ], [ 105.247859, 18.2419882 ], [ 105.2472746, 18.2422469 ], [ 105.2463183, 18.2426704 ], [ 105.2446464, 18.2435062 ], [ 105.2430599, 18.2444945 ], [ 105.2415726, 18.2456266 ], [ 105.2401975, 18.2468925 ], [ 105.2389466, 18.2482813 ], [ 105.2378307, 18.2497809 ], [ 105.2368598, 18.251378 ], [ 105.2360422, 18.2530588 ], [ 105.235385, 18.2548086 ], [ 105.2348941, 18.2566121 ], [ 105.2344044, 18.2588121 ], [ 105.2340871, 18.2606286 ], [ 105.2339385, 18.2624666 ], [ 105.2339599, 18.2643105 ], [ 105.2341509, 18.2661446 ], [ 105.2343476, 18.2674471 ], [ 105.2308782, 18.2735502 ], [ 105.2301017, 18.2750623 ], [ 105.2285952, 18.2783307 ], [ 105.2275978, 18.2804947 ], [ 105.2270945, 18.280687 ], [ 105.2254803, 18.2814763 ], [ 105.2239434, 18.2824073 ], [ 105.2209914, 18.2843821 ], [ 105.2199435, 18.2851781 ], [ 105.2186436, 18.285466 ], [ 105.2160085, 18.2857466 ], [ 105.2143856, 18.2859871 ], [ 105.2127878, 18.2863598 ], [ 105.2102219, 18.2870705 ], [ 105.2100876, 18.2871076 ], [ 105.2082826, 18.2877011 ], [ 105.206542, 18.2884632 ], [ 105.2048816, 18.2893871 ], [ 105.2033164, 18.2904643 ], [ 105.2020156, 18.2914538 ], [ 105.2003996, 18.2928241 ], [ 105.1989375, 18.2943577 ], [ 105.197646, 18.2960374 ], [ 105.1969458, 18.2970553 ], [ 105.1899754, 18.2990468 ], [ 105.1873707, 18.2999906 ], [ 105.182692, 18.3020628 ], [ 105.1814388, 18.3026178 ], [ 105.1796585, 18.303515 ], [ 105.1779764, 18.3045848 ], [ 105.1764091, 18.3058169 ], [ 105.1749722, 18.3071988 ], [ 105.172598, 18.3097219 ], [ 105.1695416, 18.3129698 ], [ 105.1682685, 18.3143227 ], [ 105.167042, 18.315756 ], [ 105.165956, 18.3172984 ], [ 105.1650201, 18.3189362 ], [ 105.1642427, 18.320655 ], [ 105.1636307, 18.3224393 ], [ 105.1631895, 18.3242734 ], [ 105.1629231, 18.3261409 ], [ 105.1626457, 18.3290666 ], [ 105.162557, 18.3311081 ], [ 105.1626771, 18.333148 ], [ 105.1630046, 18.3351649 ], [ 105.1635363, 18.337138 ], [ 105.1666938, 18.3468501 ], [ 105.1674232, 18.3491085 ], [ 105.1672623, 18.3494249 ], [ 105.1658124, 18.3522749 ], [ 105.1649578, 18.3539548 ], [ 105.1645954, 18.3546671 ], [ 105.1630999, 18.3561877 ], [ 105.1618937, 18.3575303 ], [ 105.1608134, 18.3589762 ], [ 105.1598679, 18.3605136 ], [ 105.1590649, 18.3621299 ], [ 105.1584108, 18.3638121 ], [ 105.1579399, 18.3652064 ], [ 105.1573656, 18.3672631 ], [ 105.1573104, 18.367594 ], [ 105.1569369, 18.3676087 ], [ 105.1528592, 18.3679759 ], [ 105.1527456, 18.3679862 ], [ 105.1508739, 18.3682456 ], [ 105.1490351, 18.3686805 ], [ 105.1489912, 18.3686931 ], [ 105.1447269, 18.3699183 ], [ 105.1426644, 18.3706349 ], [ 105.1406923, 18.371572 ], [ 105.1388341, 18.3727185 ], [ 105.1371119, 18.3740608 ], [ 105.1364413, 18.3746451 ], [ 105.1352849, 18.3756524 ], [ 105.1338152, 18.3770712 ], [ 105.1324978, 18.3786324 ], [ 105.1313466, 18.3803199 ], [ 105.1303735, 18.382116 ], [ 105.1295887, 18.384002 ], [ 105.1278261, 18.3889341 ], [ 105.1273582, 18.3904248 ], [ 105.1270081, 18.3919475 ], [ 105.1269334, 18.3923421 ], [ 105.1268504, 18.3927806 ], [ 105.1255527, 18.3936138 ], [ 105.1239499, 18.3948923 ], [ 105.1224864, 18.3963281 ], [ 105.1211777, 18.3979063 ], [ 105.1210033, 18.3981669 ], [ 105.1198006, 18.3984175 ], [ 105.1180005, 18.3989737 ], [ 105.1162607, 18.3996968 ], [ 105.1113772, 18.402002 ], [ 105.1095927, 18.4029577 ], [ 105.107914, 18.4040888 ], [ 105.1063582, 18.4053837 ], [ 105.1049413, 18.4068294 ], [ 105.1036777, 18.4084108 ], [ 105.1032952, 18.4089427 ], [ 105.1027574, 18.4096903 ], [ 105.1017438, 18.4112473 ], [ 105.100879, 18.4128917 ], [ 105.1001705, 18.4146092 ], [ 105.0996245, 18.416385 ], [ 105.0993218, 18.4178383 ], [ 105.0974948, 18.4188618 ], [ 105.0957636, 18.4200892 ], [ 105.0941723, 18.4214932 ], [ 105.0927387, 18.4230578 ], [ 105.091479, 18.4247656 ], [ 105.088595, 18.4291438 ], [ 105.0874123, 18.4311938 ], [ 105.08648, 18.4333692 ], [ 105.0838933, 18.4405519 ], [ 105.0833988, 18.442126 ], [ 105.0830357, 18.4437355 ], [ 105.0825451, 18.446422 ], [ 105.082284, 18.4484121 ], [ 105.0822238, 18.4504184 ], [ 105.0823649, 18.4524206 ], [ 105.082706, 18.4543986 ], [ 105.0832437, 18.4563324 ], [ 105.0834562, 18.4569706 ], [ 105.0833647, 18.4574156 ], [ 105.0830708, 18.4592946 ], [ 105.0829567, 18.461193 ], [ 105.0830233, 18.4630936 ], [ 105.0832703, 18.4649793 ], [ 105.0836952, 18.466833 ], [ 105.0842942, 18.468638 ], [ 105.085062, 18.4703779 ], [ 105.0859916, 18.4720371 ], [ 105.0862998, 18.4725306 ], [ 105.0862919, 18.4728788 ], [ 105.0863702, 18.474375 ], [ 105.08729, 18.4845937 ], [ 105.0873495, 18.4863967 ], [ 105.0874904, 18.4881966 ], [ 105.087793, 18.4899764 ], [ 105.0882549, 18.4917216 ], [ 105.0888722, 18.4934181 ], [ 105.0896401, 18.495052 ], [ 105.0899584, 18.4956567 ], [ 105.0894721, 18.4971609 ], [ 105.0886368, 18.5002735 ], [ 105.0882559, 18.5019911 ], [ 105.0880275, 18.5037356 ], [ 105.0879533, 18.5054933 ], [ 105.0880339, 18.5072508 ], [ 105.0884223, 18.5115645 ], [ 105.0888969, 18.5144508 ], [ 105.0900672, 18.5193134 ], [ 105.0906554, 18.521299 ], [ 105.0914457, 18.5232131 ], [ 105.0924297, 18.5250353 ], [ 105.093478, 18.5267569 ], [ 105.0932159, 18.5284868 ], [ 105.0930211, 18.5303721 ], [ 105.0930056, 18.5322674 ], [ 105.0931696, 18.5341556 ], [ 105.0939844, 18.5401982 ], [ 105.094253, 18.5417349 ], [ 105.0946406, 18.5432461 ], [ 105.0952862, 18.5454089 ], [ 105.0959536, 18.5472949 ], [ 105.096806, 18.5491047 ], [ 105.097835, 18.5508204 ], [ 105.0990303, 18.5524246 ], [ 105.1003799, 18.5539015 ], [ 105.1018702, 18.5552361 ], [ 105.1034864, 18.5564151 ], [ 105.104828, 18.5572945 ], [ 105.1061774, 18.558105 ], [ 105.1063688, 18.5582003 ], [ 105.1064325, 18.558661 ], [ 105.1069115, 18.5606289 ], [ 105.107587, 18.5625383 ], [ 105.1085683, 18.5649208 ], [ 105.1094863, 18.56685 ], [ 105.1106049, 18.5686703 ], [ 105.1119112, 18.5703608 ], [ 105.1122376, 18.5707009 ], [ 105.1121858, 18.5711983 ], [ 105.1121504, 18.5728383 ], [ 105.1122494, 18.5744758 ], [ 105.1129411, 18.5812704 ], [ 105.1131945, 18.5830027 ], [ 105.1135982, 18.5847055 ], [ 105.1135861, 18.584751 ], [ 105.1131992, 18.5865173 ], [ 105.1128294, 18.5886665 ], [ 105.1125872, 18.5906819 ], [ 105.1125505, 18.5927116 ], [ 105.1127197, 18.5947345 ], [ 105.1130931, 18.5967299 ], [ 105.1136669, 18.5986771 ], [ 105.1144351, 18.6005561 ], [ 105.1153898, 18.6023476 ], [ 105.1168228, 18.604736 ], [ 105.1178715, 18.60631 ], [ 105.1190641, 18.6077779 ], [ 105.1203901, 18.6091265 ], [ 105.1262944, 18.6145894 ], [ 105.1280504, 18.6160377 ], [ 105.1373227, 18.6228369 ], [ 105.1387714, 18.6238051 ], [ 105.1398248, 18.6243833 ], [ 105.1408618, 18.6259788 ], [ 105.1421331, 18.627558 ], [ 105.1435576, 18.6290004 ], [ 105.1451209, 18.6302912 ], [ 105.1468068, 18.6314171 ], [ 105.148598, 18.6323665 ], [ 105.1504761, 18.6331297 ], [ 105.1524219, 18.6336989 ], [ 105.1543347, 18.6341546 ], [ 105.1561587, 18.6345006 ], [ 105.1580069, 18.6346759 ], [ 105.1598635, 18.6346791 ], [ 105.1617123, 18.6345102 ], [ 105.1635375, 18.6341705 ], [ 105.1653233, 18.633663 ], [ 105.1687268, 18.6325227 ], [ 105.1695847, 18.6321641 ], [ 105.1697664, 18.6331562 ], [ 105.1702546, 18.6349061 ], [ 105.1706821, 18.636207 ], [ 105.169794, 18.6374699 ], [ 105.1697147, 18.6376115 ], [ 105.1681527, 18.6376097 ], [ 105.1663446, 18.6376938 ], [ 105.1642371, 18.6379041 ], [ 105.1621636, 18.6383361 ], [ 105.1601474, 18.6389849 ], [ 105.1582112, 18.6398434 ], [ 105.1563766, 18.6409017 ], [ 105.1546642, 18.6421482 ], [ 105.1544452, 18.642326 ], [ 105.1528414, 18.6436279 ], [ 105.1513448, 18.6449731 ], [ 105.1499909, 18.6464619 ], [ 105.1487935, 18.6480792 ], [ 105.1477646, 18.6498087 ], [ 105.1461829, 18.6528005 ], [ 105.1431856, 18.6570028 ], [ 105.1421391, 18.6583385 ], [ 105.1410198, 18.6584402 ], [ 105.1392699, 18.6587579 ], [ 105.1375552, 18.6592297 ], [ 105.1340376, 18.6603682 ], [ 105.1322877, 18.6610264 ], [ 105.130607, 18.6618451 ], [ 105.1290101, 18.6628172 ], [ 105.1275109, 18.6639341 ], [ 105.1245392, 18.6663721 ], [ 105.1232137, 18.6675621 ], [ 105.1219994, 18.6688653 ], [ 105.1209059, 18.6702714 ], [ 105.1162939, 18.6767802 ], [ 105.1153091, 18.6783137 ], [ 105.1144679, 18.6799305 ], [ 105.1137774, 18.6816172 ], [ 105.1132433, 18.6833597 ], [ 105.1128843, 18.684755 ], [ 105.1124964, 18.6866312 ], [ 105.112472, 18.6868559 ], [ 105.1107375, 18.6860643 ], [ 105.1088597, 18.6854235 ], [ 105.1069276, 18.6849718 ], [ 105.1050125, 18.6846233 ], [ 105.1027756, 18.6843454 ], [ 105.1005216, 18.6843209 ], [ 105.0982792, 18.6845502 ], [ 105.094543, 18.6851466 ], [ 105.0929002, 18.68548 ], [ 105.0912911, 18.6859498 ], [ 105.0851611, 18.6880219 ], [ 105.0801315, 18.6897247 ], [ 105.0780872, 18.6899592 ], [ 105.0680843, 18.6893704 ], [ 105.0649009, 18.6891678 ], [ 105.0599284, 18.6883227 ], [ 105.0536019, 18.6872386 ], [ 105.0517648, 18.6870107 ], [ 105.0499146, 18.6869537 ], [ 105.0480669, 18.687068 ], [ 105.0462378, 18.6873526 ], [ 105.0444428, 18.6878051 ], [ 105.0426973, 18.6884216 ], [ 105.0410163, 18.6891969 ], [ 105.0391949, 18.6901415 ], [ 105.0374707, 18.6911479 ], [ 105.0358554, 18.6923213 ], [ 105.0343652, 18.6936498 ], [ 105.0330148, 18.6951204 ], [ 105.0318177, 18.6967182 ], [ 105.0307859, 18.6984274 ], [ 105.0299297, 18.7002309 ], [ 105.0292575, 18.7021108 ], [ 105.028901, 18.7032906 ], [ 105.0286094, 18.7044549 ], [ 105.0270174, 18.7050961 ], [ 105.0253337, 18.7059679 ], [ 105.02374, 18.7069953 ], [ 105.0222508, 18.7081689 ], [ 105.0208795, 18.7094783 ], [ 105.0202699, 18.7101183 ], [ 105.0163501, 18.7109163 ], [ 105.0145523, 18.71137 ], [ 105.0128043, 18.7119882 ], [ 105.011121, 18.7127657 ], [ 105.0095169, 18.7136957 ], [ 105.0080059, 18.7147703 ], [ 105.0048918, 18.7172099 ], [ 105.0038659, 18.7181057 ], [ 105.0037214, 18.7180594 ], [ 105.0019026, 18.7176587 ], [ 105.0000544, 18.7174289 ], [ 104.9987733, 18.7173299 ], [ 104.9968693, 18.7172737 ], [ 104.9949687, 18.7173989 ], [ 104.9930886, 18.7177044 ], [ 104.9915304, 18.7180344 ], [ 104.9895452, 18.7185626 ], [ 104.9876247, 18.7192917 ], [ 104.9857891, 18.720214 ], [ 104.9855645, 18.7203417 ], [ 104.9853342, 18.7202781 ], [ 104.9835525, 18.719956 ], [ 104.9817489, 18.7197963 ], [ 104.9799382, 18.7198004 ], [ 104.9785531, 18.7198663 ], [ 104.9767297, 18.720037 ], [ 104.9749296, 18.7203738 ], [ 104.9731679, 18.7208738 ], [ 104.9716291, 18.7213877 ], [ 104.9679268, 18.7225635 ], [ 104.9668371, 18.7229473 ], [ 104.9650811, 18.7222724 ], [ 104.9633846, 18.7217109 ], [ 104.961829, 18.7212651 ], [ 104.9602425, 18.7209464 ], [ 104.958996, 18.7207481 ], [ 104.957275, 18.7205503 ], [ 104.9446102, 18.719648 ], [ 104.9429498, 18.7194554 ], [ 104.9411248, 18.7194112 ], [ 104.9393034, 18.7195336 ], [ 104.9375007, 18.7198215 ], [ 104.9367043, 18.7199863 ], [ 104.9347735, 18.7204875 ], [ 104.9329022, 18.7211784 ], [ 104.931109, 18.7220524 ], [ 104.9294119, 18.7231007 ], [ 104.9278275, 18.7243127 ], [ 104.9263718, 18.7256766 ], [ 104.9257943, 18.7262746 ], [ 104.9255759, 18.7265007 ], [ 104.9242589, 18.7280081 ], [ 104.9230993, 18.7296397 ], [ 104.9221085, 18.7313789 ], [ 104.9212966, 18.7332085 ], [ 104.9209153, 18.7341986 ], [ 104.9204232, 18.7356372 ], [ 104.9200418, 18.7371091 ], [ 104.919695, 18.7386932 ], [ 104.9193794, 18.7405493 ], [ 104.9192397, 18.742427 ], [ 104.9191884, 18.7443152 ], [ 104.9188785, 18.7446601 ], [ 104.9185996, 18.7449965 ], [ 104.9183576, 18.7452884 ], [ 104.917081, 18.7470082 ], [ 104.9159956, 18.7488546 ], [ 104.9151139, 18.7508066 ], [ 104.914446, 18.7528416 ], [ 104.9139996, 18.7549363 ], [ 104.9138955, 18.7555964 ], [ 104.913673, 18.7577805 ], [ 104.9136913, 18.7599757 ], [ 104.91395, 18.7621558 ], [ 104.9143196, 18.7637486 ], [ 104.9137406, 18.7640968 ], [ 104.9088711, 18.7670256 ], [ 104.9081731, 18.7674454 ], [ 104.9068628, 18.7673091 ], [ 104.9049518, 18.7671943 ], [ 104.9031721, 18.7671667 ], [ 104.901397, 18.7672975 ], [ 104.9000244, 18.7674603 ], [ 104.8991688, 18.767052 ], [ 104.8973533, 18.766293 ], [ 104.895472, 18.765716 ], [ 104.893543, 18.7653267 ], [ 104.8924084, 18.7651553 ], [ 104.8904503, 18.7649574 ], [ 104.8884822, 18.7649529 ], [ 104.8865231, 18.765142 ], [ 104.8769593, 18.7665425 ], [ 104.8704946, 18.7613531 ], [ 104.8697088, 18.7604904 ], [ 104.8682576, 18.7591805 ], [ 104.8666854, 18.7580185 ], [ 104.8650072, 18.7570156 ], [ 104.8632392, 18.7561813 ], [ 104.8613981, 18.7555236 ], [ 104.8595016, 18.7550489 ], [ 104.8575678, 18.7547615 ], [ 104.8556152, 18.7546643 ], [ 104.8551374, 18.7546639 ], [ 104.8533411, 18.7547432 ], [ 104.8515591, 18.7549836 ], [ 104.849806, 18.755383 ], [ 104.8479384, 18.7558978 ], [ 104.8474277, 18.7560386 ], [ 104.8453576, 18.7567329 ], [ 104.8433755, 18.7576487 ], [ 104.8415051, 18.7587752 ], [ 104.8397686, 18.7600988 ], [ 104.8393929, 18.7604191 ], [ 104.8364709, 18.7629097 ], [ 104.8348724, 18.7644322 ], [ 104.8334515, 18.7661216 ], [ 104.8331508, 18.7665221 ], [ 104.8312727, 18.7665657 ], [ 104.8311261, 18.7665266 ], [ 104.8300734, 18.7662759 ], [ 104.8175351, 18.763646 ], [ 104.8153625, 18.7633137 ], [ 104.8131666, 18.7632218 ], [ 104.8058712, 18.7633177 ], [ 104.8037406, 18.7631886 ], [ 104.8018709, 18.7631629 ], [ 104.8000069, 18.7633119 ], [ 104.796901, 18.763707 ], [ 104.7967103, 18.7637322 ], [ 104.7925891, 18.7642968 ], [ 104.7906642, 18.7646573 ], [ 104.7887837, 18.7652043 ], [ 104.7869658, 18.7659326 ], [ 104.7852329, 18.7667274 ], [ 104.783315, 18.7677362 ], [ 104.7815174, 18.7689467 ], [ 104.7798614, 18.7703445 ], [ 104.7783663, 18.7719133 ], [ 104.778008, 18.7723326 ], [ 104.7725859, 18.7779062 ], [ 104.7722077, 18.778295 ], [ 104.7708442, 18.7798503 ], [ 104.7707703, 18.7799546 ], [ 104.7637451, 18.7773647 ], [ 104.7620696, 18.7768295 ], [ 104.7603535, 18.7764435 ], [ 104.7586101, 18.7762098 ], [ 104.756853, 18.7761302 ], [ 104.7560766, 18.7761292 ], [ 104.7539106, 18.776244 ], [ 104.7517698, 18.7765927 ], [ 104.7496794, 18.7771712 ], [ 104.7476639, 18.7779727 ], [ 104.7465583, 18.7784834 ], [ 104.7440596, 18.7798618 ], [ 104.7416334, 18.7814359 ], [ 104.741366, 18.7816083 ], [ 104.7405714, 18.781509 ], [ 104.7404637, 18.7814955 ], [ 104.7386459, 18.7813514 ], [ 104.7368225, 18.7813735 ], [ 104.7350088, 18.7815616 ], [ 104.7332197, 18.7819141 ], [ 104.7314702, 18.7824281 ], [ 104.7297747, 18.7830992 ], [ 104.7286391, 18.7836098 ], [ 104.7267338, 18.7845925 ], [ 104.7249445, 18.7857735 ], [ 104.723292, 18.7871393 ], [ 104.7217951, 18.788674 ], [ 104.7204711, 18.7903602 ], [ 104.7197528, 18.7913835 ], [ 104.7187517, 18.7929617 ], [ 104.7179023, 18.7946264 ], [ 104.717212, 18.7963631 ], [ 104.7166868, 18.7981567 ], [ 104.716656, 18.7982836 ], [ 104.716453, 18.798311 ], [ 104.7146735, 18.7987193 ], [ 104.7129386, 18.7992882 ], [ 104.7123409, 18.7995149 ], [ 104.7106611, 18.8002416 ], [ 104.7090548, 18.8011188 ], [ 104.7075355, 18.8021391 ], [ 104.7049866, 18.8040256 ], [ 104.7035785, 18.8051701 ], [ 104.70228, 18.8064375 ], [ 104.7011018, 18.8078174 ], [ 104.7000534, 18.8092984 ], [ 104.6991435, 18.8108683 ], [ 104.6972915, 18.8144269 ], [ 104.6956175, 18.8165906 ], [ 104.6949505, 18.8175569 ], [ 104.6934929, 18.8171415 ], [ 104.6917985, 18.8167375 ], [ 104.6900753, 18.8164825 ], [ 104.688403, 18.816309 ], [ 104.6870537, 18.816215 ], [ 104.6853812, 18.8161552 ], [ 104.6832746, 18.8161909 ], [ 104.6811834, 18.8164481 ], [ 104.6802273, 18.8166172 ], [ 104.6785943, 18.816977 ], [ 104.6700475, 18.8192386 ], [ 104.6680294, 18.8198888 ], [ 104.6660915, 18.8207491 ], [ 104.6642555, 18.8218097 ], [ 104.6625422, 18.8230587 ], [ 104.6617045, 18.8237402 ], [ 104.6601596, 18.8251368 ], [ 104.6587683, 18.8266865 ], [ 104.6580797, 18.8275389 ], [ 104.6567347, 18.829416 ], [ 104.654937, 18.8322582 ], [ 104.6541847, 18.8335523 ], [ 104.6535314, 18.834899 ], [ 104.6520136, 18.8383509 ], [ 104.6511097, 18.8404066 ], [ 104.6507557, 18.8405475 ], [ 104.6487952, 18.8415931 ], [ 104.6481443, 18.8419882 ], [ 104.6472993, 18.8425011 ], [ 104.6456431, 18.8436236 ], [ 104.6441073, 18.8449059 ], [ 104.6427073, 18.8463352 ], [ 104.6414571, 18.8478973 ], [ 104.6406782, 18.8489771 ], [ 104.6403364, 18.8495138 ], [ 104.639591, 18.8498193 ], [ 104.6386874, 18.8499015 ], [ 104.6355658, 18.8500285 ], [ 104.6351808, 18.8500443 ], [ 104.6332146, 18.8502221 ], [ 104.6312755, 18.850593 ], [ 104.6293824, 18.8511532 ], [ 104.6285752, 18.8514361 ], [ 104.6267654, 18.8521715 ], [ 104.6250359, 18.8530799 ], [ 104.6234034, 18.8541527 ], [ 104.6218833, 18.8553797 ], [ 104.6204901, 18.8567492 ], [ 104.6192324, 18.8581125 ], [ 104.618078, 18.8594821 ], [ 104.6170508, 18.8609494 ], [ 104.6166089, 18.8617191 ], [ 104.6156933, 18.8623917 ], [ 104.6150267, 18.8628813 ], [ 104.6131024, 18.8644897 ], [ 104.611845, 18.8656823 ], [ 104.6106099, 18.8669628 ], [ 104.6094935, 18.868348 ], [ 104.6085046, 18.8698269 ], [ 104.6076511, 18.8713878 ], [ 104.6069396, 18.8730184 ], [ 104.6066992, 18.8736439 ], [ 104.6061102, 18.8754458 ], [ 104.5927894, 18.8787694 ], [ 104.5902954, 18.8795684 ], [ 104.588752, 18.8801769 ], [ 104.588141, 18.8804178 ], [ 104.5866152, 18.8810943 ], [ 104.5851511, 18.8818957 ], [ 104.5838345, 18.8826895 ], [ 104.5832735, 18.8830649 ], [ 104.5820867, 18.8828368 ], [ 104.5808919, 18.8826634 ], [ 104.5788323, 18.8824725 ], [ 104.5767639, 18.8824954 ], [ 104.5747091, 18.8827319 ], [ 104.5726896, 18.8831793 ], [ 104.5707271, 18.8838328 ], [ 104.5688426, 18.8846856 ], [ 104.5681844, 18.8850255 ], [ 104.5665361, 18.8859787 ], [ 104.5649859, 18.8870844 ], [ 104.5635479, 18.8883324 ], [ 104.562235, 18.8897116 ], [ 104.5610593, 18.8912094 ], [ 104.5600313, 18.8928121 ], [ 104.559311, 18.8940624 ], [ 104.558356, 18.8959431 ], [ 104.5576043, 18.8979138 ], [ 104.5570643, 18.8999528 ], [ 104.556742, 18.9020373 ], [ 104.5565582, 18.9038579 ], [ 104.5564572, 18.9059178 ], [ 104.5564587, 18.905946 ], [ 104.5537317, 18.9103304 ], [ 104.5534536, 18.9106465 ], [ 104.5486799, 18.9160737 ], [ 104.5474607, 18.9176047 ], [ 104.546397, 18.9192476 ], [ 104.545499, 18.9209866 ], [ 104.5447752, 18.922805 ], [ 104.5442327, 18.9246855 ], [ 104.54387, 18.9262211 ], [ 104.5435004, 18.928247 ], [ 104.5434557, 18.9288228 ], [ 104.535346, 18.93649 ], [ 104.5339847, 18.9377768 ], [ 104.5299819, 18.9415606 ], [ 104.5286839, 18.942908 ], [ 104.5275175, 18.9443708 ], [ 104.5264929, 18.9459362 ], [ 104.525619, 18.9475905 ], [ 104.5249036, 18.9493192 ], [ 104.5243528, 18.9511072 ], [ 104.5238695, 18.952984 ], [ 104.5236412, 18.9539741 ], [ 104.5230959, 18.9566473 ], [ 104.522772, 18.9588615 ], [ 104.5226974, 18.961098 ], [ 104.5227179, 18.9620037 ], [ 104.5222319, 18.961905 ], [ 104.5200774, 18.9615884 ], [ 104.5179012, 18.961508 ], [ 104.5157291, 18.9616646 ], [ 104.5137295, 18.9619188 ], [ 104.5123064, 18.9621521 ], [ 104.5108039, 18.9624544 ], [ 104.5100457, 18.9625246 ], [ 104.5077459, 18.9628733 ], [ 104.5055021, 18.9634866 ], [ 104.5043513, 18.9638744 ], [ 104.5042378, 18.9639126 ], [ 104.5025734, 18.9645565 ], [ 104.5009731, 18.9653463 ], [ 104.4994496, 18.9662755 ], [ 104.498015, 18.9673369 ], [ 104.4964212, 18.9686299 ], [ 104.4951277, 18.9697754 ], [ 104.4939378, 18.9710282 ], [ 104.4928606, 18.9723791 ], [ 104.491904, 18.9738179 ], [ 104.4908084, 18.975631 ], [ 104.4895624, 18.9780511 ], [ 104.488786, 18.9798505 ], [ 104.4882254, 18.9789687 ], [ 104.4871062, 18.9775202 ], [ 104.4858592, 18.9761801 ], [ 104.4844948, 18.9749597 ], [ 104.4830247, 18.9738691 ], [ 104.4820659, 18.9732237 ], [ 104.4803268, 18.9721772 ], [ 104.4784906, 18.9713124 ], [ 104.4765763, 18.9706381 ], [ 104.4746034, 18.9701613 ], [ 104.4725924, 18.9698869 ], [ 104.4705639, 18.9698178 ], [ 104.4685389, 18.9699546 ], [ 104.4665382, 18.9702959 ], [ 104.4633321, 18.971012 ], [ 104.4602125, 18.9693906 ], [ 104.4585899, 18.9686375 ], [ 104.4569065, 18.9680323 ], [ 104.4551758, 18.9675799 ], [ 104.4534116, 18.9672841 ], [ 104.451335, 18.9670307 ], [ 104.449502, 18.9668921 ], [ 104.447664, 18.9669224 ], [ 104.4458366, 18.9671213 ], [ 104.4445895, 18.9673154 ], [ 104.4421022, 18.9678668 ], [ 104.4407506, 18.9682582 ], [ 104.4388938, 18.9688962 ], [ 104.4371085, 18.9697132 ], [ 104.4354119, 18.9707014 ], [ 104.4345792, 18.9712428 ], [ 104.4328563, 18.9724985 ], [ 104.4312769, 18.9739304 ], [ 104.4304952, 18.974719 ], [ 104.4286246, 18.9768991 ], [ 104.4273465, 18.9786256 ], [ 104.4272056, 18.9788184 ], [ 104.4256994, 18.9809047 ], [ 104.4237388, 18.982035 ], [ 104.4220286, 18.9831407 ], [ 104.4204396, 18.9844145 ], [ 104.4189884, 18.9858434 ], [ 104.4188821, 18.9859719 ], [ 104.4175482, 18.9863664 ], [ 104.4157956, 18.9870706 ], [ 104.4143428, 18.9877356 ], [ 104.4128596, 18.9884907 ], [ 104.4104928, 18.9898224 ], [ 104.4091801, 18.990629 ], [ 104.4079335, 18.9915344 ], [ 104.4071855, 18.9921229 ], [ 104.4058076, 18.9933123 ], [ 104.4045435, 18.9946222 ], [ 104.4034038, 18.9960415 ], [ 104.4023979, 18.9975585 ], [ 104.4021269, 18.9980106 ], [ 104.4012847, 18.9995681 ], [ 104.4005836, 19.0011939 ], [ 104.4003745, 19.0017446 ], [ 104.3997318, 19.0037491 ], [ 104.3993035, 19.0058101 ], [ 104.3990941, 19.0079047 ], [ 104.399106, 19.0100097 ], [ 104.3991451, 19.0106794 ], [ 104.3992138, 19.0115375 ], [ 104.3993741, 19.0131135 ], [ 104.3995087, 19.0138936 ], [ 104.3992218, 19.01425 ], [ 104.3943908, 19.0179394 ], [ 104.3937312, 19.0184655 ], [ 104.3930244, 19.0190541 ], [ 104.3925696, 19.0194446 ], [ 104.3919044, 19.0200332 ], [ 104.3905419, 19.0213595 ], [ 104.3893115, 19.0228092 ], [ 104.3882243, 19.0243691 ], [ 104.3875573, 19.0254304 ], [ 104.38666, 19.0270138 ], [ 104.384934, 19.0304111 ], [ 104.3846788, 19.030932 ], [ 104.384284, 19.0317683 ], [ 104.3835999, 19.0334009 ], [ 104.3830629, 19.0350875 ], [ 104.3828562, 19.0358522 ], [ 104.3824503, 19.0376949 ], [ 104.3822199, 19.0395677 ], [ 104.382167, 19.0414538 ], [ 104.3821706, 19.0415076 ], [ 104.3797932, 19.0418693 ], [ 104.3797936, 19.0418717 ], [ 104.3785513, 19.0420428 ], [ 104.376458, 19.0425658 ], [ 104.3744331, 19.0433112 ], [ 104.3725004, 19.0442704 ], [ 104.372085, 19.0445053 ], [ 104.370337, 19.045617 ], [ 104.3690487, 19.0466378 ], [ 104.3656982, 19.0490158 ], [ 104.3640204, 19.0503473 ], [ 104.3624946, 19.0518505 ], [ 104.3608574, 19.0536462 ], [ 104.353278, 19.0523092 ], [ 104.351142, 19.0520499 ], [ 104.3489906, 19.0520216 ], [ 104.3468485, 19.0522246 ], [ 104.3447406, 19.0526566 ], [ 104.3426913, 19.0533124 ], [ 104.3409225, 19.0539854 ], [ 104.3360918, 19.0558235 ], [ 104.3299233, 19.0581707 ], [ 104.3274636, 19.0593027 ], [ 104.3267098, 19.0597136 ], [ 104.322138, 19.0622061 ], [ 104.3138872, 19.0664616 ], [ 104.3133385, 19.0667555 ], [ 104.3109784, 19.0680673 ], [ 104.3105347, 19.068246 ], [ 104.3093805, 19.068512 ], [ 104.3068209, 19.069102 ], [ 104.3050195, 19.069607 ], [ 104.3034953, 19.0701123 ], [ 104.3014197, 19.0709315 ], [ 104.2994484, 19.0719768 ], [ 104.2976057, 19.0732352 ], [ 104.2956746, 19.0747185 ], [ 104.2938473, 19.076307 ], [ 104.2922253, 19.0781045 ], [ 104.2918377, 19.0785902 ], [ 104.2890734, 19.082055 ], [ 104.2880439, 19.0834679 ], [ 104.2871418, 19.0849652 ], [ 104.2862395, 19.0866226 ], [ 104.2853305, 19.0885245 ], [ 104.2846268, 19.0905115 ], [ 104.2841362, 19.0925615 ], [ 104.283864, 19.0946517 ], [ 104.2838363, 19.0958033 ], [ 104.2834265, 19.0980755 ], [ 104.2822264, 19.0984938 ], [ 104.2778773, 19.1000096 ], [ 104.2755014, 19.1008378 ], [ 104.2746223, 19.1008513 ], [ 104.2744667, 19.1008351 ], [ 104.2654144, 19.0979338 ], [ 104.2643632, 19.0976283 ], [ 104.2631424, 19.0973096 ], [ 104.2589379, 19.0962116 ], [ 104.256832, 19.0957811 ], [ 104.2546921, 19.095579 ], [ 104.2525428, 19.0956078 ], [ 104.2520208, 19.0956429 ], [ 104.2444201, 19.096154 ], [ 104.2440883, 19.0960907 ], [ 104.2409252, 19.0946559 ], [ 104.2389409, 19.0938804 ], [ 104.2368854, 19.0933204 ], [ 104.234782, 19.0929822 ], [ 104.233435, 19.0928387 ], [ 104.232991853609249, 19.092812808927505 ], [ 104.242485186357072, 19.156661251071942 ] ] ], [ [ [ 104.91791228967773, 10.592769623931281 ], [ 104.899291416722974, 10.596529825470649 ], [ 104.8996414, 10.5972203 ], [ 104.9024268, 10.6027147 ], [ 104.9031527, 10.604023 ], [ 104.9163239, 10.6257967 ], [ 104.9179775, 10.6281342 ], [ 104.927468517607196, 10.6396969310176 ], [ 104.91791228967773, 10.592769623931281 ] ] ] ] } }
]
}
