{
"type": "FeatureCollection",
"name": "2026-09-27",
"crs": { "type": "name", "properties": { "name": "urn:ogc:def:crs:OGC:1.3:CRS84" } },
"features": [
{ "type": "Feature", "properties": { }, "geometry": { "type": "Polygon", "coordinates": [ [ [ 104.91627438872726, 10.59415912456919 ], [ 104.899765192333376, 10.597464489199579 ], [ 104.9024268, 10.6027147 ], [ 104.9031527, 10.604023 ], [ 104.9163239, 10.6257967 ], [ 104.9179775, 10.6281342 ], [ 104.924956873348634, 10.636637041322359 ], [ 104.91627438872726, 10.59415912456919 ] ] ] } }
]
}
