{
"type": "FeatureCollection",
"name": "2026-10-05",
"crs": { "type": "name", "properties": { "name": "urn:ogc:def:crs:OGC:1.3:CRS84" } },
"features": [
{ "type": "Feature", "properties": { }, "geometry": { "type": "MultiPolygon", "coordinates": [ [ [ [ 106.916536809673005, 11.741180345119387 ], [ 108.988148239984326, 11.335954659329795 ], [ 108.960847870233479, 11.314367483956119 ], [ 108.935096888927092, 11.306963220678897 ], [ 108.918463211055425, 11.306758840996704 ], [ 108.891669393999237, 11.334043876736533 ], [ 108.85435626497447, 11.33424213847927 ], [ 108.819160170960402, 11.317080882902872 ], [ 108.812478512686695, 11.300667542619921 ], [ 108.785566845888582, 11.303897345293212 ], [ 108.777955069944525, 11.288838080885631 ], [ 108.755675125784379, 11.28069322233002 ], [ 108.730665052907298, 11.183578319414766 ], [ 108.712254452771205, 11.173957835898451 ], [ 108.709184096396157, 11.163865600889975 ], [ 108.696959192914804, 11.182496653560129 ], [ 108.660539682595555, 11.193457052491564 ], [ 108.633071820467677, 11.18875399438234 ], [ 108.619062283470385, 11.175272731275786 ], [ 108.607017723632609, 11.182908726124777 ], [ 108.587028070744608, 11.182472351569695 ], [ 108.565238028277165, 11.163523784427731 ], [ 108.526209473918456, 11.153059893013291 ], [ 108.496967853197219, 11.115388728833365 ], [ 108.47559040091673, 11.047448218932324 ], [ 108.46382049722331, 11.040615553977917 ], [ 108.43060428425899, 11.044683469525255 ], [ 108.41520639592612, 11.025070890515691 ], [ 108.403496554787694, 11.032670653992925 ], [ 108.37296283953431, 11.030516850398351 ], [ 108.350019000765542, 11.005272326903283 ], [ 108.338665036955334, 10.953093087186295 ], [ 108.314827522287842, 10.958931169450983 ], [ 108.299575105368476, 10.941668435598833 ], [ 108.294423363990688, 10.92410489954521 ], [ 108.30105693791873, 10.909755377139255 ], [ 108.279625601451215, 10.915961615211822 ], [ 108.276361623644732, 10.941825840685588 ], [ 108.231542438777055, 10.955132208076321 ], [ 108.190479950959656, 10.935471211807926 ], [ 108.130459498180073, 10.929772126717298 ], [ 108.108445637689073, 10.916210855772123 ], [ 108.091126190978301, 10.915441330755272 ], [ 108.074587937015323, 10.901151350735871 ], [ 108.036467348592268, 10.827816246370855 ], [ 108.015545873161045, 10.733667653745142 ], [ 108.007560880713996, 10.728967761620119 ], [ 107.993672234058792, 10.690399177599119 ], [ 107.982951605947036, 10.703721897639671 ], [ 107.962697885024227, 10.701175868139666 ], [ 107.931928265116881, 10.717206651597158 ], [ 107.899031109618775, 10.722276227943405 ], [ 107.827375641633296, 10.703035001446175 ], [ 107.772607330277509, 10.645808056797369 ], [ 107.729935483927747, 10.631908068077969 ], [ 107.696245016672194, 10.630000364880919 ], [ 107.564538651085229, 10.564527114280413 ], [ 107.510670691024089, 10.499347217820887 ], [ 107.470768987608849, 10.497732693284611 ], [ 107.44446731587847, 10.468504095300879 ], [ 107.368696121514873, 10.467487274718648 ], [ 107.332191550319337, 10.444264160389046 ], [ 107.3198508865555, 10.444531953909722 ], [ 107.257422877549203, 10.379816018319719 ], [ 107.238193675026082, 10.379678795256266 ], [ 107.213838237810108, 10.403349875033214 ], [ 107.169670343418204, 10.400936778807793 ], [ 107.123617793675706, 10.370079845419955 ], [ 107.084645520463425, 10.323436137375269 ], [ 107.076781956647338, 10.327439494841201 ], [ 107.074152466281205, 10.343513476826629 ], [ 107.065071332445541, 10.349337667931044 ], [ 107.055717836309626, 10.381306396886723 ], [ 107.046800866197231, 10.38949387149747 ], [ 107.061144218524305, 10.396142938223402 ], [ 107.088355217376161, 10.394266086560828 ], [ 107.100966012739889, 10.410757755661962 ], [ 107.114955309258789, 10.412777455591684 ], [ 107.11478133050737, 10.428280702978881 ], [ 107.104254558285504, 10.434417966634701 ], [ 107.07542808156002, 10.431743691540557 ], [ 107.049096040332515, 10.446076316622031 ], [ 107.041836227025527, 10.472604607880568 ], [ 107.031711041189368, 10.47404271038422 ], [ 107.023547412921872, 10.465088945753362 ], [ 107.016671167243132, 10.48119391130238 ], [ 106.995918545649104, 10.495061452917769 ], [ 106.978442175696443, 10.474401931923197 ], [ 106.976350252457593, 10.460150201465025 ], [ 106.943495246238072, 10.470375115887057 ], [ 106.932174086123268, 10.455752376801332 ], [ 106.934896085431703, 10.440691494262955 ], [ 106.947570438476944, 10.428040361629266 ], [ 106.975127048555905, 10.416919617210306 ], [ 106.971370644664461, 10.405897587893001 ], [ 106.897206780021691, 10.375777026446473 ], [ 106.850596011541498, 10.376478483943771 ], [ 106.777618665453005, 10.450204150676182 ], [ 106.760944959649095, 10.478534307990605 ], [ 106.755196429315035, 10.511688758643487 ], [ 106.734833502005841, 10.511981913108931 ], [ 106.725273281493472, 10.487565142072599 ], [ 106.782378111391992, 10.411937324776106 ], [ 106.782406449505828, 10.29047731634539 ], [ 106.755722744274678, 10.256888683635728 ], [ 106.796956418815881, 10.21366925399305 ], [ 106.7968095, 10.2133252 ], [ 106.7958611, 10.2113979 ], [ 106.7947115, 10.2095835 ], [ 106.7933739, 10.2079028 ], [ 106.7931692, 10.2076958 ], [ 106.793153133558747, 10.207269961339023 ], [ 106.787992724616217, 10.200060460207739 ], [ 106.763309813693667, 10.211633142716078 ], [ 106.741207254841314, 10.192524063735769 ], [ 106.771885862895047, 10.173343676018845 ], [ 106.789046684547657, 10.150735711901644 ], [ 106.790622174772935, 10.107149022438879 ], [ 106.738485108497144, 10.044940043559812 ], [ 106.59039188114393, 10.073878246742607 ], [ 106.916536809673005, 11.741180345119387 ] ] ], [ [ [ 108.928913089062775, 10.555966551478239 ], [ 108.959003771473263, 10.553992470341196 ], [ 108.957049803081219, 10.532118075814234 ], [ 108.968912274797788, 10.517683556869846 ], [ 108.967702883100714, 10.506330061419948 ], [ 108.956269154013953, 10.50240266226111 ], [ 108.932203832247851, 10.509186357712585 ], [ 108.921987247757244, 10.542643192919266 ], [ 108.928913089062775, 10.555966551478239 ] ] ] ] } }
]
}
